{"type": "FeatureCollection", "features": [{"type": "Feature", "properties": {"record_id": "68db2ede77f83dcb", "table": "damage_extent", "location_raw": "Betrawati/Kaidaletar/Pairebesi/Salletar/Mailung area (Uttargaya)", "location_ne": "", "admin_level": "rural_municipality", "district": "", "province": "Bagmati", "geo_basis": "text_adjacent", "as_of": "2026-08-29", "as_of_basis": "article_date", "first_reported": "2026-08-28", "last_reported": "2026-08-28", "confidence": "medium", "confidence_note": "Approximate figure ('nearly 300') preserved as stated; district not restated in this sentence though article context points to Rasuwa/Uttargaya.", "density": "1", "effective_sources": "1", "independent_origins": "1", "origin": "media_own", "origin_note": "single outlet", "corroboration": "single_source", "evidence_quote": "२०७२ को भूकम्पबाट विस्थापित भएर ११ वर्षदेखि अस्थायी टहरामा बसोबास गर्दै आएका झण्डै ३०० परिवारका घर बाढीले बगाएर पूरै नामेट पारेको छ।", "evidence_quote_en": "Nearly 300 families' houses -- who had been living in temporary shacks for 11 years after being displaced by the 2072 (2015) earthquake -- were completely swept away and wiped out by the flood.", "temporal_contamination_flag": "", "metric": "buildings_destroyed", "value": "300.0", "value_low": "", "value_high": "", "unit": "households", "denominator": "", "is_percentage": "False", "source_outlets": "Deshsanchar", "source_outlet_count": 1, "entity_key": "buildings_destroyed|Betrawati/Kaidaletar/Pairebesi/Salletar/Mailung area (Uttargaya)", "geo_resolution": "point", "geo_statement": "Matched \"Betrawati\" to a named OSM place", "geo_match_name": "बेत्रावती", "geo_match_osm_id": "node/268864226", "geo_anchor_id": null, "geo_anchor_name": null}, "geometry": {"type": "Point", "coordinates": [85.1859528, 27.9731085]}}, {"type": "Feature", "properties": {"record_id": "63564fc42c320c88", "table": "damage_extent", "location_raw": "Devighat", "location_ne": "", "admin_level": "settlement", "district": "Nuwakot", "province": "Bagmati", "geo_basis": "text_adjacent", "as_of": "2026-08-28", "as_of_basis": "article_date", "first_reported": "2026-08-27", "last_reported": "2026-08-28", "confidence": "medium", "confidence_note": "Devighat named in the preceding sentence; per the fabrication rule, the destroyed count is not computed as 149 — only that one of ~150 remained intact is stated.", "density": "3", "effective_sources": "1", "independent_origins": "1", "origin": "media_own", "origin_note": "single outlet", "corroboration": "syndicated", "evidence_quote": "Residents said only one of roughly 150 houses along the banks of the Trishuli River remained intact: a four-storey old-age care home.", "evidence_quote_en": "", "temporal_contamination_flag": "", "metric": "buildings_destroyed", "value": "", "value_low": "", "value_high": "", "unit": "", "denominator": "150.0", "is_percentage": "False", "source_outlets": "The Witness | Your compass in the community; France 24; Cebu Daily News", "source_outlet_count": 3, "entity_key": "buildings_destroyed|Nuwakot", "geo_resolution": "point", "geo_statement": "Matched \"Devighat\" to a named OSM place in Nuwakot", "geo_match_name": "देवीघाट", "geo_match_osm_id": "node/4156044161", "geo_anchor_id": null, "geo_anchor_name": null}, "geometry": {"type": "Point", "coordinates": [85.1100635, 27.8600323]}}, {"type": "Feature", "properties": {"record_id": "456e81c6fa7e1160", "table": "damage_extent", "location_raw": "Betrawati", "location_ne": "", "admin_level": "settlement", "district": "Nuwakot", "province": "Bagmati", "geo_basis": "text_explicit", "as_of": "2026-08-28", "as_of_basis": "inferred_from_text", "first_reported": "2026-08-28", "last_reported": "2026-08-28", "confidence": "medium", "confidence_note": "Percentage stated directly by a local teacher; no denominator (total house count) given in this article.", "density": "3", "effective_sources": "3", "independent_origins": "3", "origin": "unattributed", "origin_note": "3 outlets, no reporting body named; independence not established", "corroboration": "independent", "evidence_quote": "A teacher he contacted said around 90% of the houses in Betrawati had been destroyed.", "evidence_quote_en": "", "temporal_contamination_flag": "False", "metric": "buildings_destroyed", "value": "90.0", "value_low": "", "value_high": "", "unit": "%", "denominator": "", "is_percentage": "True", "source_outlets": "The Straits Times; Moneycontrol.com; ABP News", "source_outlet_count": 3, "entity_key": "buildings_destroyed|Nuwakot", "geo_resolution": "point", "geo_statement": "Matched \"Betrawati\" to a named OSM place in Nuwakot", "geo_match_name": "बेत्रावती", "geo_match_osm_id": "node/268864226", "geo_anchor_id": null, "geo_anchor_name": null}, "geometry": {"type": "Point", "coordinates": [85.1859528, 27.9731085]}}, {"type": "Feature", "properties": {"record_id": "205b63ee06575429", "table": "damage_extent", "location_raw": "त्रिशूली बजार", "location_ne": "", "admin_level": "settlement", "district": "Nuwakot", "province": "Bagmati", "geo_basis": "text_explicit", "as_of": "2026-08-28", "as_of_basis": "article_date", "first_reported": "2026-08-28", "last_reported": "2026-08-28", "confidence": "high", "confidence_note": "Named market settlement, district explicit; 'करिब' (approx) 60 recorded as stated.", "density": "1", "effective_sources": "1", "independent_origins": "1", "origin": "media_own", "origin_note": "single outlet", "corroboration": "single_source", "evidence_quote": "करिब ६० वटा घर बगेका छन् भने दुईवटा पक्की पुल ध्वस्त भएका छन्।", "evidence_quote_en": "", "temporal_contamination_flag": "", "metric": "buildings_destroyed", "value": "60.0", "value_low": "", "value_high": "", "unit": "houses", "denominator": "", "is_percentage": "False", "source_outlets": "Onlinekhabar", "source_outlet_count": 1, "entity_key": "buildings_destroyed|Nuwakot", "geo_resolution": "district", "geo_statement": "Located to Nuwakot district only — the source names a place we could not resolve", "geo_match_name": null, "geo_match_osm_id": null, "geo_anchor_id": "79688334B17077666187877", "geo_anchor_name": "Nuwakot"}, "geometry": {"type": "Point", "coordinates": [85.20729652963067, 27.936643231647253]}}, {"type": "Feature", "properties": {"record_id": "4db6fc1227a43ba2", "table": "damage_extent", "location_raw": "ढुंगे बजार / त्रिशूली बजार", "location_ne": "ढुंगे बजार / त्रिशूली बजार", "admin_level": "settlement", "district": "Nuwakot", "province": "Bagmati", "geo_basis": "text_explicit", "as_of": "2026-08-28", "as_of_basis": "article_date", "first_reported": "2026-08-28", "last_reported": "2026-08-28", "confidence": "medium", "confidence_note": "Local resident's estimate, not an official count; no denominator (total house count) given.", "density": "1", "effective_sources": "1", "independent_origins": "1", "origin": "media_own", "origin_note": "single outlet", "corroboration": "single_source", "evidence_quote": "ढुंगे र त्रिशूली बजार क्षेत्रका करिब ८० प्रतिशत घरमा ठूलो क्षति पुगेको छ ।", "evidence_quote_en": "About 80 percent of houses in the Dhunge and Trishuli Bazar area have suffered major damage.", "temporal_contamination_flag": "", "metric": "buildings_damaged", "value": "80.0", "value_low": "", "value_high": "", "unit": "%", "denominator": "", "is_percentage": "True", "source_outlets": "Onlinekhabar", "source_outlet_count": 1, "entity_key": "buildings_damaged|Nuwakot", "geo_resolution": "district", "geo_statement": "Located to Nuwakot district only — the source names a place we could not resolve", "geo_match_name": null, "geo_match_osm_id": null, "geo_anchor_id": "79688334B17077666187877", "geo_anchor_name": "Nuwakot"}, "geometry": {"type": "Point", "coordinates": [85.20729652963067, 27.936643231647253]}}, {"type": "Feature", "properties": {"record_id": "3fe2bd99481e7ac7", "table": "damage_extent", "location_raw": "Betrawati Bazaar", "location_ne": "", "admin_level": "settlement", "district": "Nuwakot", "province": "Bagmati", "geo_basis": "text_explicit", "as_of": "2026-08-28", "as_of_basis": "article_date", "first_reported": "2026-08-28", "last_reported": "2026-08-28", "confidence": "medium", "confidence_note": "\"More than 200\" houses (भन्दा बढी = floor, not exact) existed in Betrawati Bazaar; adjacent sentence states not a single intact house remains. No denominator/destroyed-count is separately stated, so value is the stated total-houses figure taken as the destroyed count given \"not a single intact house remains\" in the same paragraph; treated as a floor, not sharpened.", "density": "1", "effective_sources": "1", "independent_origins": "1", "origin": "media_own", "origin_note": "single outlet", "corroboration": "single_source", "evidence_quote": "२०० भन्दा बढी घर रहेको सिंगो बजार अहिले बालुवा र माटोको दबदबे हिलो भएको बगरमा बदलिएको छ । सग्लो कुनै घर पनि छैनन्, बालुवा र माटोको दलदलबीच एकाध जीर्ण र बांगिएका घर मात्रै देखिन्छन् ।", "evidence_quote_en": "", "temporal_contamination_flag": "False", "metric": "buildings_destroyed", "value": "200.0", "value_low": "", "value_high": "", "unit": "houses", "denominator": "", "is_percentage": "", "source_outlets": "Himal Khabar", "source_outlet_count": 1, "entity_key": "buildings_destroyed|Nuwakot", "geo_resolution": "district", "geo_statement": "Located to Nuwakot district only — the source names a place we could not resolve", "geo_match_name": null, "geo_match_osm_id": null, "geo_anchor_id": "79688334B17077666187877", "geo_anchor_name": "Nuwakot"}, "geometry": {"type": "Point", "coordinates": [85.20729652963067, 27.936643231647253]}}, {"type": "Feature", "properties": {"record_id": "193b7a0a8c5081f0", "table": "damage_extent", "location_raw": "Nuwakot district", "location_ne": "", "admin_level": "district", "district": "Nuwakot", "province": "Bagmati", "geo_basis": "text_explicit", "as_of": "2026-08-29", "as_of_basis": "stated", "first_reported": "2026-08-29", "last_reported": "2026-08-29", "confidence": "medium", "confidence_note": "Preliminary estimate stated as a range '700 to 800'; lower bound of range recorded as value.", "density": "1", "effective_sources": "1", "independent_origins": "1", "origin": "media_own", "origin_note": "single outlet", "corroboration": "single_source", "evidence_quote": "प्रारम्भिक अनुमान अनुसार ७०० देखि ८०० वटा निजी घरहरू क्षतिग्रस्त भएका छन्", "evidence_quote_en": "According to preliminary estimates, 700 to 800 private houses have been damaged.", "temporal_contamination_flag": "", "metric": "buildings_damaged", "value": "700.0", "value_low": "", "value_high": "", "unit": "houses", "denominator": "", "is_percentage": "", "source_outlets": "Ratopati", "source_outlet_count": 1, "entity_key": "buildings_damaged|Nuwakot", "geo_resolution": "district", "geo_statement": "Located to Nuwakot district only", "geo_match_name": null, "geo_match_osm_id": null, "geo_anchor_id": "79688334B17077666187877", "geo_anchor_name": "Nuwakot"}, "geometry": {"type": "Point", "coordinates": [85.20729652963067, 27.936643231647253]}}, {"type": "Feature", "properties": {"record_id": "c6ef63cc2744cf74", "table": "damage_extent", "location_raw": "नुवाकोट", "location_ne": "", "admin_level": "district", "district": "Nuwakot", "province": "Bagmati", "geo_basis": "text_explicit", "as_of": "2026-08-29", "as_of_basis": "article_date", "first_reported": "2026-08-29", "last_reported": "2026-08-29", "confidence": "medium", "confidence_note": "Stated as an estimate ('अन्दाजी'), range 700-800, not sharpened to a single number.", "density": "1", "effective_sources": "1", "independent_origins": "1", "origin": "media_own", "origin_note": "single outlet", "corroboration": "single_source", "evidence_quote": "भीषण बाढीका कारण अन्दाजी ७०० देखि ८०० वटा निजी घरहरूमा क्षति पुगेको अनुमान गरिएको छ।", "evidence_quote_en": "Due to the severe flood, an estimated 700 to 800 private houses are believed to have been damaged.", "temporal_contamination_flag": "False", "metric": "buildings_damaged", "value": "", "value_low": "700.0", "value_high": "800.0", "unit": "private houses", "denominator": "", "is_percentage": "False", "source_outlets": "Deshsanchar", "source_outlet_count": 1, "entity_key": "buildings_damaged|Nuwakot", "geo_resolution": "district", "geo_statement": "Located to Nuwakot district only", "geo_match_name": null, "geo_match_osm_id": null, "geo_anchor_id": "79688334B17077666187877", "geo_anchor_name": "Nuwakot"}, "geometry": {"type": "Point", "coordinates": [85.20729652963067, 27.936643231647253]}}, {"type": "Feature", "properties": {"record_id": "ea39994e347d8482", "table": "damage_extent", "location_raw": "विदुर, बेलकोटगढी, तारकेश्वर, किस्पाङ (नुवाकोट)", "location_ne": "", "admin_level": "district", "district": "Nuwakot", "province": "Bagmati", "geo_basis": "text_explicit", "as_of": "2026-08-29", "as_of_basis": "article_date", "first_reported": "2026-08-29", "last_reported": "2026-08-29", "confidence": "medium", "confidence_note": "Article states a range of 700 to 800; value recorded as the lower bound, full range visible in the quote itself.", "density": "1", "effective_sources": "1", "independent_origins": "1", "origin": "media_own", "origin_note": "single outlet", "corroboration": "single_source", "evidence_quote": "भीषण बाढीका कारण अन्दाजी ७०० देखि ८०० वटा निजी घरहरूमा क्षति पुगेको अनुमान गरिएको छ।", "evidence_quote_en": "Due to the severe flood, an estimated 700 to 800 private houses have been damaged.", "temporal_contamination_flag": "False", "metric": "buildings_damaged", "value": "700.0", "value_low": "", "value_high": "", "unit": "private houses", "denominator": "", "is_percentage": "False", "source_outlets": "Deshsanchar", "source_outlet_count": 1, "entity_key": "buildings_damaged|Nuwakot", "geo_resolution": "district", "geo_statement": "Located to Nuwakot district only", "geo_match_name": null, "geo_match_osm_id": null, "geo_anchor_id": "79688334B17077666187877", "geo_anchor_name": "Nuwakot"}, "geometry": {"type": "Point", "coordinates": [85.20729652963067, 27.936643231647253]}}, {"type": "Feature", "properties": {"record_id": "6697ab1e543ead1c", "table": "damage_extent", "location_raw": "नुवाकोट", "location_ne": "", "admin_level": "district", "district": "Nuwakot", "province": "Bagmati", "geo_basis": "text_explicit", "as_of": "2026-08-29", "as_of_basis": "article_date", "first_reported": "2026-08-29", "last_reported": "2026-08-29", "confidence": "medium", "confidence_note": "Damage described as 'आंशिक' (partial); count is explicit in the quote.", "density": "1", "effective_sources": "1", "independent_origins": "1", "origin": "media_own", "origin_note": "single outlet", "corroboration": "single_source", "evidence_quote": "भौतिक पूर्वाधारतर्फ कृषि विकास बैंकसहित ८ वटा सरकारी कार्यालयका भवन, ३ वटा जलविद्युत गृह र ४ वटा विद्यालय (१ सरकारी र ३ निजी) मा आंशिक क्षति पुगेको छ।", "evidence_quote_en": "In physical infrastructure, 8 government office buildings including the Agricultural Development Bank, 3 hydropower powerhouses, and 4 schools (1 government, 3 private) suffered partial damage.", "temporal_contamination_flag": "False", "metric": "buildings_damaged", "value": "8.0", "value_low": "", "value_high": "", "unit": "government office buildings", "denominator": "", "is_percentage": "False", "source_outlets": "Deshsanchar", "source_outlet_count": 1, "entity_key": "buildings_damaged|Nuwakot", "geo_resolution": "district", "geo_statement": "Located to Nuwakot district only", "geo_match_name": null, "geo_match_osm_id": null, "geo_anchor_id": "79688334B17077666187877", "geo_anchor_name": "Nuwakot"}, "geometry": {"type": "Point", "coordinates": [85.20729652963067, 27.936643231647253]}}, {"type": "Feature", "properties": {"record_id": "6c21e92cfd536e87", "table": "damage_extent", "location_raw": "नुवाकोट", "location_ne": "", "admin_level": "district", "district": "Nuwakot", "province": "Bagmati", "geo_basis": "text_explicit", "as_of": "2026-08-29", "as_of_basis": "article_date", "first_reported": "2026-08-29", "last_reported": "2026-08-29", "confidence": "medium", "confidence_note": "Same sentence as the government-office-building record; partial damage, count explicit.", "density": "1", "effective_sources": "1", "independent_origins": "1", "origin": "media_own", "origin_note": "single outlet", "corroboration": "single_source", "evidence_quote": "भौतिक पूर्वाधारतर्फ कृषि विकास बैंकसहित ८ वटा सरकारी कार्यालयका भवन, ३ वटा जलविद्युत गृह र ४ वटा विद्यालय (१ सरकारी र ३ निजी) मा आंशिक क्षति पुगेको छ।", "evidence_quote_en": "In physical infrastructure, 8 government office buildings including the Agricultural Development Bank, 3 hydropower powerhouses, and 4 schools (1 government, 3 private) suffered partial damage.", "temporal_contamination_flag": "False", "metric": "buildings_damaged", "value": "4.0", "value_low": "", "value_high": "", "unit": "schools (1 government, 3 private)", "denominator": "", "is_percentage": "False", "source_outlets": "Deshsanchar", "source_outlet_count": 1, "entity_key": "buildings_damaged|Nuwakot", "geo_resolution": "district", "geo_statement": "Located to Nuwakot district only", "geo_match_name": null, "geo_match_osm_id": null, "geo_anchor_id": "79688334B17077666187877", "geo_anchor_name": "Nuwakot"}, "geometry": {"type": "Point", "coordinates": [85.20729652963067, 27.936643231647253]}}, {"type": "Feature", "properties": {"record_id": "dcd47d625a56712c", "table": "damage_extent", "location_raw": "नुवाकोट", "location_ne": "", "admin_level": "district", "district": "Nuwakot", "province": "Bagmati", "geo_basis": "text_explicit", "as_of": "2026-08-29", "as_of_basis": "article_date", "first_reported": "2026-08-29", "last_reported": "2026-08-29", "confidence": "low", "confidence_note": "Could alternatively be logged per-asset in the infrastructure table; recorded here as an area-level count since the sentence gives only an aggregate tally, not named assets.", "density": "1", "effective_sources": "1", "independent_origins": "1", "origin": "media_own", "origin_note": "single outlet", "corroboration": "single_source", "evidence_quote": "भौतिक पूर्वाधारतर्फ कृषि विकास बैंकसहित ८ वटा सरकारी कार्यालयका भवन, ३ वटा जलविद्युत गृह र ४ वटा विद्यालय (१ सरकारी र ३ निजी) मा आंशिक क्षति पुगेको छ।", "evidence_quote_en": "In physical infrastructure, 8 government office buildings including the Agricultural Development Bank, 3 hydropower powerhouses, and 4 schools (1 government, 3 private) suffered partial damage.", "temporal_contamination_flag": "False", "metric": "buildings_damaged", "value": "3.0", "value_low": "", "value_high": "", "unit": "hydropower powerhouses", "denominator": "", "is_percentage": "False", "source_outlets": "Deshsanchar", "source_outlet_count": 1, "entity_key": "buildings_damaged|Nuwakot", "geo_resolution": "district", "geo_statement": "Located to Nuwakot district only", "geo_match_name": null, "geo_match_osm_id": null, "geo_anchor_id": "79688334B17077666187877", "geo_anchor_name": "Nuwakot"}, "geometry": {"type": "Point", "coordinates": [85.20729652963067, 27.936643231647253]}}, {"type": "Feature", "properties": {"record_id": "f42b211f50b7e37d", "table": "damage_extent", "location_raw": "Nuwakot district", "location_ne": "", "admin_level": "district", "district": "Nuwakot", "province": "Bagmati", "geo_basis": "text_explicit", "as_of": "2026-08-29", "as_of_basis": "article_date", "first_reported": "2026-08-29", "last_reported": "2026-08-29", "confidence": "high", "confidence_note": "District explicitly named.", "density": "1", "effective_sources": "1", "independent_origins": "1", "origin": "media_own", "origin_note": "single outlet", "corroboration": "single_source", "evidence_quote": "An initial assessment in Nuwakot district found that about 11,000 hectares of land and 45 kilometres of roads had been damaged.", "evidence_quote_en": "", "temporal_contamination_flag": "False", "metric": "land_lost", "value": "11000.0", "value_low": "", "value_high": "", "unit": "hectares", "denominator": "", "is_percentage": "", "source_outlets": "Nation Thailand", "source_outlet_count": 1, "entity_key": "land_lost|Nuwakot", "geo_resolution": "district", "geo_statement": "Located to Nuwakot district only", "geo_match_name": null, "geo_match_osm_id": null, "geo_anchor_id": "79688334B17077666187877", "geo_anchor_name": "Nuwakot"}, "geometry": {"type": "Point", "coordinates": [85.20729652963067, 27.936643231647253]}}, {"type": "Feature", "properties": {"record_id": "4dad00105731d658", "table": "damage_extent", "location_raw": "Nuwakot district", "location_ne": "", "admin_level": "district", "district": "Nuwakot", "province": "Bagmati", "geo_basis": "text_explicit", "as_of": "2026-08-29", "as_of_basis": "article_date", "first_reported": "2026-08-29", "last_reported": "2026-08-29", "confidence": "high", "confidence_note": "District explicit.", "density": "1", "effective_sources": "1", "independent_origins": "1", "origin": "media_own", "origin_note": "single outlet", "corroboration": "single_source", "evidence_quote": "The assessment noted that 1,267 homes have been completely destroyed and another 1,253 partially damaged.", "evidence_quote_en": "", "temporal_contamination_flag": "False", "metric": "buildings_destroyed", "value": "1267.0", "value_low": "", "value_high": "", "unit": "homes", "denominator": "", "is_percentage": "", "source_outlets": "nepyork", "source_outlet_count": 1, "entity_key": "buildings_destroyed|Nuwakot", "geo_resolution": "district", "geo_statement": "Located to Nuwakot district only", "geo_match_name": null, "geo_match_osm_id": null, "geo_anchor_id": "79688334B17077666187877", "geo_anchor_name": "Nuwakot"}, "geometry": {"type": "Point", "coordinates": [85.20729652963067, 27.936643231647253]}}, {"type": "Feature", "properties": {"record_id": "6b08e0dd1a88d117", "table": "damage_extent", "location_raw": "Nuwakot district", "location_ne": "", "admin_level": "district", "district": "Nuwakot", "province": "Bagmati", "geo_basis": "text_explicit", "as_of": "2026-08-29", "as_of_basis": "article_date", "first_reported": "2026-08-29", "last_reported": "2026-08-29", "confidence": "high", "confidence_note": "Partially-damaged homes count, district explicit.", "density": "1", "effective_sources": "1", "independent_origins": "1", "origin": "media_own", "origin_note": "single outlet", "corroboration": "single_source", "evidence_quote": "The assessment noted that 1,267 homes have been completely destroyed and another 1,253 partially damaged.", "evidence_quote_en": "", "temporal_contamination_flag": "False", "metric": "buildings_damaged", "value": "1253.0", "value_low": "", "value_high": "", "unit": "homes", "denominator": "", "is_percentage": "", "source_outlets": "nepyork", "source_outlet_count": 1, "entity_key": "buildings_damaged|Nuwakot", "geo_resolution": "district", "geo_statement": "Located to Nuwakot district only", "geo_match_name": null, "geo_match_osm_id": null, "geo_anchor_id": "79688334B17077666187877", "geo_anchor_name": "Nuwakot"}, "geometry": {"type": "Point", "coordinates": [85.20729652963067, 27.936643231647253]}}, {"type": "Feature", "properties": {"record_id": "342b2dda5b0b046a", "table": "damage_extent", "location_raw": "Nuwakot district", "location_ne": "", "admin_level": "district", "district": "Nuwakot", "province": "Bagmati", "geo_basis": "text_explicit", "as_of": "2026-08-29", "as_of_basis": "article_date", "first_reported": "2026-08-29", "last_reported": "2026-08-29", "confidence": "high", "confidence_note": "District explicit.", "density": "1", "effective_sources": "1", "independent_origins": "1", "origin": "media_own", "origin_note": "single outlet", "corroboration": "single_source", "evidence_quote": "It listed 3,095 affected families and 1,897 displaced households.", "evidence_quote_en": "", "temporal_contamination_flag": "False", "metric": "households_affected", "value": "3095.0", "value_low": "", "value_high": "", "unit": "families", "denominator": "", "is_percentage": "", "source_outlets": "nepyork", "source_outlet_count": 1, "entity_key": "households_affected|Nuwakot", "geo_resolution": "district", "geo_statement": "Located to Nuwakot district only", "geo_match_name": null, "geo_match_osm_id": null, "geo_anchor_id": "79688334B17077666187877", "geo_anchor_name": "Nuwakot"}, "geometry": {"type": "Point", "coordinates": [85.20729652963067, 27.936643231647253]}}, {"type": "Feature", "properties": {"record_id": "0b687cef128cc0d3", "table": "damage_extent", "location_raw": "Gegyeling settlement, Rasuwa", "location_ne": "", "admin_level": "settlement", "district": "Rasuwa", "province": "Bagmati", "geo_basis": "text_explicit", "as_of": "2026-08-27", "as_of_basis": "article_date", "first_reported": "2026-08-28", "last_reported": "2026-08-28", "confidence": "medium", "confidence_note": "Gegyeling is the Tibetan settlement in Rasuwa named earlier in the same paragraph.", "density": "1", "effective_sources": "1", "independent_origins": "1", "origin": "media_own", "origin_note": "single outlet", "corroboration": "single_source", "evidence_quote": "Homes of 11 Tibetan families in the settlement, along with homes of other people living nearby, have been carried away.", "evidence_quote_en": "", "temporal_contamination_flag": "", "metric": "households_affected", "value": "11.0", "value_low": "", "value_high": "", "unit": "households", "denominator": "", "is_percentage": "False", "source_outlets": "Tibetan Review", "source_outlet_count": 1, "entity_key": "households_affected|Rasuwa", "geo_resolution": "district", "geo_statement": "Located to Rasuwa district only — the source names a place we could not resolve", "geo_match_name": null, "geo_match_osm_id": null, "geo_anchor_id": "79688334B50883418539268", "geo_anchor_name": "Rasuwa"}, "geometry": {"type": "Point", "coordinates": [85.43275923020244, 28.17010993431697]}}, {"type": "Feature", "properties": {"record_id": "487c39dff8d567a2", "table": "damage_extent", "location_raw": "Timure, Rasuwa", "location_ne": "", "admin_level": "settlement", "district": "Rasuwa", "province": "Bagmati", "geo_basis": "text_explicit", "as_of": "2026-08-27", "as_of_basis": "article_date", "first_reported": "2026-08-28", "last_reported": "2026-08-28", "confidence": "high", "confidence_note": "Timure is a named settlement in Rasuwa, Nepal.", "density": "1", "effective_sources": "1", "independent_origins": "1", "origin": "media_own", "origin_note": "single outlet", "corroboration": "single_source", "evidence_quote": "Also carried away by flood was stated to be the homes of five Tibetan families at a place called Timure located close to the border of Tibet’s county of Kyirong", "evidence_quote_en": "", "temporal_contamination_flag": "", "metric": "households_affected", "value": "5.0", "value_low": "", "value_high": "", "unit": "households", "denominator": "", "is_percentage": "False", "source_outlets": "Tibetan Review", "source_outlet_count": 1, "entity_key": "households_affected|Rasuwa", "geo_resolution": "point", "geo_statement": "Matched \"Timure\" to a named OSM place in Rasuwa", "geo_match_name": "टिमुरे", "geo_match_osm_id": "node/2553894641", "geo_anchor_id": null, "geo_anchor_name": null}, "geometry": {"type": "Point", "coordinates": [85.3666715, 28.2528483]}}, {"type": "Feature", "properties": {"record_id": "6d1cee1fd6ee8102", "table": "damage_extent", "location_raw": "उत्तरगया गाउँपालिका (Uttargaya Rural Municipality), रसुवा", "location_ne": "", "admin_level": "rural_municipality", "district": "Rasuwa", "province": "Bagmati", "geo_basis": "text_adjacent", "as_of": "2026-08-28", "as_of_basis": "article_date", "first_reported": "2026-08-28", "last_reported": "2026-08-28", "confidence": "medium", "confidence_note": "'झण्डै ३००' = 'nearly 300'; located in the Uttargaya rural municipality area per the chair's account.", "density": "1", "effective_sources": "1", "independent_origins": "1", "origin": "media_own", "origin_note": "single outlet", "corroboration": "single_source", "evidence_quote": "२०७२ को भूकम्पबाट विस्थापित भएर ११ वर्षदेखि अस्थायी टहरामा बसोबास गर्दै आएका झण्डै ३०० परिवारका घर बाढीले बगाएर पूरै नामेट पारेको छ।", "evidence_quote_en": "Nearly 300 families' homes - who had been living in temporary shelters for 11 years since being displaced by the 2072 BS (2015) earthquake - were completely swept away and destroyed by the flood.", "temporal_contamination_flag": "", "metric": "households_affected", "value": "300.0", "value_low": "", "value_high": "", "unit": "households", "denominator": "", "is_percentage": "", "source_outlets": "Deshsanchar", "source_outlet_count": 1, "entity_key": "households_affected|Rasuwa", "geo_resolution": "point", "geo_statement": "Matched \"Uttargaya\" to a named OSM place in Rasuwa", "geo_match_name": "उत्तरगया", "geo_match_osm_id": "node/13242877440", "geo_anchor_id": null, "geo_anchor_name": null}, "geometry": {"type": "Point", "coordinates": [85.1951685, 28.0116144]}}, {"type": "Feature", "properties": {"record_id": "23b7b846faa17257", "table": "damage_extent", "location_raw": "Timure, Syafrubesi area", "location_ne": "", "admin_level": "settlement", "district": "Rasuwa", "province": "Bagmati", "geo_basis": "text_adjacent", "as_of": "2026-08-28", "as_of_basis": "article_date", "first_reported": "2026-08-28", "last_reported": "2026-08-28", "confidence": "medium", "confidence_note": "Location (Timure, Syafrubesi) given in the following sentence, not this one.", "density": "1", "effective_sources": "1", "independent_origins": "1", "origin": "media_own", "origin_note": "single outlet", "corroboration": "single_source", "evidence_quote": "विभिन्न बैंकहरूका ९ वटा शाखा कार्यलयमा पूर्ण क्षति पुगेको उनले बताए ।", "evidence_quote_en": "He said 9 branch offices of various banks suffered complete damage.", "temporal_contamination_flag": "", "metric": "buildings_destroyed", "value": "9.0", "value_low": "", "value_high": "", "unit": "bank branches", "denominator": "", "is_percentage": "False", "source_outlets": "Onlinekhabar", "source_outlet_count": 1, "entity_key": "buildings_destroyed|Rasuwa", "geo_resolution": "point", "geo_statement": "Matched \"Timure\" to a named OSM place in Rasuwa", "geo_match_name": "टिमुरे", "geo_match_osm_id": "node/2553894641", "geo_anchor_id": null, "geo_anchor_name": null}, "geometry": {"type": "Point", "coordinates": [85.3666715, 28.2528483]}}, {"type": "Feature", "properties": {"record_id": "31ff0598cee195f0", "table": "damage_extent", "location_raw": "Timure", "location_ne": "", "admin_level": "settlement", "district": "Rasuwa", "province": "Bagmati", "geo_basis": "text_explicit", "as_of": "2026-08-28", "as_of_basis": "article_date", "first_reported": "2026-08-28", "last_reported": "2026-08-28", "confidence": "high", "confidence_note": "Explicit settlement and district named for a stated household count.", "density": "1", "effective_sources": "1", "independent_origins": "1", "origin": "media_own", "origin_note": "single outlet", "corroboration": "single_source", "evidence_quote": "The homes and property of five Tibetan households in the town of Timure were swept away by floodwaters", "evidence_quote_en": "", "temporal_contamination_flag": "", "metric": "households_affected", "value": "5.0", "value_low": "", "value_high": "", "unit": "households", "denominator": "", "is_percentage": "", "source_outlets": "Radio Free Asia", "source_outlet_count": 1, "entity_key": "households_affected|Rasuwa", "geo_resolution": "point", "geo_statement": "Matched \"Timure\" to a named OSM place in Rasuwa", "geo_match_name": "टिमुरे", "geo_match_osm_id": "node/2553894641", "geo_anchor_id": null, "geo_anchor_name": null}, "geometry": {"type": "Point", "coordinates": [85.3666715, 28.2528483]}}, {"type": "Feature", "properties": {"record_id": "7e1bf908dc5bc27c", "table": "damage_extent", "location_raw": "Gegyeling", "location_ne": "", "admin_level": "settlement", "district": "Rasuwa", "province": "Bagmati", "geo_basis": "text_explicit", "as_of": "2026-08-28", "as_of_basis": "article_date", "first_reported": "2026-08-28", "last_reported": "2026-08-28", "confidence": "high", "confidence_note": "Article names both settlement and district directly.", "density": "1", "effective_sources": "1", "independent_origins": "1", "origin": "media_own", "origin_note": "single outlet", "corroboration": "single_source", "evidence_quote": "In the Gegyeling Tibetan settlement in Rasuwa district, 11 houses and the surrounding area were swept away", "evidence_quote_en": "", "temporal_contamination_flag": "", "metric": "households_affected", "value": "11.0", "value_low": "", "value_high": "", "unit": "houses", "denominator": "", "is_percentage": "", "source_outlets": "Radio Free Asia", "source_outlet_count": 1, "entity_key": "households_affected|Rasuwa", "geo_resolution": "district", "geo_statement": "Located to Rasuwa district only — the source names a place we could not resolve", "geo_match_name": null, "geo_match_osm_id": null, "geo_anchor_id": "79688334B50883418539268", "geo_anchor_name": "Rasuwa"}, "geometry": {"type": "Point", "coordinates": [85.43275923020244, 28.17010993431697]}}, {"type": "Feature", "properties": {"record_id": "530ee932080ead49", "table": "damage_extent", "location_raw": "स्याफ्रुबेंसी (वार्ड नं. ५)", "location_ne": "", "admin_level": "settlement", "district": "Rasuwa", "province": "Bagmati", "geo_basis": "text_explicit", "as_of": "2026-08-28", "as_of_basis": "article_date", "first_reported": "2026-08-28", "last_reported": "2026-08-28", "confidence": "medium", "confidence_note": "Ward member estimate, explicitly labelled as an estimate (\"anuman\") elsewhere in the passage.", "density": "1", "effective_sources": "1", "independent_origins": "1", "origin": "media_own", "origin_note": "single outlet", "corroboration": "single_source", "evidence_quote": "वार्ड सदस्य तामांग के अनुसार वहां बाढ़ ने 400 घर बहा दिए हैं।", "evidence_quote_en": "According to ward member Tamang, the flood swept away 400 homes there.", "temporal_contamination_flag": "False", "metric": "buildings_destroyed", "value": "400.0", "value_low": "", "value_high": "", "unit": "homes", "denominator": "", "is_percentage": "False", "source_outlets": "Ratopati", "source_outlet_count": 1, "entity_key": "buildings_destroyed|Rasuwa", "geo_resolution": "district", "geo_statement": "Located to Rasuwa district only — the source names a place we could not resolve", "geo_match_name": null, "geo_match_osm_id": null, "geo_anchor_id": "79688334B50883418539268", "geo_anchor_name": "Rasuwa"}, "geometry": {"type": "Point", "coordinates": [85.43275923020244, 28.17010993431697]}}, {"type": "Feature", "properties": {"record_id": "0dc945f54e0d7d84", "table": "damage_extent", "location_raw": "घट्टेखोला, रसुवागढी", "location_ne": "", "admin_level": "settlement", "district": "Rasuwa", "province": "Bagmati", "geo_basis": "text_explicit", "as_of": "2026-08-28", "as_of_basis": "article_date", "first_reported": "2026-08-28", "last_reported": "2026-08-28", "confidence": "medium", "confidence_note": "Local political-party secretary's estimate; no denominator given, is_percentage true.", "density": "1", "effective_sources": "1", "independent_origins": "1", "origin": "media_own", "origin_note": "single outlet", "corroboration": "single_source", "evidence_quote": "तामांग ने बताया कि रसुवागढी के घट्टेखोला में बसने वाले 90 प्रतिशत घरों के साथ लोग भी लापता हो चुके हैं।", "evidence_quote_en": "Tamang said that 90 percent of the homes in Ghattekhola, Rasuwagadhi, are gone along with their residents, who are also missing.", "temporal_contamination_flag": "False", "metric": "buildings_destroyed", "value": "90.0", "value_low": "", "value_high": "", "unit": "%", "denominator": "", "is_percentage": "True", "source_outlets": "Ratopati", "source_outlet_count": 1, "entity_key": "buildings_destroyed|Rasuwa", "geo_resolution": "point", "geo_statement": "Matched \"रसुवागढी\" to a named OSM place in Rasuwa", "geo_match_name": "रसुवागढी", "geo_match_osm_id": "node/992955542", "geo_anchor_id": null, "geo_anchor_name": null}, "geometry": {"type": "Point", "coordinates": [85.3777789, 28.2777749]}}, {"type": "Feature", "properties": {"record_id": "295bc4da83373c64", "table": "damage_extent", "location_raw": "टिमुरे र स्याफ्रुबेसी, रसुवा", "location_ne": "", "admin_level": "settlement", "district": "Rasuwa", "province": "Bagmati", "geo_basis": "text_explicit", "as_of": "2026-08-28", "as_of_basis": "article_date", "first_reported": "2026-08-28", "last_reported": "2026-08-28", "confidence": "medium", "confidence_note": "Local source estimate covering \"life and property\" loosely; mapped to households_affected as closest metric; no denominator given.", "density": "1", "effective_sources": "1", "independent_origins": "1", "origin": "media_own", "origin_note": "single outlet", "corroboration": "single_source", "evidence_quote": "उन्होंने टिमुरे और स्याफ्रुबेसी में भी जान-माल की 80 प्रतिशत क्षति होने की बात कही।", "evidence_quote_en": "He said that in Timure and Syaphrubesi too, 80 percent of life and property was lost.", "temporal_contamination_flag": "False", "metric": "households_affected", "value": "80.0", "value_low": "", "value_high": "", "unit": "%", "denominator": "", "is_percentage": "True", "source_outlets": "Ratopati", "source_outlet_count": 1, "entity_key": "households_affected|Rasuwa", "geo_resolution": "district", "geo_statement": "Located to Rasuwa district only — the source names a place we could not resolve", "geo_match_name": null, "geo_match_osm_id": null, "geo_anchor_id": "79688334B50883418539268", "geo_anchor_name": "Rasuwa"}, "geometry": {"type": "Point", "coordinates": [85.43275923020244, 28.17010993431697]}}, {"type": "Feature", "properties": {"record_id": "2a637206a30bf47a", "table": "damage_extent", "location_raw": "मैलुंग, रसुवा", "location_ne": "", "admin_level": "settlement", "district": "Rasuwa", "province": "Bagmati", "geo_basis": "text_explicit", "as_of": "2026-08-28", "as_of_basis": "article_date", "first_reported": "2026-08-28", "last_reported": "2026-08-28", "confidence": "medium", "confidence_note": "Local source estimate; no denominator given.", "density": "1", "effective_sources": "1", "independent_origins": "1", "origin": "media_own", "origin_note": "single outlet", "corroboration": "single_source", "evidence_quote": "तामांग के अनुसार हाकुबेसी में 50-60 लोग ही पड़े होने के बावजूद मैलुंग 90 प्रतिशत ध्वस्त हुआ है।", "evidence_quote_en": "According to Tamang, Mailung is 90 percent destroyed.", "temporal_contamination_flag": "False", "metric": "buildings_destroyed", "value": "90.0", "value_low": "", "value_high": "", "unit": "%", "denominator": "", "is_percentage": "True", "source_outlets": "Ratopati", "source_outlet_count": 1, "entity_key": "buildings_destroyed|Rasuwa", "geo_resolution": "district", "geo_statement": "Located to Rasuwa district only — the source names a place we could not resolve", "geo_match_name": null, "geo_match_osm_id": null, "geo_anchor_id": "79688334B50883418539268", "geo_anchor_name": "Rasuwa"}, "geometry": {"type": "Point", "coordinates": [85.43275923020244, 28.17010993431697]}}, {"type": "Feature", "properties": {"record_id": "3e67747652380670", "table": "damage_extent", "location_raw": "Ghattekhola, Rasuwagadhi", "location_ne": "", "admin_level": "settlement", "district": "Rasuwa", "province": "Bagmati", "geo_basis": "text_explicit", "as_of": "2026-08-28", "as_of_basis": "article_date", "first_reported": "2026-08-28", "last_reported": "2026-08-28", "confidence": "medium", "confidence_note": "Percentage explicit; no denominator (total house count) given so a raw count cannot be derived.", "density": "1", "effective_sources": "1", "independent_origins": "1", "origin": "media_own", "origin_note": "single outlet", "corroboration": "single_source", "evidence_quote": "रसुवागढी के घट्टेखोला में बसने वाले 90 प्रतिशत घरों के साथ लोग भी लापता हो चुके हैं।", "evidence_quote_en": "90 percent of the houses in Ghattekhola, Rasuwagadhi, along with the people living there, have gone missing.", "temporal_contamination_flag": "", "metric": "households_affected", "value": "90.0", "value_low": "", "value_high": "", "unit": "%", "denominator": "", "is_percentage": "True", "source_outlets": "Ratopati", "source_outlet_count": 1, "entity_key": "households_affected|Rasuwa", "geo_resolution": "point", "geo_statement": "Matched \"Ghattekhola\" to a named OSM place in Rasuwa", "geo_match_name": "Ghatte Khola", "geo_match_osm_id": "node/5838600737", "geo_anchor_id": null, "geo_anchor_name": null}, "geometry": {"type": "Point", "coordinates": [84.8917597, 28.3858694]}}, {"type": "Feature", "properties": {"record_id": "9fe8e77f55324ca6", "table": "damage_extent", "location_raw": "Mailung", "location_ne": "", "admin_level": "settlement", "district": "Rasuwa", "province": "Bagmati", "geo_basis": "text_explicit", "as_of": "2026-08-28", "as_of_basis": "article_date", "first_reported": "2026-08-28", "last_reported": "2026-08-28", "confidence": "medium", "confidence_note": "Percentage explicit; no denominator given.", "density": "1", "effective_sources": "1", "independent_origins": "1", "origin": "media_own", "origin_note": "single outlet", "corroboration": "single_source", "evidence_quote": "तामांग के अनुसार हाकुबेसी में 50-60 लोग ही पड़े होने के बावजूद मैलुंग 90 प्रतिशत ध्वस्त हुआ है।", "evidence_quote_en": "According to Tamang, despite only 50-60 people remaining in Hakubesi, Mailung has been 90 percent destroyed.", "temporal_contamination_flag": "", "metric": "buildings_destroyed", "value": "90.0", "value_low": "", "value_high": "", "unit": "%", "denominator": "", "is_percentage": "True", "source_outlets": "Ratopati", "source_outlet_count": 1, "entity_key": "buildings_destroyed|Rasuwa", "geo_resolution": "point", "geo_statement": "Matched \"Mailung\" to a named OSM place in Rasuwa", "geo_match_name": "मैलुङ", "geo_match_osm_id": "node/3415533959", "geo_anchor_id": null, "geo_anchor_name": null}, "geometry": {"type": "Point", "coordinates": [85.2070031, 28.0717737]}}, {"type": "Feature", "properties": {"record_id": "557d84c7401a897b", "table": "damage_extent", "location_raw": "Rasuwa (unspecified locations)", "location_ne": "", "admin_level": "district", "district": "Rasuwa", "province": "Bagmati", "geo_basis": "text_adjacent", "as_of": "2026-08-28", "as_of_basis": "article_date", "first_reported": "2026-08-28", "last_reported": "2026-08-28", "confidence": "medium", "confidence_note": "Insurance-industry report naming a distinct count of destroyed bank branches; same underlying fact as a similar figure reported in another article, recorded separately per article as required.", "density": "1", "effective_sources": "1", "independent_origins": "1", "origin": "media_own", "origin_note": "single outlet", "corroboration": "single_source", "evidence_quote": "बाढीले सयौंको संख्यामा गाडी तथा अन्य आयातित सामग्री, जलविद्युत् आयोजना, व्यक्तिगत घर, बैंकहरूका ९ वटा शाखा, सयौँ मालबाहक कन्टेनर लगायत बगाएर नष्ट गरेको छ ।", "evidence_quote_en": "The flood swept away and destroyed hundreds of vehicles and other imported goods, hydropower projects, private homes, 9 branch offices of banks, and hundreds of cargo containers, among other things.", "temporal_contamination_flag": "", "metric": "buildings_destroyed", "value": "9.0", "value_low": "", "value_high": "", "unit": "bank branches", "denominator": "", "is_percentage": "False", "source_outlets": "Onlinekhabar", "source_outlet_count": 1, "entity_key": "buildings_destroyed|Rasuwa", "geo_resolution": "district", "geo_statement": "Located to Rasuwa district only", "geo_match_name": null, "geo_match_osm_id": null, "geo_anchor_id": "79688334B50883418539268", "geo_anchor_name": "Rasuwa"}, "geometry": {"type": "Point", "coordinates": [85.43275923020244, 28.17010993431697]}}, {"type": "Feature", "properties": {"record_id": "8834a7283c9a4cba", "table": "damage_extent", "location_raw": "Syafrubesi (ward 5, Gosaikunda rural municipality)", "location_ne": "", "admin_level": "settlement", "district": "Rasuwa", "province": "Bagmati", "geo_basis": "text_adjacent", "as_of": "2026-08-28", "as_of_basis": "article_date", "first_reported": "2026-08-28", "last_reported": "2026-08-28", "confidence": "medium", "confidence_note": "Ward member's estimate for Syafrubesi (ward 5).", "density": "1", "effective_sources": "1", "independent_origins": "1", "origin": "media_own", "origin_note": "single outlet", "corroboration": "single_source", "evidence_quote": "वहां बाढ़ ने 400 घर बहा दिए हैं।", "evidence_quote_en": "There, the flood swept away 400 houses.", "temporal_contamination_flag": "", "metric": "buildings_destroyed", "value": "400.0", "value_low": "", "value_high": "", "unit": "houses", "denominator": "", "is_percentage": "False", "source_outlets": "Ratopati", "source_outlet_count": 1, "entity_key": "buildings_destroyed|Rasuwa", "geo_resolution": "point", "geo_statement": "Matched \"Gosaikunda\" to a named OSM place in Rasuwa", "geo_match_name": "गोसाइँकुण्ड", "geo_match_osm_id": "node/13242877445", "geo_anchor_id": null, "geo_anchor_name": null}, "geometry": {"type": "Point", "coordinates": [85.298525, 28.110361]}}, {"type": "Feature", "properties": {"record_id": "f15fd7b6ab71ce35", "table": "damage_extent", "location_raw": "Syabrubesi", "location_ne": "", "admin_level": "settlement", "district": "Rasuwa", "province": "Bagmati", "geo_basis": "text_explicit", "as_of": "2026-08-28", "as_of_basis": "article_date", "first_reported": "2026-08-28", "last_reported": "2026-08-28", "confidence": "medium", "confidence_note": "India Today's own OSINT satellite-imagery analysis, not an official Nepal source.", "density": "1", "effective_sources": "1", "independent_origins": "1", "origin": "media_own", "origin_note": "single outlet", "corroboration": "single_source", "evidence_quote": "India Today’s analysis of satellite imagery mapped 192 structures along the Syabrubesi riverbank, of which 114 appear damaged or swept away, while 78 remained visible", "evidence_quote_en": "", "temporal_contamination_flag": "False", "metric": "buildings_damaged", "value": "114.0", "value_low": "", "value_high": "", "unit": "", "denominator": "192.0", "is_percentage": "False", "source_outlets": "India Today", "source_outlet_count": 1, "entity_key": "buildings_damaged|Rasuwa", "geo_resolution": "district", "geo_statement": "Located to Rasuwa district only — the source names a place we could not resolve", "geo_match_name": null, "geo_match_osm_id": null, "geo_anchor_id": "79688334B50883418539268", "geo_anchor_name": "Rasuwa"}, "geometry": {"type": "Point", "coordinates": [85.43275923020244, 28.17010993431697]}}, {"type": "Feature", "properties": {"record_id": "5fc5c8549f75ad90", "table": "damage_extent", "location_raw": "उत्तरगया गाउँपालिका, रसुवा", "location_ne": "", "admin_level": "rural_municipality", "district": "Rasuwa", "province": "Bagmati", "geo_basis": "text_adjacent", "as_of": "2026-08-28", "as_of_basis": "article_date", "first_reported": "2026-08-28", "last_reported": "2026-08-28", "confidence": "medium", "confidence_note": "Figure given as 'approximately 300'; location inferred from surrounding Uttargaya-focused interview context.", "density": "1", "effective_sources": "1", "independent_origins": "1", "origin": "media_own", "origin_note": "single outlet", "corroboration": "single_source", "evidence_quote": "भूकम्पका कारण विस्थापित भई ११ वर्षदेखि अस्थायी बसोबास गर्दै आएका करिब ३०० परिवारसमेत बाढीबाट प्रभावित भएको उनले बताएका छन्", "evidence_quote_en": "", "temporal_contamination_flag": "", "metric": "households_affected", "value": "300.0", "value_low": "", "value_high": "", "unit": "households", "denominator": "", "is_percentage": "False", "source_outlets": "Arghakhanchi", "source_outlet_count": 1, "entity_key": "households_affected|Rasuwa", "geo_resolution": "point", "geo_statement": "Matched \"उत्तरगया\" to a named OSM place in Rasuwa", "geo_match_name": "उत्तरगया", "geo_match_osm_id": "node/13242877440", "geo_anchor_id": null, "geo_anchor_name": null}, "geometry": {"type": "Point", "coordinates": [85.1951685, 28.0116144]}}, {"type": "Feature", "properties": {"record_id": "f47eda1d719a3bd1", "table": "damage_extent", "location_raw": "उत्तरगया गाउँपालिका (वेत्रावती, कैदलेटार, पैरेबेसी, सल्लेटार, मैलुङ), रसुवा", "location_ne": "उत्तरगया गाउँपालिका", "admin_level": "rural_municipality", "district": "Rasuwa", "province": "Bagmati", "geo_basis": "text_explicit", "as_of": "2026-08-28", "as_of_basis": "article_date", "first_reported": "2026-08-28", "last_reported": "2026-08-28", "confidence": "medium", "confidence_note": "'करिब' (approximately) 300 households; a pre-existing earthquake-displaced settlement in Uttargaya rural municipality, now also hit by the current flood.", "density": "1", "effective_sources": "1", "independent_origins": "1", "origin": "media_own", "origin_note": "single outlet", "corroboration": "single_source", "evidence_quote": "भूकम्पका कारण विस्थापित भई ११ वर्षदेखि अस्थायी बसोबास गर्दै आएका करिब ३०० परिवारसमेत बाढीबाट प्रभावित भएको उनले बताएका छन् ।", "evidence_quote_en": "About 300 families who were displaced by the earthquake and have been living in temporary housing for 11 years were also affected by the flood, he said.", "temporal_contamination_flag": "False", "metric": "households_affected", "value": "300.0", "value_low": "", "value_high": "", "unit": "households", "denominator": "", "is_percentage": "False", "source_outlets": "Arghakhanchi", "source_outlet_count": 1, "entity_key": "households_affected|Rasuwa", "geo_resolution": "point", "geo_statement": "Matched \"उत्तरगया\" to a named OSM place in Rasuwa", "geo_match_name": "उत्तरगया", "geo_match_osm_id": "node/13242877440", "geo_anchor_id": null, "geo_anchor_name": null}, "geometry": {"type": "Point", "coordinates": [85.1951685, 28.0116144]}}]}