{"type": "FeatureCollection", "features": [{"type": "Feature", "geometry": {"type": "Polygon", "coordinates": [[[85.363775, 28.149434999999997], [85.38574499999999, 28.149434999999997], [85.38574499999999, 28.168945], [85.363775, 28.168945], [85.363775, 28.149434999999997]]]}, "properties": {"date": "2026-08-26", "dt": "2026-08-26_0000"}}, {"type": "Feature", "geometry": {"type": "Polygon", "coordinates": [[[83.97949500000001, 28.265605], [84.001465, 28.265605], [84.001465, 28.285114999999998], [83.97949500000001, 28.285114999999998], [83.97949500000001, 28.265605]]]}, "properties": {"date": "2026-08-26", "dt": "2026-08-26_0000"}}, {"type": "Feature", "geometry": {"type": "Polygon", "coordinates": [[[85.583495, 27.955534999999998], [85.60546500000001, 27.955534999999998], [85.60546500000001, 27.975045], [85.583495, 27.975045], [85.583495, 27.955534999999998]]]}, "properties": {"date": "2026-08-26", "dt": "2026-08-26_0000"}}, {"type": "Feature", "geometry": {"type": "Polygon", "coordinates": [[[84.506835, 27.722405000000002], [84.528805, 27.722405000000002], [84.528805, 27.741915], [84.506835, 27.741915], [84.506835, 27.722405000000002]]]}, "properties": {"date": "2026-08-26", "dt": "2026-08-26_0000"}}, {"type": "Feature", "geometry": {"type": "Polygon", "coordinates": [[[83.957525, 28.226895], [83.97949499999999, 28.226895], [83.97949499999999, 28.246405000000003], [83.957525, 28.246405000000003], [83.957525, 28.226895]]]}, "properties": {"date": "2026-08-26", "dt": "2026-08-26_0000"}}, {"type": "Feature", "geometry": {"type": "Polygon", "coordinates": [[[84.902345, 27.644585], [84.924315, 27.644585], [84.924315, 27.664095000000003], [84.902345, 27.664095000000003], [84.902345, 27.644585]]]}, "properties": {"date": "2026-08-26", "dt": "2026-08-26_0000"}}, {"type": "Feature", "geometry": {"type": "Polygon", "coordinates": [[[84.99023500000001, 27.858465000000002], [85.012205, 27.858465000000002], [85.012205, 27.877975], [84.99023500000001, 27.877975], [84.99023500000001, 27.858465000000002]]]}, "properties": {"date": "2026-08-26", "dt": "2026-08-26_0000"}}, {"type": "Feature", "geometry": {"type": "Polygon", "coordinates": [[[85.31982500000001, 28.168805], [85.34179499999999, 28.168805], [85.34179499999999, 28.188315000000003], [85.31982500000001, 28.188315000000003], [85.31982500000001, 28.168805]]]}, "properties": {"date": "2026-08-26", "dt": "2026-08-26_0000"}}, {"type": "Feature", "geometry": {"type": "Polygon", "coordinates": [[[85.34179499999999, 28.130065000000002], [85.363765, 28.130065000000002], [85.363765, 28.149575], [85.34179499999999, 28.149575], [85.34179499999999, 28.130065000000002]]]}, "properties": {"date": "2026-08-26", "dt": "2026-08-26_0000"}}, {"type": "Feature", "geometry": {"type": "Polygon", "coordinates": [[[84.968265, 27.936135], [84.99023499999998, 27.936135], [84.99023499999998, 27.955644999999997], [84.968265, 27.955644999999997], [84.968265, 27.936135]]]}, "properties": {"date": "2026-08-26", "dt": "2026-08-26_0000"}}, {"type": "Feature", "geometry": {"type": "Polygon", "coordinates": [[[84.023435, 28.265605], [84.04540499999999, 28.265605], [84.04540499999999, 28.285114999999998], [84.023435, 28.285114999999998], [84.023435, 28.265605]]]}, "properties": {"date": "2026-08-26", "dt": "2026-08-26_0000"}}, {"type": "Feature", "geometry": {"type": "Polygon", "coordinates": [[[85.012205, 28.013745], [85.034175, 28.013745], [85.034175, 28.033254999999997], [85.012205, 28.033254999999997], [85.012205, 28.013745]]]}, "properties": {"date": "2026-08-26", "dt": "2026-08-26_0000"}}, {"type": "Feature", "geometry": {"type": "Polygon", "coordinates": [[[83.957525, 26.922105000000002], [83.97949499999999, 26.922105000000002], [83.97949499999999, 26.941615], [83.957525, 26.941615], [83.957525, 26.922105000000002]]]}, "properties": {"date": "2026-08-26", "dt": "2026-08-26_0000"}}, {"type": "Feature", "geometry": {"type": "Polygon", "coordinates": [[[84.99023500000001, 27.994345000000003], [85.012205, 27.994345000000003], [85.012205, 28.013855], [84.99023500000001, 28.013855], [84.99023500000001, 27.994345000000003]]]}, "properties": {"date": "2026-08-26", "dt": "2026-08-26_0000"}}, {"type": "Feature", "geometry": {"type": "Polygon", "coordinates": [[[84.99023500000001, 27.897305000000003], [85.012205, 27.897305000000003], [85.012205, 27.916815], [84.99023500000001, 27.916815], [84.99023500000001, 27.897305000000003]]]}, "properties": {"date": "2026-08-26", "dt": "2026-08-26_0000"}}, {"type": "Feature", "geometry": {"type": "Polygon", "coordinates": [[[85.122075, 27.974944999999998], [85.144045, 27.974944999999998], [85.144045, 27.994455000000002], [85.122075, 27.994455000000002], [85.122075, 27.974944999999998]]]}, "properties": {"date": "2026-08-26", "dt": "2026-08-26_0000"}}, {"type": "Feature", "geometry": {"type": "Polygon", "coordinates": [[[85.27588499999999, 28.168805], [85.297855, 28.168805], [85.297855, 28.188315000000003], [85.27588499999999, 28.188315000000003], [85.27588499999999, 28.168805]]]}, "properties": {"date": "2026-08-26", "dt": "2026-08-26_0000"}}, {"type": "Feature", "geometry": {"type": "Polygon", "coordinates": [[[85.363775, 28.130065000000002], [85.38574499999999, 28.130065000000002], [85.38574499999999, 28.149575], [85.363775, 28.149575], [85.363775, 28.130065000000002]]]}, "properties": {"date": "2026-08-26", "dt": "2026-08-26_0000"}}, {"type": "Feature", "geometry": {"type": "Polygon", "coordinates": [[[85.03418500000001, 28.013745], [85.05615499999999, 28.013745], [85.05615499999999, 28.033254999999997], [85.03418500000001, 28.033254999999997], [85.03418500000001, 28.013745]]]}, "properties": {"date": "2026-08-26", "dt": "2026-08-26_0000"}}, {"type": "Feature", "geometry": {"type": "Polygon", "coordinates": [[[84.94629499999999, 27.916714999999996], [84.968265, 27.916714999999996], [84.968265, 27.936225], [84.94629499999999, 27.936225], [84.94629499999999, 27.916714999999996]]]}, "properties": {"date": "2026-08-26", "dt": "2026-08-26_0000"}}, {"type": "Feature", "geometry": {"type": "Polygon", "coordinates": [[[85.34179499999999, 28.168805], [85.363765, 28.168805], [85.363765, 28.188315000000003], [85.34179499999999, 28.188315000000003], [85.34179499999999, 28.168805]]]}, "properties": {"date": "2026-08-26", "dt": "2026-08-26_0000"}}, {"type": "Feature", "geometry": {"type": "Polygon", "coordinates": [[[84.968265, 27.877885], [84.99023499999998, 27.877885], [84.99023499999998, 27.897395000000003], [84.968265, 27.897395000000003], [84.968265, 27.877885]]]}, "properties": {"date": "2026-08-26", "dt": "2026-08-26_0000"}}, {"type": "Feature", "geometry": {"type": "Polygon", "coordinates": [[[83.957525, 28.265605], [83.97949499999999, 28.265605], [83.97949499999999, 28.285114999999998], [83.957525, 28.285114999999998], [83.957525, 28.265605]]]}, "properties": {"date": "2026-08-26", "dt": "2026-08-26_0000"}}, {"type": "Feature", "geometry": {"type": "Polygon", "coordinates": [[[85.56152499999999, 27.955534999999998], [85.583495, 27.955534999999998], [85.583495, 27.975045], [85.56152499999999, 27.975045], [85.56152499999999, 27.955534999999998]]]}, "properties": {"date": "2026-08-26", "dt": "2026-08-26_0000"}}, {"type": "Feature", "geometry": {"type": "Polygon", "coordinates": [[[85.979005, 27.780735], [86.00097500000001, 27.780735], [86.00097500000001, 27.800244999999997], [85.979005, 27.800244999999997], [85.979005, 27.780735]]]}, "properties": {"date": "2026-08-26", "dt": "2026-08-26_0000"}}, {"type": "Feature", "geometry": {"type": "Polygon", "coordinates": [[[85.297855, 27.196035000000002], [85.31982500000001, 27.196035000000002], [85.31982500000001, 27.215545], [85.297855, 27.215545], [85.297855, 27.196035000000002]]]}, "properties": {"date": "2026-08-26", "dt": "2026-08-26_0000"}}, {"type": "Feature", "geometry": {"type": "Polygon", "coordinates": [[[84.748535, 27.974944999999998], [84.77050499999999, 27.974944999999998], [84.77050499999999, 27.994455000000002], [84.748535, 27.994455000000002], [84.748535, 27.974944999999998]]]}, "properties": {"date": "2026-08-26", "dt": "2026-08-26_0000"}}, {"type": "Feature", "geometry": {"type": "Polygon", "coordinates": [[[85.935055, 27.117835], [85.95702499999999, 27.117835], [85.95702499999999, 27.137345000000003], [85.935055, 27.137345000000003], [85.935055, 27.117835]]]}, "properties": {"date": "2026-08-26", "dt": "2026-08-26_0000"}}, {"type": "Feature", "geometry": {"type": "Polygon", "coordinates": [[[84.55078499999999, 27.722405000000002], [84.572755, 27.722405000000002], [84.572755, 27.741915], [84.55078499999999, 27.741915], [84.55078499999999, 27.722405000000002]]]}, "properties": {"date": "2026-08-26", "dt": "2026-08-26_0000"}}, {"type": "Feature", "geometry": {"type": "Polygon", "coordinates": [[[84.77050500000001, 27.955534999999998], [84.792475, 27.955534999999998], [84.792475, 27.975045], [84.77050500000001, 27.975045], [84.77050500000001, 27.955534999999998]]]}, "properties": {"date": "2026-08-26", "dt": "2026-08-26_0000"}}, {"type": "Feature", "geometry": {"type": "Polygon", "coordinates": [[[85.27588499999999, 27.955534999999998], [85.297855, 27.955534999999998], [85.297855, 27.975045], [85.27588499999999, 27.975045], [85.27588499999999, 27.955534999999998]]]}, "properties": {"date": "2026-08-26", "dt": "2026-08-26_0000"}}, {"type": "Feature", "geometry": {"type": "Polygon", "coordinates": [[[84.94629499999999, 28.013745], [84.968265, 28.013745], [84.968265, 28.033254999999997], [84.94629499999999, 28.033254999999997], [84.94629499999999, 28.013745]]]}, "properties": {"date": "2026-08-26", "dt": "2026-08-26_0000"}}, {"type": "Feature", "geometry": {"type": "Polygon", "coordinates": [[[85.297855, 28.188175], [85.31982500000001, 28.188175], [85.31982500000001, 28.207684999999998], [85.297855, 28.207684999999998], [85.297855, 28.188175]]]}, "properties": {"date": "2026-08-26", "dt": "2026-08-26_0000"}}, {"type": "Feature", "geometry": {"type": "Polygon", "coordinates": [[[85.979005, 27.274175], [86.00097500000001, 27.274175], [86.00097500000001, 27.293685000000004], [85.979005, 27.293685000000004], [85.979005, 27.274175]]]}, "properties": {"date": "2026-08-26", "dt": "2026-08-26_0000"}}, {"type": "Feature", "geometry": {"type": "Polygon", "coordinates": [[[86.264645, 26.902515], [86.28661500000001, 26.902515], [86.28661500000001, 26.922024999999998], [86.264645, 26.922024999999998], [86.264645, 26.902515]]]}, "properties": {"date": "2026-08-26", "dt": "2026-08-26_0000"}}, {"type": "Feature", "geometry": {"type": "Polygon", "coordinates": [[[85.583495, 27.936135], [85.60546500000001, 27.936135], [85.60546500000001, 27.955644999999997], [85.583495, 27.955644999999997], [85.583495, 27.936135]]]}, "properties": {"date": "2026-08-26", "dt": "2026-08-26_0000"}}, {"type": "Feature", "geometry": {"type": "Polygon", "coordinates": [[[84.682615, 27.761294999999997], [84.70458500000001, 27.761294999999997], [84.70458500000001, 27.780805], [84.682615, 27.780805], [84.682615, 27.761294999999997]]]}, "properties": {"date": "2026-08-26", "dt": "2026-08-26_0000"}}, {"type": "Feature", "geometry": {"type": "Polygon", "coordinates": [[[84.66064499999999, 27.780735], [84.682615, 27.780735], [84.682615, 27.800244999999997], [84.66064499999999, 27.800244999999997], [84.66064499999999, 27.780735]]]}, "properties": {"date": "2026-08-26", "dt": "2026-08-26_0000"}}, {"type": "Feature", "geometry": {"type": "Polygon", "coordinates": [[[84.506835, 27.741855], [84.528805, 27.741855], [84.528805, 27.761364999999998], [84.506835, 27.761364999999998], [84.506835, 27.741855]]]}, "properties": {"date": "2026-08-26", "dt": "2026-08-26_0000"}}, {"type": "Feature", "geometry": {"type": "Polygon", "coordinates": [[[84.968265, 27.916714999999996], [84.99023499999998, 27.916714999999996], [84.99023499999998, 27.936225], [84.968265, 27.936225], [84.968265, 27.916714999999996]]]}, "properties": {"date": "2026-08-26", "dt": "2026-08-26_0000"}}, {"type": "Feature", "geometry": {"type": "Polygon", "coordinates": [[[85.67138500000001, 27.196035000000002], [85.693355, 27.196035000000002], [85.693355, 27.215545], [85.67138500000001, 27.215545], [85.67138500000001, 27.196035000000002]]]}, "properties": {"date": "2026-08-26", "dt": "2026-08-26_0000"}}, {"type": "Feature", "geometry": {"type": "Polygon", "coordinates": [[[85.03418500000001, 27.994345000000003], [85.05615499999999, 27.994345000000003], [85.05615499999999, 28.013855], [85.03418500000001, 28.013855], [85.03418500000001, 27.994345000000003]]]}, "properties": {"date": "2026-08-26", "dt": "2026-08-26_0000"}}, {"type": "Feature", "geometry": {"type": "Polygon", "coordinates": [[[84.968265, 28.013745], [84.99023499999998, 28.013745], [84.99023499999998, 28.033254999999997], [84.968265, 28.033254999999997], [84.968265, 28.013745]]]}, "properties": {"date": "2026-08-26", "dt": "2026-08-26_0000"}}, {"type": "Feature", "geometry": {"type": "Polygon", "coordinates": [[[84.99023500000001, 27.877885], [85.012205, 27.877885], [85.012205, 27.897395000000003], [84.99023500000001, 27.897395000000003], [84.99023500000001, 27.877885]]]}, "properties": {"date": "2026-08-26", "dt": "2026-08-26_0000"}}, {"type": "Feature", "geometry": {"type": "Polygon", "coordinates": [[[85.363775, 27.176485], [85.38574499999999, 27.176485], [85.38574499999999, 27.195995000000003], [85.363775, 27.195995000000003], [85.363775, 27.176485]]]}, "properties": {"date": "2026-08-26", "dt": "2026-08-26_0000"}}, {"type": "Feature", "geometry": {"type": "Polygon", "coordinates": [[[83.957525, 28.246254999999998], [83.97949499999999, 28.246254999999998], [83.97949499999999, 28.265765000000002], [83.957525, 28.265765000000002], [83.957525, 28.246254999999998]]]}, "properties": {"date": "2026-08-26", "dt": "2026-08-26_0000"}}, {"type": "Feature", "geometry": {"type": "Polygon", "coordinates": [[[85.935055, 27.137385000000002], [85.95702499999999, 27.137385000000002], [85.95702499999999, 27.156895], [85.935055, 27.156895], [85.935055, 27.137385000000002]]]}, "properties": {"date": "2026-08-26", "dt": "2026-08-26_0000"}}, {"type": "Feature", "geometry": {"type": "Polygon", "coordinates": [[[85.56152499999999, 27.722405000000002], [85.583495, 27.722405000000002], [85.583495, 27.741915], [85.56152499999999, 27.741915], [85.56152499999999, 27.722405000000002]]]}, "properties": {"date": "2026-08-26", "dt": "2026-08-26_0000"}}, {"type": "Feature", "geometry": {"type": "Polygon", "coordinates": [[[86.17675500000001, 26.273805000000003], [86.198725, 26.273805000000003], [86.198725, 26.293315], [86.17675500000001, 26.293315], [86.17675500000001, 26.273805000000003]]]}, "properties": {"date": "2026-08-26", "dt": "2026-08-26_0000"}}, {"type": "Feature", "geometry": {"type": "Polygon", "coordinates": [[[84.902345, 27.664045], [84.924315, 27.664045], [84.924315, 27.683555], [84.902345, 27.683555], [84.902345, 27.664045]]]}, "properties": {"date": "2026-08-26", "dt": "2026-08-26_0000"}}, {"type": "Feature", "geometry": {"type": "Polygon", "coordinates": [[[85.012205, 28.033135], [85.034175, 28.033135], [85.034175, 28.052645], [85.012205, 28.052645], [85.012205, 28.033135]]]}, "properties": {"date": "2026-08-26", "dt": "2026-08-26_0000"}}, {"type": "Feature", "geometry": {"type": "Polygon", "coordinates": [[[85.979005, 27.800175000000003], [86.00097500000001, 27.800175000000003], [86.00097500000001, 27.819685], [85.979005, 27.819685], [85.979005, 27.800175000000003]]]}, "properties": {"date": "2026-08-26", "dt": "2026-08-26_0000"}}, {"type": "Feature", "geometry": {"type": "Polygon", "coordinates": [[[84.99023500000001, 28.013745], [85.012205, 28.013745], [85.012205, 28.033254999999997], [84.99023500000001, 28.033254999999997], [84.99023500000001, 28.013745]]]}, "properties": {"date": "2026-08-26", "dt": "2026-08-26_0000"}}, {"type": "Feature", "geometry": {"type": "Polygon", "coordinates": [[[84.81445500000001, 27.780735], [84.83642499999999, 27.780735], [84.83642499999999, 27.800244999999997], [84.81445500000001, 27.800244999999997], [84.81445500000001, 27.780735]]]}, "properties": {"date": "2026-08-26", "dt": "2026-08-26_0000"}}, {"type": "Feature", "geometry": {"type": "Polygon", "coordinates": [[[84.41894500000001, 27.800175000000003], [84.44091499999999, 27.800175000000003], [84.44091499999999, 27.819685], [84.41894500000001, 27.819685], [84.41894500000001, 27.800175000000003]]]}, "properties": {"date": "2026-08-26", "dt": "2026-08-26_0000"}}, {"type": "Feature", "geometry": {"type": "Polygon", "coordinates": [[[85.34179499999999, 28.149434999999997], [85.363765, 28.149434999999997], [85.363765, 28.168945], [85.34179499999999, 28.168945], [85.34179499999999, 28.149434999999997]]]}, "properties": {"date": "2026-08-26", "dt": "2026-08-26_0000"}}, {"type": "Feature", "geometry": {"type": "Polygon", "coordinates": [[[85.27588499999999, 28.188175], [85.297855, 28.188175], [85.297855, 28.207684999999998], [85.27588499999999, 28.207684999999998], [85.27588499999999, 28.188175]]]}, "properties": {"date": "2026-08-26", "dt": "2026-08-26_0000"}}, {"type": "Feature", "geometry": {"type": "Polygon", "coordinates": [[[85.95703499999999, 27.274175], [85.979005, 27.274175], [85.979005, 27.293685000000004], [85.95703499999999, 27.293685000000004], [85.95703499999999, 27.274175]]]}, "properties": {"date": "2026-08-26", "dt": "2026-08-26_0000"}}, {"type": "Feature", "geometry": {"type": "Polygon", "coordinates": [[[85.03418500000001, 28.033135], [85.05615499999999, 28.033135], [85.05615499999999, 28.052645], [85.03418500000001, 28.052645], [85.03418500000001, 28.033135]]]}, "properties": {"date": "2026-08-26", "dt": "2026-08-26_0000"}}, {"type": "Feature", "geometry": {"type": "Polygon", "coordinates": [[[84.968265, 27.897305000000003], [84.99023499999998, 27.897305000000003], [84.99023499999998, 27.916815], [84.968265, 27.916815], [84.968265, 27.897305000000003]]]}, "properties": {"date": "2026-08-26", "dt": "2026-08-26_0000"}}, {"type": "Feature", "geometry": {"type": "Polygon", "coordinates": [[[85.56152499999999, 27.936135], [85.583495, 27.936135], [85.583495, 27.955644999999997], [85.56152499999999, 27.955644999999997], [85.56152499999999, 27.936135]]]}, "properties": {"date": "2026-08-26", "dt": "2026-08-26_0000"}}, {"type": "Feature", "geometry": {"type": "Polygon", "coordinates": [[[85.297855, 28.168805], [85.31982500000001, 28.168805], [85.31982500000001, 28.188315000000003], [85.297855, 28.188315000000003], [85.297855, 28.168805]]]}, "properties": {"date": "2026-08-26", "dt": "2026-08-26_0000"}}, {"type": "Feature", "geometry": {"type": "Polygon", "coordinates": [[[84.001465, 28.265605], [84.023435, 28.265605], [84.023435, 28.285114999999998], [84.001465, 28.285114999999998], [84.001465, 28.265605]]]}, "properties": {"date": "2026-08-26", "dt": "2026-08-26_0000"}}, {"type": "Feature", "geometry": {"type": "Polygon", "coordinates": [[[84.968265, 27.994345000000003], [84.99023499999998, 27.994345000000003], [84.99023499999998, 28.013855], [84.968265, 28.013855], [84.968265, 27.994345000000003]]]}, "properties": {"date": "2026-08-26", "dt": "2026-08-26_0000"}}, {"type": "Feature", "geometry": {"type": "Polygon", "coordinates": [[[84.55078499999999, 27.741855], [84.572755, 27.741855], [84.572755, 27.761364999999998], [84.55078499999999, 27.761364999999998], [84.55078499999999, 27.741855]]]}, "properties": {"date": "2026-08-26", "dt": "2026-08-26_0000"}}, {"type": "Feature", "geometry": {"type": "Polygon", "coordinates": [[[85.49560500000001, 28.207535], [85.517575, 28.207535], [85.517575, 28.227044999999997], [85.49560500000001, 28.227044999999997], [85.49560500000001, 28.207535]]]}, "properties": {"date": "2026-08-26", "dt": "2026-08-26_0000"}}, {"type": "Feature", "geometry": {"type": "Polygon", "coordinates": [[[85.16601500000002, 28.033135], [85.187985, 28.033135], [85.187985, 28.052645], [85.16601500000002, 28.052645], [85.16601500000002, 28.033135]]]}, "properties": {"date": "2026-08-27", "dt": "2026-08-27_0000"}}, {"type": "Feature", "geometry": {"type": "Polygon", "coordinates": [[[85.583495, 27.955534999999998], [85.60546500000001, 27.955534999999998], [85.60546500000001, 27.975045], [85.583495, 27.975045], [85.583495, 27.955534999999998]]]}, "properties": {"date": "2026-08-27", "dt": "2026-08-27_0000"}}, {"type": "Feature", "geometry": {"type": "Polygon", "coordinates": [[[85.16601500000002, 27.974944999999998], [85.187985, 27.974944999999998], [85.187985, 27.994455000000002], [85.16601500000002, 27.994455000000002], [85.16601500000002, 27.974944999999998]]]}, "properties": {"date": "2026-08-27", "dt": "2026-08-27_0000"}}, {"type": "Feature", "geometry": {"type": "Polygon", "coordinates": [[[83.957525, 28.226895], [83.97949499999999, 28.226895], [83.97949499999999, 28.246405000000003], [83.957525, 28.246405000000003], [83.957525, 28.226895]]]}, "properties": {"date": "2026-08-27", "dt": "2026-08-27_0000"}}, {"type": "Feature", "geometry": {"type": "Polygon", "coordinates": [[[85.187985, 28.091305], [85.20995500000001, 28.091305], [85.20995500000001, 28.110815000000002], [85.187985, 28.110815000000002], [85.187985, 28.091305]]]}, "properties": {"date": "2026-08-27", "dt": "2026-08-27_0000"}}, {"type": "Feature", "geometry": {"type": "Polygon", "coordinates": [[[84.968265, 27.936135], [84.99023499999998, 27.936135], [84.99023499999998, 27.955644999999997], [84.968265, 27.955644999999997], [84.968265, 27.936135]]]}, "properties": {"date": "2026-08-27", "dt": "2026-08-27_0000"}}, {"type": "Feature", "geometry": {"type": "Polygon", "coordinates": [[[85.187985, 28.033135], [85.20995500000001, 28.033135], [85.20995500000001, 28.052645], [85.187985, 28.052645], [85.187985, 28.033135]]]}, "properties": {"date": "2026-08-27", "dt": "2026-08-27_0000"}}, {"type": "Feature", "geometry": {"type": "Polygon", "coordinates": [[[85.34179499999999, 28.226895], [85.363765, 28.226895], [85.363765, 28.246405000000003], [85.34179499999999, 28.246405000000003], [85.34179499999999, 28.226895]]]}, "properties": {"date": "2026-08-27", "dt": "2026-08-27_0000"}}, {"type": "Feature", "geometry": {"type": "Polygon", "coordinates": [[[85.649415, 27.974944999999998], [85.67138499999999, 27.974944999999998], [85.67138499999999, 27.994455000000002], [85.649415, 27.994455000000002], [85.649415, 27.974944999999998]]]}, "properties": {"date": "2026-08-27", "dt": "2026-08-27_0000"}}, {"type": "Feature", "geometry": {"type": "Polygon", "coordinates": [[[85.20996500000001, 28.033135], [85.231935, 28.033135], [85.231935, 28.052645], [85.20996500000001, 28.052645], [85.20996500000001, 28.033135]]]}, "properties": {"date": "2026-08-27", "dt": "2026-08-27_0000"}}, {"type": "Feature", "geometry": {"type": "Polygon", "coordinates": [[[85.979005, 27.780735], [86.00097500000001, 27.780735], [86.00097500000001, 27.800244999999997], [85.979005, 27.800244999999997], [85.979005, 27.780735]]]}, "properties": {"date": "2026-08-27", "dt": "2026-08-27_0000"}}, {"type": "Feature", "geometry": {"type": "Polygon", "coordinates": [[[85.363775, 28.226895], [85.38574499999999, 28.226895], [85.38574499999999, 28.246405000000003], [85.363775, 28.246405000000003], [85.363775, 28.226895]]]}, "properties": {"date": "2026-08-27", "dt": "2026-08-27_0000"}}, {"type": "Feature", "geometry": {"type": "Polygon", "coordinates": [[[85.16601500000002, 28.013745], [85.187985, 28.013745], [85.187985, 28.033254999999997], [85.16601500000002, 28.033254999999997], [85.16601500000002, 28.013745]]]}, "properties": {"date": "2026-08-27", "dt": "2026-08-27_0000"}}, {"type": "Feature", "geometry": {"type": "Polygon", "coordinates": [[[85.078125, 27.994345000000003], [85.10009500000001, 27.994345000000003], [85.10009500000001, 28.013855], [85.078125, 28.013855], [85.078125, 27.994345000000003]]]}, "properties": {"date": "2026-08-27", "dt": "2026-08-27_0000"}}, {"type": "Feature", "geometry": {"type": "Polygon", "coordinates": [[[85.27588499999999, 27.819605000000003], [85.297855, 27.819605000000003], [85.297855, 27.839115], [85.27588499999999, 27.839115], [85.27588499999999, 27.819605000000003]]]}, "properties": {"date": "2026-08-27", "dt": "2026-08-27_0000"}}, {"type": "Feature", "geometry": {"type": "Polygon", "coordinates": [[[85.583495, 27.936135], [85.60546500000001, 27.936135], [85.60546500000001, 27.955644999999997], [85.583495, 27.955644999999997], [85.583495, 27.936135]]]}, "properties": {"date": "2026-08-27", "dt": "2026-08-27_0000"}}, {"type": "Feature", "geometry": {"type": "Polygon", "coordinates": [[[84.968265, 27.916714999999996], [84.99023499999998, 27.916714999999996], [84.99023499999998, 27.936225], [84.968265, 27.936225], [84.968265, 27.916714999999996]]]}, "properties": {"date": "2026-08-27", "dt": "2026-08-27_0000"}}, {"type": "Feature", "geometry": {"type": "Polygon", "coordinates": [[[85.979005, 27.488774999999997], [86.00097500000001, 27.488774999999997], [86.00097500000001, 27.508285], [85.979005, 27.508285], [85.979005, 27.488774999999997]]]}, "properties": {"date": "2026-08-27", "dt": "2026-08-27_0000"}}, {"type": "Feature", "geometry": {"type": "Polygon", "coordinates": [[[83.957525, 28.246254999999998], [83.97949499999999, 28.246254999999998], [83.97949499999999, 28.265765000000002], [83.957525, 28.265765000000002], [83.957525, 28.246254999999998]]]}, "properties": {"date": "2026-08-27", "dt": "2026-08-27_0000"}}, {"type": "Feature", "geometry": {"type": "Polygon", "coordinates": [[[85.187985, 28.052535], [85.20995500000001, 28.052535], [85.20995500000001, 28.072045000000003], [85.187985, 28.072045000000003], [85.187985, 28.052535]]]}, "properties": {"date": "2026-08-27", "dt": "2026-08-27_0000"}}, {"type": "Feature", "geometry": {"type": "Polygon", "coordinates": [[[84.902345, 27.664045], [84.924315, 27.664045], [84.924315, 27.683555], [84.902345, 27.683555], [84.902345, 27.664045]]]}, "properties": {"date": "2026-08-27", "dt": "2026-08-27_0000"}}, {"type": "Feature", "geometry": {"type": "Polygon", "coordinates": [[[85.078125, 28.033135], [85.10009500000001, 28.033135], [85.10009500000001, 28.052645], [85.078125, 28.052645], [85.078125, 28.033135]]]}, "properties": {"date": "2026-08-27", "dt": "2026-08-27_0000"}}, {"type": "Feature", "geometry": {"type": "Polygon", "coordinates": [[[85.34179499999999, 28.246254999999998], [85.363765, 28.246254999999998], [85.363765, 28.265765000000002], [85.34179499999999, 28.265765000000002], [85.34179499999999, 28.246254999999998]]]}, "properties": {"date": "2026-08-27", "dt": "2026-08-27_0000"}}, {"type": "Feature", "geometry": {"type": "Polygon", "coordinates": [[[85.20996500000001, 28.052535], [85.231935, 28.052535], [85.231935, 28.072045000000003], [85.20996500000001, 28.072045000000003], [85.20996500000001, 28.052535]]]}, "properties": {"date": "2026-08-27", "dt": "2026-08-27_0000"}}, {"type": "Feature", "geometry": {"type": "Polygon", "coordinates": [[[85.10009500000001, 28.033135], [85.12206499999999, 28.033135], [85.12206499999999, 28.052645], [85.10009500000001, 28.052645], [85.10009500000001, 28.033135]]]}, "properties": {"date": "2026-08-27", "dt": "2026-08-27_0000"}}, {"type": "Feature", "geometry": {"type": "Polygon", "coordinates": [[[84.902345, 27.780735], [84.924315, 27.780735], [84.924315, 27.800244999999997], [84.902345, 27.800244999999997], [84.902345, 27.780735]]]}, "properties": {"date": "2026-08-27", "dt": "2026-08-27_0000"}}, {"type": "Feature", "geometry": {"type": "Polygon", "coordinates": [[[85.363775, 28.188175], [85.38574499999999, 28.188175], [85.38574499999999, 28.207684999999998], [85.363775, 28.207684999999998], [85.363775, 28.188175]]]}, "properties": {"date": "2026-08-27", "dt": "2026-08-27_0000"}}, {"type": "Feature", "geometry": {"type": "Polygon", "coordinates": [[[85.078125, 28.013745], [85.10009500000001, 28.013745], [85.10009500000001, 28.033254999999997], [85.078125, 28.033254999999997], [85.078125, 28.013745]]]}, "properties": {"date": "2026-08-27", "dt": "2026-08-27_0000"}}, {"type": "Feature", "geometry": {"type": "Polygon", "coordinates": [[[84.924315, 27.780735], [84.94628499999999, 27.780735], [84.94628499999999, 27.800244999999997], [84.924315, 27.800244999999997], [84.924315, 27.780735]]]}, "properties": {"date": "2026-08-27", "dt": "2026-08-27_0000"}}, {"type": "Feature", "geometry": {"type": "Polygon", "coordinates": [[[85.03418500000001, 27.916714999999996], [85.05615499999999, 27.916714999999996], [85.05615499999999, 27.936225], [85.03418500000001, 27.936225], [85.03418500000001, 27.916714999999996]]]}, "properties": {"date": "2026-08-27", "dt": "2026-08-27_0000"}}, {"type": "Feature", "geometry": {"type": "Polygon", "coordinates": [[[85.187985, 27.974944999999998], [85.20995500000001, 27.974944999999998], [85.20995500000001, 27.994455000000002], [85.187985, 27.994455000000002], [85.187985, 27.974944999999998]]]}, "properties": {"date": "2026-08-27", "dt": "2026-08-27_0000"}}, {"type": "Feature", "geometry": {"type": "Polygon", "coordinates": [[[85.913085, 27.352255], [85.935055, 27.352255], [85.935055, 27.371765000000003], [85.913085, 27.371765000000003], [85.913085, 27.352255]]]}, "properties": {"date": "2026-08-27", "dt": "2026-08-27_0000"}}, {"type": "Feature", "geometry": {"type": "Polygon", "coordinates": [[[83.957525, 28.265605], [83.97949499999999, 28.265605], [83.97949499999999, 28.285114999999998], [83.957525, 28.285114999999998], [83.957525, 28.265605]]]}, "properties": {"date": "2026-08-27", "dt": "2026-08-27_0000"}}, {"type": "Feature", "geometry": {"type": "Polygon", "coordinates": [[[85.16601500000002, 27.955534999999998], [85.187985, 27.955534999999998], [85.187985, 27.975045], [85.16601500000002, 27.975045], [85.16601500000002, 27.955534999999998]]]}, "properties": {"date": "2026-08-27", "dt": "2026-08-27_0000"}}, {"type": "Feature", "geometry": {"type": "Polygon", "coordinates": [[[85.31982500000001, 28.207535], [85.34179499999999, 28.207535], [85.34179499999999, 28.227044999999997], [85.31982500000001, 28.227044999999997], [85.31982500000001, 28.207535]]]}, "properties": {"date": "2026-08-27", "dt": "2026-08-27_0000"}}, {"type": "Feature", "geometry": {"type": "Polygon", "coordinates": [[[85.187985, 28.071914999999997], [85.20995500000001, 28.071914999999997], [85.20995500000001, 28.091425], [85.187985, 28.091425], [85.187985, 28.071914999999997]]]}, "properties": {"date": "2026-08-27", "dt": "2026-08-27_0000"}}, {"type": "Feature", "geometry": {"type": "Polygon", "coordinates": [[[85.187985, 28.013745], [85.20995500000001, 28.013745], [85.20995500000001, 28.033254999999997], [85.187985, 28.033254999999997], [85.187985, 28.013745]]]}, "properties": {"date": "2026-08-27", "dt": "2026-08-27_0000"}}, {"type": "Feature", "geometry": {"type": "Polygon", "coordinates": [[[85.34179499999999, 28.207535], [85.363765, 28.207535], [85.363765, 28.227044999999997], [85.34179499999999, 28.227044999999997], [85.34179499999999, 28.207535]]]}, "properties": {"date": "2026-08-27", "dt": "2026-08-27_0000"}}, {"type": "Feature", "geometry": {"type": "Polygon", "coordinates": [[[85.10009500000001, 27.994345000000003], [85.12206499999999, 27.994345000000003], [85.12206499999999, 28.013855], [85.10009500000001, 28.013855], [85.10009500000001, 27.994345000000003]]]}, "properties": {"date": "2026-08-27", "dt": "2026-08-27_0000"}}, {"type": "Feature", "geometry": {"type": "Polygon", "coordinates": [[[85.20996500000001, 28.071914999999997], [85.231935, 28.071914999999997], [85.231935, 28.091425], [85.20996500000001, 28.091425], [85.20996500000001, 28.071914999999997]]]}, "properties": {"date": "2026-08-27", "dt": "2026-08-27_0000"}}, {"type": "Feature", "geometry": {"type": "Polygon", "coordinates": [[[84.81445500000001, 27.780735], [84.83642499999999, 27.780735], [84.83642499999999, 27.800244999999997], [84.81445500000001, 27.800244999999997], [84.81445500000001, 27.780735]]]}, "properties": {"date": "2026-08-27", "dt": "2026-08-27_0000"}}, {"type": "Feature", "geometry": {"type": "Polygon", "coordinates": [[[85.20996500000001, 28.013745], [85.231935, 28.013745], [85.231935, 28.033254999999997], [85.20996500000001, 28.033254999999997], [85.20996500000001, 28.013745]]]}, "properties": {"date": "2026-08-27", "dt": "2026-08-27_0000"}}, {"type": "Feature", "geometry": {"type": "Polygon", "coordinates": [[[85.363775, 28.207535], [85.38574499999999, 28.207535], [85.38574499999999, 28.227044999999997], [85.363775, 28.227044999999997], [85.363775, 28.207535]]]}, "properties": {"date": "2026-08-27", "dt": "2026-08-27_0000"}}, {"type": "Feature", "geometry": {"type": "Polygon", "coordinates": [[[85.27588499999999, 28.188175], [85.297855, 28.188175], [85.297855, 28.207684999999998], [85.27588499999999, 28.207684999999998], [85.27588499999999, 28.188175]]]}, "properties": {"date": "2026-08-27", "dt": "2026-08-27_0000"}}, {"type": "Feature", "geometry": {"type": "Polygon", "coordinates": [[[85.122075, 27.994345000000003], [85.144045, 27.994345000000003], [85.144045, 28.013855], [85.122075, 28.013855], [85.122075, 27.994345000000003]]]}, "properties": {"date": "2026-08-27", "dt": "2026-08-27_0000"}}, {"type": "Feature", "geometry": {"type": "Polygon", "coordinates": [[[84.001465, 28.265605], [84.023435, 28.265605], [84.023435, 28.285114999999998], [84.001465, 28.285114999999998], [84.001465, 28.265605]]]}, "properties": {"date": "2026-08-27", "dt": "2026-08-27_0000"}}, {"type": "Feature", "geometry": {"type": "Polygon", "coordinates": [[[85.16601500000002, 27.936135], [85.187985, 27.936135], [85.187985, 27.955644999999997], [85.16601500000002, 27.955644999999997], [85.16601500000002, 27.936135]]]}, "properties": {"date": "2026-08-27", "dt": "2026-08-27_0000"}}, {"type": "Feature", "geometry": {"type": "Polygon", "coordinates": [[[85.10009500000001, 27.974944999999998], [85.12206499999999, 27.974944999999998], [85.12206499999999, 27.994455000000002], [85.10009500000001, 27.994455000000002], [85.10009500000001, 27.974944999999998]]]}, "properties": {"date": "2026-08-27", "dt": "2026-08-27_0000"}}, {"type": "Feature", "geometry": {"type": "Polygon", "coordinates": [[[85.144045, 27.994345000000003], [85.16601499999999, 27.994345000000003], [85.16601499999999, 28.013855], [85.144045, 28.013855], [85.144045, 27.994345000000003]]]}, "properties": {"date": "2026-08-27", "dt": "2026-08-27_0000"}}, {"type": "Feature", "geometry": {"type": "Polygon", "coordinates": [[[84.902345, 27.644585], [84.924315, 27.644585], [84.924315, 27.664095000000003], [84.902345, 27.664095000000003], [84.902345, 27.644585]]]}, "properties": {"date": "2026-08-27", "dt": "2026-08-27_0000"}}, {"type": "Feature", "geometry": {"type": "Polygon", "coordinates": [[[83.957525, 27.254644999999996], [83.97949499999999, 27.254644999999996], [83.97949499999999, 27.274155], [83.957525, 27.274155], [83.957525, 27.254644999999996]]]}, "properties": {"date": "2026-08-27", "dt": "2026-08-27_0000"}}, {"type": "Feature", "geometry": {"type": "Polygon", "coordinates": [[[85.297855, 27.819605000000003], [85.31982500000001, 27.819605000000003], [85.31982500000001, 27.839115], [85.297855, 27.839115], [85.297855, 27.819605000000003]]]}, "properties": {"date": "2026-08-27", "dt": "2026-08-27_0000"}}, {"type": "Feature", "geometry": {"type": "Polygon", "coordinates": [[[85.122075, 27.974944999999998], [85.144045, 27.974944999999998], [85.144045, 27.994455000000002], [85.122075, 27.994455000000002], [85.122075, 27.974944999999998]]]}, "properties": {"date": "2026-08-27", "dt": "2026-08-27_0000"}}, {"type": "Feature", "geometry": {"type": "Polygon", "coordinates": [[[85.27588499999999, 28.168805], [85.297855, 28.168805], [85.297855, 28.188315000000003], [85.27588499999999, 28.188315000000003], [85.27588499999999, 28.168805]]]}, "properties": {"date": "2026-08-27", "dt": "2026-08-27_0000"}}, {"type": "Feature", "geometry": {"type": "Polygon", "coordinates": [[[84.968265, 27.974944999999998], [84.99023499999998, 27.974944999999998], [84.99023499999998, 27.994455000000002], [84.968265, 27.994455000000002], [84.968265, 27.974944999999998]]]}, "properties": {"date": "2026-08-27", "dt": "2026-08-27_0000"}}, {"type": "Feature", "geometry": {"type": "Polygon", "coordinates": [[[85.144045, 28.033135], [85.16601499999999, 28.033135], [85.16601499999999, 28.052645], [85.144045, 28.052645], [85.144045, 28.033135]]]}, "properties": {"date": "2026-08-27", "dt": "2026-08-27_0000"}}, {"type": "Feature", "geometry": {"type": "Polygon", "coordinates": [[[85.56152499999999, 27.955534999999998], [85.583495, 27.955534999999998], [85.583495, 27.975045], [85.56152499999999, 27.975045], [85.56152499999999, 27.955534999999998]]]}, "properties": {"date": "2026-08-27", "dt": "2026-08-27_0000"}}, {"type": "Feature", "geometry": {"type": "Polygon", "coordinates": [[[84.08935500000001, 27.039585000000002], [84.111325, 27.039585000000002], [84.111325, 27.059095], [84.08935500000001, 27.059095], [84.08935500000001, 27.039585000000002]]]}, "properties": {"date": "2026-08-27", "dt": "2026-08-27_0000"}}, {"type": "Feature", "geometry": {"type": "Polygon", "coordinates": [[[85.012205, 27.897305000000003], [85.034175, 27.897305000000003], [85.034175, 27.916815], [85.012205, 27.916815], [85.012205, 27.897305000000003]]]}, "properties": {"date": "2026-08-27", "dt": "2026-08-27_0000"}}, {"type": "Feature", "geometry": {"type": "Polygon", "coordinates": [[[85.144045, 27.974944999999998], [85.16601499999999, 27.974944999999998], [85.16601499999999, 27.994455000000002], [85.144045, 27.994455000000002], [85.144045, 27.974944999999998]]]}, "properties": {"date": "2026-08-27", "dt": "2026-08-27_0000"}}, {"type": "Feature", "geometry": {"type": "Polygon", "coordinates": [[[85.10009500000001, 28.013745], [85.12206499999999, 28.013745], [85.12206499999999, 28.033254999999997], [85.10009500000001, 28.033254999999997], [85.10009500000001, 28.013745]]]}, "properties": {"date": "2026-08-27", "dt": "2026-08-27_0000"}}, {"type": "Feature", "geometry": {"type": "Polygon", "coordinates": [[[85.03418500000001, 27.897305000000003], [85.05615499999999, 27.897305000000003], [85.05615499999999, 27.916815], [85.03418500000001, 27.916815], [85.03418500000001, 27.897305000000003]]]}, "properties": {"date": "2026-08-27", "dt": "2026-08-27_0000"}}, {"type": "Feature", "geometry": {"type": "Polygon", "coordinates": [[[85.122075, 28.013745], [85.144045, 28.013745], [85.144045, 28.033254999999997], [85.122075, 28.033254999999997], [85.122075, 28.013745]]]}, "properties": {"date": "2026-08-27", "dt": "2026-08-27_0000"}}, {"type": "Feature", "geometry": {"type": "Polygon", "coordinates": [[[83.957525, 27.235104999999997], [83.97949499999999, 27.235104999999997], [83.97949499999999, 27.254615], [83.957525, 27.254615], [83.957525, 27.235104999999997]]]}, "properties": {"date": "2026-08-27", "dt": "2026-08-27_0000"}}, {"type": "Feature", "geometry": {"type": "Polygon", "coordinates": [[[85.363775, 27.176485], [85.38574499999999, 27.176485], [85.38574499999999, 27.195995000000003], [85.363775, 27.195995000000003], [85.363775, 27.176485]]]}, "properties": {"date": "2026-08-27", "dt": "2026-08-27_0000"}}, {"type": "Feature", "geometry": {"type": "Polygon", "coordinates": [[[84.682615, 26.961284999999997], [84.70458500000001, 26.961284999999997], [84.70458500000001, 26.980795], [84.682615, 26.980795], [84.682615, 26.961284999999997]]]}, "properties": {"date": "2026-08-27", "dt": "2026-08-27_0000"}}, {"type": "Feature", "geometry": {"type": "Polygon", "coordinates": [[[85.56152499999999, 27.722405000000002], [85.583495, 27.722405000000002], [85.583495, 27.741915], [85.56152499999999, 27.741915], [85.56152499999999, 27.722405000000002]]]}, "properties": {"date": "2026-08-27", "dt": "2026-08-27_0000"}}, {"type": "Feature", "geometry": {"type": "Polygon", "coordinates": [[[85.56152499999999, 27.936135], [85.583495, 27.936135], [85.583495, 27.955644999999997], [85.56152499999999, 27.955644999999997], [85.56152499999999, 27.936135]]]}, "properties": {"date": "2026-08-27", "dt": "2026-08-27_0000"}}, {"type": "Feature", "geometry": {"type": "Polygon", "coordinates": [[[83.97949500000001, 28.013745], [84.001465, 28.013745], [84.001465, 28.033254999999997], [83.97949500000001, 28.033254999999997], [83.97949500000001, 28.013745]]]}, "properties": {"date": "2026-08-27", "dt": "2026-08-27_0000"}}, {"type": "Feature", "geometry": {"type": "Polygon", "coordinates": [[[83.97949500000001, 28.265605], [84.001465, 28.265605], [84.001465, 28.285114999999998], [83.97949500000001, 28.285114999999998], [83.97949500000001, 28.265605]]]}, "properties": {"date": "2026-08-27", "dt": "2026-08-27_0000"}}, {"type": "Feature", "geometry": {"type": "Polygon", "coordinates": [[[84.902345, 27.819605000000003], [84.924315, 27.819605000000003], [84.924315, 27.839115], [84.902345, 27.839115], [84.902345, 27.819605000000003]]]}, "properties": {"date": "2026-08-27", "dt": "2026-08-27_0000"}}, {"type": "Feature", "geometry": {"type": "Polygon", "coordinates": [[[86.044925, 27.586174999999997], [86.06689499999999, 27.586174999999997], [86.06689499999999, 27.605685], [86.044925, 27.605685], [86.044925, 27.586174999999997]]]}, "properties": {"date": "2026-08-27", "dt": "2026-08-27_0000"}}, {"type": "Feature", "geometry": {"type": "Polygon", "coordinates": [[[85.078125, 27.819605000000003], [85.10009500000001, 27.819605000000003], [85.10009500000001, 27.839115], [85.078125, 27.839115], [85.078125, 27.819605000000003]]]}, "properties": {"date": "2026-08-27", "dt": "2026-08-27_0000"}}, {"type": "Feature", "geometry": {"type": "Polygon", "coordinates": [[[84.94629499999999, 27.916714999999996], [84.968265, 27.916714999999996], [84.968265, 27.936225], [84.94629499999999, 27.936225], [84.94629499999999, 27.916714999999996]]]}, "properties": {"date": "2026-08-27", "dt": "2026-08-27_0000"}}, {"type": "Feature", "geometry": {"type": "Polygon", "coordinates": [[[85.297855, 28.188175], [85.31982500000001, 28.188175], [85.31982500000001, 28.207684999999998], [85.297855, 28.207684999999998], [85.297855, 28.188175]]]}, "properties": {"date": "2026-08-27", "dt": "2026-08-27_0000"}}, {"type": "Feature", "geometry": {"type": "Polygon", "coordinates": [[[84.572755, 27.741855], [84.59472500000001, 27.741855], [84.59472500000001, 27.761364999999998], [84.572755, 27.761364999999998], [84.572755, 27.741855]]]}, "properties": {"date": "2026-08-27", "dt": "2026-08-27_0000"}}, {"type": "Feature", "geometry": {"type": "Polygon", "coordinates": [[[84.968265, 27.955534999999998], [84.99023499999998, 27.955534999999998], [84.99023499999998, 27.975045], [84.968265, 27.975045], [84.968265, 27.955534999999998]]]}, "properties": {"date": "2026-08-27", "dt": "2026-08-27_0000"}}, {"type": "Feature", "geometry": {"type": "Polygon", "coordinates": [[[85.16601500000002, 27.994345000000003], [85.187985, 27.994345000000003], [85.187985, 28.013855], [85.16601500000002, 28.013855], [85.16601500000002, 27.994345000000003]]]}, "properties": {"date": "2026-08-27", "dt": "2026-08-27_0000"}}, {"type": "Feature", "geometry": {"type": "Polygon", "coordinates": [[[85.979005, 27.800175000000003], [86.00097500000001, 27.800175000000003], [86.00097500000001, 27.819685], [85.979005, 27.819685], [85.979005, 27.800175000000003]]]}, "properties": {"date": "2026-08-27", "dt": "2026-08-27_0000"}}, {"type": "Feature", "geometry": {"type": "Polygon", "coordinates": [[[84.59472500000001, 27.741855], [84.61669499999999, 27.741855], [84.61669499999999, 27.761364999999998], [84.59472500000001, 27.761364999999998], [84.59472500000001, 27.741855]]]}, "properties": {"date": "2026-08-27", "dt": "2026-08-27_0000"}}, {"type": "Feature", "geometry": {"type": "Polygon", "coordinates": [[[85.144045, 28.013745], [85.16601499999999, 28.013745], [85.16601499999999, 28.033254999999997], [85.144045, 28.033254999999997], [85.144045, 28.013745]]]}, "properties": {"date": "2026-08-27", "dt": "2026-08-27_0000"}}, {"type": "Feature", "geometry": {"type": "Polygon", "coordinates": [[[84.41894500000001, 27.800175000000003], [84.44091499999999, 27.800175000000003], [84.44091499999999, 27.819685], [84.41894500000001, 27.819685], [84.41894500000001, 27.800175000000003]]]}, "properties": {"date": "2026-08-27", "dt": "2026-08-27_0000"}}, {"type": "Feature", "geometry": {"type": "Polygon", "coordinates": [[[85.187985, 27.994345000000003], [85.20995500000001, 27.994345000000003], [85.20995500000001, 28.013855], [85.187985, 28.013855], [85.187985, 27.994345000000003]]]}, "properties": {"date": "2026-08-27", "dt": "2026-08-27_0000"}}, {"type": "Feature", "geometry": {"type": "Polygon", "coordinates": [[[84.08935500000001, 27.020015], [84.111325, 27.020015], [84.111325, 27.039524999999998], [84.08935500000001, 27.039524999999998], [84.08935500000001, 27.020015]]]}, "properties": {"date": "2026-08-27", "dt": "2026-08-27_0000"}}, {"type": "Feature", "geometry": {"type": "Polygon", "coordinates": [[[86.418455, 26.588594999999998], [86.440425, 26.588594999999998], [86.440425, 26.608105000000002], [86.418455, 26.608105000000002], [86.418455, 26.588594999999998]]]}, "properties": {"date": "2026-08-28", "dt": "2026-08-28_0000"}}, {"type": "Feature", "geometry": {"type": "Polygon", "coordinates": [[[84.506835, 27.722405000000002], [84.528805, 27.722405000000002], [84.528805, 27.741915], [84.506835, 27.741915], [84.506835, 27.722405000000002]]]}, "properties": {"date": "2026-08-28", "dt": "2026-08-28_0000"}}, {"type": "Feature", "geometry": {"type": "Polygon", "coordinates": [[[85.10009500000001, 27.974944999999998], [85.12206499999999, 27.974944999999998], [85.12206499999999, 27.994455000000002], [85.10009500000001, 27.994455000000002], [85.10009500000001, 27.974944999999998]]]}, "properties": {"date": "2026-08-28", "dt": "2026-08-28_0000"}}, {"type": "Feature", "geometry": {"type": "Polygon", "coordinates": [[[85.144045, 27.449785], [85.16601499999999, 27.449785], [85.16601499999999, 27.469295000000002], [85.144045, 27.469295000000002], [85.144045, 27.449785]]]}, "properties": {"date": "2026-08-28", "dt": "2026-08-28_0000"}}, {"type": "Feature", "geometry": {"type": "Polygon", "coordinates": [[[85.363775, 28.188175], [85.38574499999999, 28.188175], [85.38574499999999, 28.207684999999998], [85.363775, 28.207684999999998], [85.363775, 28.188175]]]}, "properties": {"date": "2026-08-28", "dt": "2026-08-28_0000"}}, {"type": "Feature", "geometry": {"type": "Polygon", "coordinates": [[[85.187985, 28.091305], [85.20995500000001, 28.091305], [85.20995500000001, 28.110815000000002], [85.187985, 28.110815000000002], [85.187985, 28.091305]]]}, "properties": {"date": "2026-08-28", "dt": "2026-08-28_0000"}}, {"type": "Feature", "geometry": {"type": "Polygon", "coordinates": [[[85.78125500000002, 27.936135], [85.803225, 27.936135], [85.803225, 27.955644999999997], [85.78125500000002, 27.955644999999997], [85.78125500000002, 27.936135]]]}, "properties": {"date": "2026-08-28", "dt": "2026-08-28_0000"}}, {"type": "Feature", "geometry": {"type": "Polygon", "coordinates": [[[84.023435, 28.265605], [84.04540499999999, 28.265605], [84.04540499999999, 28.285114999999998], [84.023435, 28.285114999999998], [84.023435, 28.265605]]]}, "properties": {"date": "2026-08-28", "dt": "2026-08-28_0000"}}, {"type": "Feature", "geometry": {"type": "Polygon", "coordinates": [[[85.078125, 28.013745], [85.10009500000001, 28.013745], [85.10009500000001, 28.033254999999997], [85.078125, 28.033254999999997], [85.078125, 28.013745]]]}, "properties": {"date": "2026-08-28", "dt": "2026-08-28_0000"}}, {"type": "Feature", "geometry": {"type": "Polygon", "coordinates": [[[84.462895, 27.722405000000002], [84.48486499999999, 27.722405000000002], [84.48486499999999, 27.741915], [84.462895, 27.741915], [84.462895, 27.722405000000002]]]}, "properties": {"date": "2026-08-28", "dt": "2026-08-28_0000"}}, {"type": "Feature", "geometry": {"type": "Polygon", "coordinates": [[[85.122075, 27.469275000000003], [85.144045, 27.469275000000003], [85.144045, 27.488785], [85.122075, 27.488785], [85.122075, 27.469275000000003]]]}, "properties": {"date": "2026-08-28", "dt": "2026-08-28_0000"}}, {"type": "Feature", "geometry": {"type": "Polygon", "coordinates": [[[85.759275, 27.858465000000002], [85.78124499999998, 27.858465000000002], [85.78124499999998, 27.877975], [85.759275, 27.877975], [85.759275, 27.858465000000002]]]}, "properties": {"date": "2026-08-28", "dt": "2026-08-28_0000"}}, {"type": "Feature", "geometry": {"type": "Polygon", "coordinates": [[[85.34179499999999, 28.226895], [85.363765, 28.226895], [85.363765, 28.246405000000003], [85.34179499999999, 28.246405000000003], [85.34179499999999, 28.226895]]]}, "properties": {"date": "2026-08-28", "dt": "2026-08-28_0000"}}, {"type": "Feature", "geometry": {"type": "Polygon", "coordinates": [[[86.044925, 27.586174999999997], [86.06689499999999, 27.586174999999997], [86.06689499999999, 27.605685], [86.044925, 27.605685], [86.044925, 27.586174999999997]]]}, "properties": {"date": "2026-08-28", "dt": "2026-08-28_0000"}}, {"type": "Feature", "geometry": {"type": "Polygon", "coordinates": [[[85.03418500000001, 27.916714999999996], [85.05615499999999, 27.916714999999996], [85.05615499999999, 27.936225], [85.03418500000001, 27.936225], [85.03418500000001, 27.916714999999996]]]}, "properties": {"date": "2026-08-28", "dt": "2026-08-28_0000"}}, {"type": "Feature", "geometry": {"type": "Polygon", "coordinates": [[[85.67138500000001, 27.176485], [85.693355, 27.176485], [85.693355, 27.195995000000003], [85.67138500000001, 27.195995000000003], [85.67138500000001, 27.176485]]]}, "properties": {"date": "2026-08-28", "dt": "2026-08-28_0000"}}, {"type": "Feature", "geometry": {"type": "Polygon", "coordinates": [[[85.78125500000002, 27.877885], [85.803225, 27.877885], [85.803225, 27.897395000000003], [85.78125500000002, 27.897395000000003], [85.78125500000002, 27.877885]]]}, "properties": {"date": "2026-08-28", "dt": "2026-08-28_0000"}}, {"type": "Feature", "geometry": {"type": "Polygon", "coordinates": [[[85.759275, 27.897305000000003], [85.78124499999998, 27.897305000000003], [85.78124499999998, 27.916815], [85.759275, 27.916815], [85.759275, 27.897305000000003]]]}, "properties": {"date": "2026-08-28", "dt": "2026-08-28_0000"}}, {"type": "Feature", "geometry": {"type": "Polygon", "coordinates": [[[85.20996500000001, 28.033135], [85.231935, 28.033135], [85.231935, 28.052645], [85.20996500000001, 28.052645], [85.20996500000001, 28.033135]]]}, "properties": {"date": "2026-08-28", "dt": "2026-08-28_0000"}}, {"type": "Feature", "geometry": {"type": "Polygon", "coordinates": [[[85.144045, 27.469275000000003], [85.16601499999999, 27.469275000000003], [85.16601499999999, 27.488785], [85.144045, 27.488785], [85.144045, 27.469275000000003]]]}, "properties": {"date": "2026-08-28", "dt": "2026-08-28_0000"}}, {"type": "Feature", "geometry": {"type": "Polygon", "coordinates": [[[85.803225, 27.936135], [85.82519500000001, 27.936135], [85.82519500000001, 27.955644999999997], [85.803225, 27.955644999999997], [85.803225, 27.936135]]]}, "properties": {"date": "2026-08-28", "dt": "2026-08-28_0000"}}, {"type": "Feature", "geometry": {"type": "Polygon", "coordinates": [[[84.08935500000001, 27.039585000000002], [84.111325, 27.039585000000002], [84.111325, 27.059095], [84.08935500000001, 27.059095], [84.08935500000001, 27.039585000000002]]]}, "properties": {"date": "2026-08-28", "dt": "2026-08-28_0000"}}, {"type": "Feature", "geometry": {"type": "Polygon", "coordinates": [[[85.297855, 27.196035000000002], [85.31982500000001, 27.196035000000002], [85.31982500000001, 27.215545], [85.297855, 27.215545], [85.297855, 27.196035000000002]]]}, "properties": {"date": "2026-08-28", "dt": "2026-08-28_0000"}}, {"type": "Feature", "geometry": {"type": "Polygon", "coordinates": [[[86.418455, 26.608244999999997], [86.440425, 26.608244999999997], [86.440425, 26.627755], [86.418455, 26.627755], [86.418455, 26.608244999999997]]]}, "properties": {"date": "2026-08-28", "dt": "2026-08-28_0000"}}, {"type": "Feature", "geometry": {"type": "Polygon", "coordinates": [[[85.363775, 28.226895], [85.38574499999999, 28.226895], [85.38574499999999, 28.246405000000003], [85.363775, 28.246405000000003], [85.363775, 28.226895]]]}, "properties": {"date": "2026-08-28", "dt": "2026-08-28_0000"}}, {"type": "Feature", "geometry": {"type": "Polygon", "coordinates": [[[84.55078499999999, 27.722405000000002], [84.572755, 27.722405000000002], [84.572755, 27.741915], [84.55078499999999, 27.741915], [84.55078499999999, 27.722405000000002]]]}, "properties": {"date": "2026-08-28", "dt": "2026-08-28_0000"}}, {"type": "Feature", "geometry": {"type": "Polygon", "coordinates": [[[84.77050500000001, 27.955534999999998], [84.792475, 27.955534999999998], [84.792475, 27.975045], [84.77050500000001, 27.975045], [84.77050500000001, 27.955534999999998]]]}, "properties": {"date": "2026-08-28", "dt": "2026-08-28_0000"}}, {"type": "Feature", "geometry": {"type": "Polygon", "coordinates": [[[85.012205, 27.897305000000003], [85.034175, 27.897305000000003], [85.034175, 27.916815], [85.012205, 27.916815], [85.012205, 27.897305000000003]]]}, "properties": {"date": "2026-08-28", "dt": "2026-08-28_0000"}}, {"type": "Feature", "geometry": {"type": "Polygon", "coordinates": [[[85.078125, 27.994345000000003], [85.10009500000001, 27.994345000000003], [85.10009500000001, 28.013855], [85.078125, 28.013855], [85.078125, 27.994345000000003]]]}, "properties": {"date": "2026-08-28", "dt": "2026-08-28_0000"}}, {"type": "Feature", "geometry": {"type": "Polygon", "coordinates": [[[84.748535, 27.974944999999998], [84.77050499999999, 27.974944999999998], [84.77050499999999, 27.994455000000002], [84.748535, 27.994455000000002], [84.748535, 27.974944999999998]]]}, "properties": {"date": "2026-08-28", "dt": "2026-08-28_0000"}}, {"type": "Feature", "geometry": {"type": "Polygon", "coordinates": [[[85.10009500000001, 28.013745], [85.12206499999999, 28.013745], [85.12206499999999, 28.033254999999997], [85.10009500000001, 28.033254999999997], [85.10009500000001, 28.013745]]]}, "properties": {"date": "2026-08-28", "dt": "2026-08-28_0000"}}, {"type": "Feature", "geometry": {"type": "Polygon", "coordinates": [[[85.935055, 27.117835], [85.95702499999999, 27.117835], [85.95702499999999, 27.137345000000003], [85.935055, 27.137345000000003], [85.935055, 27.117835]]]}, "properties": {"date": "2026-08-28", "dt": "2026-08-28_0000"}}, {"type": "Feature", "geometry": {"type": "Polygon", "coordinates": [[[85.31982500000001, 28.207535], [85.34179499999999, 28.207535], [85.34179499999999, 28.227044999999997], [85.31982500000001, 28.227044999999997], [85.31982500000001, 28.207535]]]}, "properties": {"date": "2026-08-28", "dt": "2026-08-28_0000"}}, {"type": "Feature", "geometry": {"type": "Polygon", "coordinates": [[[85.979005, 27.274175], [86.00097500000001, 27.274175], [86.00097500000001, 27.293685000000004], [85.979005, 27.293685000000004], [85.979005, 27.274175]]]}, "properties": {"date": "2026-08-28", "dt": "2026-08-28_0000"}}, {"type": "Feature", "geometry": {"type": "Polygon", "coordinates": [[[86.264645, 26.902515], [86.28661500000001, 26.902515], [86.28661500000001, 26.922024999999998], [86.264645, 26.922024999999998], [86.264645, 26.902515]]]}, "properties": {"date": "2026-08-28", "dt": "2026-08-28_0000"}}, {"type": "Feature", "geometry": {"type": "Polygon", "coordinates": [[[85.03418500000001, 27.897305000000003], [85.05615499999999, 27.897305000000003], [85.05615499999999, 27.916815], [85.03418500000001, 27.916815], [85.03418500000001, 27.897305000000003]]]}, "properties": {"date": "2026-08-28", "dt": "2026-08-28_0000"}}, {"type": "Feature", "geometry": {"type": "Polygon", "coordinates": [[[84.506835, 27.741855], [84.528805, 27.741855], [84.528805, 27.761364999999998], [84.506835, 27.761364999999998], [84.506835, 27.741855]]]}, "properties": {"date": "2026-08-28", "dt": "2026-08-28_0000"}}, {"type": "Feature", "geometry": {"type": "Polygon", "coordinates": [[[85.122075, 28.013745], [85.144045, 28.013745], [85.144045, 28.033254999999997], [85.122075, 28.033254999999997], [85.122075, 28.013745]]]}, "properties": {"date": "2026-08-28", "dt": "2026-08-28_0000"}}, {"type": "Feature", "geometry": {"type": "Polygon", "coordinates": [[[85.803225, 27.877885], [85.82519500000001, 27.877885], [85.82519500000001, 27.897395000000003], [85.803225, 27.897395000000003], [85.803225, 27.877885]]]}, "properties": {"date": "2026-08-28", "dt": "2026-08-28_0000"}}, {"type": "Feature", "geometry": {"type": "Polygon", "coordinates": [[[85.67138500000001, 27.196035000000002], [85.693355, 27.196035000000002], [85.693355, 27.215545], [85.67138500000001, 27.215545], [85.67138500000001, 27.196035000000002]]]}, "properties": {"date": "2026-08-28", "dt": "2026-08-28_0000"}}, {"type": "Feature", "geometry": {"type": "Polygon", "coordinates": [[[85.979005, 27.488774999999997], [86.00097500000001, 27.488774999999997], [86.00097500000001, 27.508285], [85.979005, 27.508285], [85.979005, 27.488774999999997]]]}, "properties": {"date": "2026-08-28", "dt": "2026-08-28_0000"}}, {"type": "Feature", "geometry": {"type": "Polygon", "coordinates": [[[85.187985, 28.071914999999997], [85.20995500000001, 28.071914999999997], [85.20995500000001, 28.091425], [85.187985, 28.091425], [85.187985, 28.071914999999997]]]}, "properties": {"date": "2026-08-28", "dt": "2026-08-28_0000"}}, {"type": "Feature", "geometry": {"type": "Polygon", "coordinates": [[[85.78125500000002, 27.916714999999996], [85.803225, 27.916714999999996], [85.803225, 27.936225], [85.78125500000002, 27.936225], [85.78125500000002, 27.916714999999996]]]}, "properties": {"date": "2026-08-28", "dt": "2026-08-28_0000"}}, {"type": "Feature", "geometry": {"type": "Polygon", "coordinates": [[[85.71533500000001, 26.273805000000003], [85.73730499999999, 26.273805000000003], [85.73730499999999, 26.293315], [85.71533500000001, 26.293315], [85.71533500000001, 26.273805000000003]]]}, "properties": {"date": "2026-08-28", "dt": "2026-08-28_0000"}}, {"type": "Feature", "geometry": {"type": "Polygon", "coordinates": [[[85.34179499999999, 28.207535], [85.363765, 28.207535], [85.363765, 28.227044999999997], [85.34179499999999, 28.227044999999997], [85.34179499999999, 28.207535]]]}, "properties": {"date": "2026-08-28", "dt": "2026-08-28_0000"}}, {"type": "Feature", "geometry": {"type": "Polygon", "coordinates": [[[85.78125500000002, 27.955534999999998], [85.803225, 27.955534999999998], [85.803225, 27.975045], [85.78125500000002, 27.975045], [85.78125500000002, 27.955534999999998]]]}, "properties": {"date": "2026-08-28", "dt": "2026-08-28_0000"}}, {"type": "Feature", "geometry": {"type": "Polygon", "coordinates": [[[85.363775, 27.176485], [85.38574499999999, 27.176485], [85.38574499999999, 27.195995000000003], [85.363775, 27.195995000000003], [85.363775, 27.176485]]]}, "properties": {"date": "2026-08-28", "dt": "2026-08-28_0000"}}, {"type": "Feature", "geometry": {"type": "Polygon", "coordinates": [[[85.10009500000001, 27.994345000000003], [85.12206499999999, 27.994345000000003], [85.12206499999999, 28.013855], [85.10009500000001, 28.013855], [85.10009500000001, 27.994345000000003]]]}, "properties": {"date": "2026-08-28", "dt": "2026-08-28_0000"}}, {"type": "Feature", "geometry": {"type": "Polygon", "coordinates": [[[85.935055, 27.137385000000002], [85.95702499999999, 27.137385000000002], [85.95702499999999, 27.156895], [85.935055, 27.156895], [85.935055, 27.137385000000002]]]}, "properties": {"date": "2026-08-28", "dt": "2026-08-28_0000"}}, {"type": "Feature", "geometry": {"type": "Polygon", "coordinates": [[[85.20996500000001, 28.071914999999997], [85.231935, 28.071914999999997], [85.231935, 28.091425], [85.20996500000001, 28.091425], [85.20996500000001, 28.071914999999997]]]}, "properties": {"date": "2026-08-28", "dt": "2026-08-28_0000"}}, {"type": "Feature", "geometry": {"type": "Polygon", "coordinates": [[[85.56152499999999, 27.722405000000002], [85.583495, 27.722405000000002], [85.583495, 27.741915], [85.56152499999999, 27.741915], [85.56152499999999, 27.722405000000002]]]}, "properties": {"date": "2026-08-28", "dt": "2026-08-28_0000"}}, {"type": "Feature", "geometry": {"type": "Polygon", "coordinates": [[[85.16601500000002, 27.449785], [85.187985, 27.449785], [85.187985, 27.469295000000002], [85.16601500000002, 27.469295000000002], [85.16601500000002, 27.449785]]]}, "properties": {"date": "2026-08-28", "dt": "2026-08-28_0000"}}, {"type": "Feature", "geometry": {"type": "Polygon", "coordinates": [[[85.187985, 28.052535], [85.20995500000001, 28.052535], [85.20995500000001, 28.072045000000003], [85.187985, 28.072045000000003], [85.187985, 28.052535]]]}, "properties": {"date": "2026-08-28", "dt": "2026-08-28_0000"}}, {"type": "Feature", "geometry": {"type": "Polygon", "coordinates": [[[85.78125500000002, 27.858465000000002], [85.803225, 27.858465000000002], [85.803225, 27.877975], [85.78125500000002, 27.877975], [85.78125500000002, 27.858465000000002]]]}, "properties": {"date": "2026-08-28", "dt": "2026-08-28_0000"}}, {"type": "Feature", "geometry": {"type": "Polygon", "coordinates": [[[85.078125, 28.033135], [85.10009500000001, 28.033135], [85.10009500000001, 28.052645], [85.078125, 28.052645], [85.078125, 28.033135]]]}, "properties": {"date": "2026-08-28", "dt": "2026-08-28_0000"}}, {"type": "Feature", "geometry": {"type": "Polygon", "coordinates": [[[85.759275, 27.877885], [85.78124499999998, 27.877885], [85.78124499999998, 27.897395000000003], [85.759275, 27.897395000000003], [85.759275, 27.877885]]]}, "properties": {"date": "2026-08-28", "dt": "2026-08-28_0000"}}, {"type": "Feature", "geometry": {"type": "Polygon", "coordinates": [[[86.418455, 26.568945], [86.440425, 26.568945], [86.440425, 26.588455000000003], [86.418455, 26.588455000000003], [86.418455, 26.568945]]]}, "properties": {"date": "2026-08-28", "dt": "2026-08-28_0000"}}, {"type": "Feature", "geometry": {"type": "Polygon", "coordinates": [[[85.05615499999999, 27.897305000000003], [85.078125, 27.897305000000003], [85.078125, 27.916815], [85.05615499999999, 27.916815], [85.05615499999999, 27.897305000000003]]]}, "properties": {"date": "2026-08-28", "dt": "2026-08-28_0000"}}, {"type": "Feature", "geometry": {"type": "Polygon", "coordinates": [[[85.803225, 27.916714999999996], [85.82519500000001, 27.916714999999996], [85.82519500000001, 27.936225], [85.803225, 27.936225], [85.803225, 27.916714999999996]]]}, "properties": {"date": "2026-08-28", "dt": "2026-08-28_0000"}}, {"type": "Feature", "geometry": {"type": "Polygon", "coordinates": [[[84.41894500000001, 27.800175000000003], [84.44091499999999, 27.800175000000003], [84.44091499999999, 27.819685], [84.41894500000001, 27.819685], [84.41894500000001, 27.800175000000003]]]}, "properties": {"date": "2026-08-28", "dt": "2026-08-28_0000"}}, {"type": "Feature", "geometry": {"type": "Polygon", "coordinates": [[[85.20996500000001, 28.013745], [85.231935, 28.013745], [85.231935, 28.033254999999997], [85.20996500000001, 28.033254999999997], [85.20996500000001, 28.013745]]]}, "properties": {"date": "2026-08-28", "dt": "2026-08-28_0000"}}, {"type": "Feature", "geometry": {"type": "Polygon", "coordinates": [[[85.363775, 28.207535], [85.38574499999999, 28.207535], [85.38574499999999, 28.227044999999997], [85.363775, 28.227044999999997], [85.363775, 28.207535]]]}, "properties": {"date": "2026-08-28", "dt": "2026-08-28_0000"}}, {"type": "Feature", "geometry": {"type": "Polygon", "coordinates": [[[85.95703499999999, 27.274175], [85.979005, 27.274175], [85.979005, 27.293685000000004], [85.95703499999999, 27.293685000000004], [85.95703499999999, 27.274175]]]}, "properties": {"date": "2026-08-28", "dt": "2026-08-28_0000"}}, {"type": "Feature", "geometry": {"type": "Polygon", "coordinates": [[[85.122075, 27.994345000000003], [85.144045, 27.994345000000003], [85.144045, 28.013855], [85.122075, 28.013855], [85.122075, 27.994345000000003]]]}, "properties": {"date": "2026-08-28", "dt": "2026-08-28_0000"}}, {"type": "Feature", "geometry": {"type": "Polygon", "coordinates": [[[85.803225, 27.955534999999998], [85.82519500000001, 27.955534999999998], [85.82519500000001, 27.975045], [85.803225, 27.975045], [85.803225, 27.955534999999998]]]}, "properties": {"date": "2026-08-28", "dt": "2026-08-28_0000"}}, {"type": "Feature", "geometry": {"type": "Polygon", "coordinates": [[[85.122075, 27.449785], [85.144045, 27.449785], [85.144045, 27.469295000000002], [85.122075, 27.469295000000002], [85.122075, 27.449785]]]}, "properties": {"date": "2026-08-28", "dt": "2026-08-28_0000"}}, {"type": "Feature", "geometry": {"type": "Polygon", "coordinates": [[[85.34179499999999, 28.246254999999998], [85.363765, 28.246254999999998], [85.363765, 28.265765000000002], [85.34179499999999, 28.265765000000002], [85.34179499999999, 28.246254999999998]]]}, "properties": {"date": "2026-08-28", "dt": "2026-08-28_0000"}}, {"type": "Feature", "geometry": {"type": "Polygon", "coordinates": [[[85.78125500000002, 27.897305000000003], [85.803225, 27.897305000000003], [85.803225, 27.916815], [85.78125500000002, 27.916815], [85.78125500000002, 27.897305000000003]]]}, "properties": {"date": "2026-08-28", "dt": "2026-08-28_0000"}}, {"type": "Feature", "geometry": {"type": "Polygon", "coordinates": [[[85.20996500000001, 28.052535], [85.231935, 28.052535], [85.231935, 28.072045000000003], [85.20996500000001, 28.072045000000003], [85.20996500000001, 28.052535]]]}, "properties": {"date": "2026-08-28", "dt": "2026-08-28_0000"}}, {"type": "Feature", "geometry": {"type": "Polygon", "coordinates": [[[84.08935500000001, 27.020015], [84.111325, 27.020015], [84.111325, 27.039524999999998], [84.08935500000001, 27.039524999999998], [84.08935500000001, 27.020015]]]}, "properties": {"date": "2026-08-28", "dt": "2026-08-28_0000"}}, {"type": "Feature", "geometry": {"type": "Polygon", "coordinates": [[[85.10009500000001, 28.033135], [85.12206499999999, 28.033135], [85.12206499999999, 28.052645], [85.10009500000001, 28.052645], [85.10009500000001, 28.033135]]]}, "properties": {"date": "2026-08-28", "dt": "2026-08-28_0000"}}, {"type": "Feature", "geometry": {"type": "Polygon", "coordinates": [[[84.55078499999999, 27.741855], [84.572755, 27.741855], [84.572755, 27.761364999999998], [84.55078499999999, 27.761364999999998], [84.55078499999999, 27.741855]]]}, "properties": {"date": "2026-08-28", "dt": "2026-08-28_0000"}}, {"type": "Feature", "geometry": {"type": "Polygon", "coordinates": [[[86.418455, 26.588594999999998], [86.440425, 26.588594999999998], [86.440425, 26.608105000000002], [86.418455, 26.608105000000002], [86.418455, 26.588594999999998]]]}, "properties": {"date": "2026-08-29", "dt": "2026-08-29_0000"}}, {"type": "Feature", "geometry": {"type": "Polygon", "coordinates": [[[83.97949500000001, 28.265605], [84.001465, 28.265605], [84.001465, 28.285114999999998], [83.97949500000001, 28.285114999999998], [83.97949500000001, 28.265605]]]}, "properties": {"date": "2026-08-29", "dt": "2026-08-29_0000"}}, {"type": "Feature", "geometry": {"type": "Polygon", "coordinates": [[[85.144045, 27.994345000000003], [85.16601499999999, 27.994345000000003], [85.16601499999999, 28.013855], [85.144045, 28.013855], [85.144045, 27.994345000000003]]]}, "properties": {"date": "2026-08-29", "dt": "2026-08-29_0000"}}, {"type": "Feature", "geometry": {"type": "Polygon", "coordinates": [[[83.957525, 28.226895], [83.97949499999999, 28.226895], [83.97949499999999, 28.246405000000003], [83.957525, 28.246405000000003], [83.957525, 28.226895]]]}, "properties": {"date": "2026-08-29", "dt": "2026-08-29_0000"}}, {"type": "Feature", "geometry": {"type": "Polygon", "coordinates": [[[84.902345, 27.644585], [84.924315, 27.644585], [84.924315, 27.664095000000003], [84.902345, 27.664095000000003], [84.902345, 27.644585]]]}, "properties": {"date": "2026-08-29", "dt": "2026-08-29_0000"}}, {"type": "Feature", "geometry": {"type": "Polygon", "coordinates": [[[85.31982500000001, 28.400975000000003], [85.34179499999999, 28.400975000000003], [85.34179499999999, 28.420485], [85.31982500000001, 28.420485], [85.31982500000001, 28.400975000000003]]]}, "properties": {"date": "2026-08-29", "dt": "2026-08-29_0000"}}, {"type": "Feature", "geometry": {"type": "Polygon", "coordinates": [[[84.902345, 26.273805000000003], [84.924315, 26.273805000000003], [84.924315, 26.293315], [84.902345, 26.293315], [84.902345, 26.273805000000003]]]}, "properties": {"date": "2026-08-29", "dt": "2026-08-29_0000"}}, {"type": "Feature", "geometry": {"type": "Polygon", "coordinates": [[[85.363775, 28.188175], [85.38574499999999, 28.188175], [85.38574499999999, 28.207684999999998], [85.363775, 28.207684999999998], [85.363775, 28.188175]]]}, "properties": {"date": "2026-08-29", "dt": "2026-08-29_0000"}}, {"type": "Feature", "geometry": {"type": "Polygon", "coordinates": [[[85.78125500000002, 27.936135], [85.803225, 27.936135], [85.803225, 27.955644999999997], [85.78125500000002, 27.955644999999997], [85.78125500000002, 27.936135]]]}, "properties": {"date": "2026-08-29", "dt": "2026-08-29_0000"}}, {"type": "Feature", "geometry": {"type": "Polygon", "coordinates": [[[84.023435, 28.265605], [84.04540499999999, 28.265605], [84.04540499999999, 28.285114999999998], [84.023435, 28.285114999999998], [84.023435, 28.265605]]]}, "properties": {"date": "2026-08-29", "dt": "2026-08-29_0000"}}, {"type": "Feature", "geometry": {"type": "Polygon", "coordinates": [[[85.078125, 28.013745], [85.10009500000001, 28.013745], [85.10009500000001, 28.033254999999997], [85.078125, 28.033254999999997], [85.078125, 28.013745]]]}, "properties": {"date": "2026-08-29", "dt": "2026-08-29_0000"}}, {"type": "Feature", "geometry": {"type": "Polygon", "coordinates": [[[84.462895, 27.722405000000002], [84.48486499999999, 27.722405000000002], [84.48486499999999, 27.741915], [84.462895, 27.741915], [84.462895, 27.722405000000002]]]}, "properties": {"date": "2026-08-29", "dt": "2026-08-29_0000"}}, {"type": "Feature", "geometry": {"type": "Polygon", "coordinates": [[[85.34179499999999, 28.226895], [85.363765, 28.226895], [85.363765, 28.246405000000003], [85.34179499999999, 28.246405000000003], [85.34179499999999, 28.226895]]]}, "properties": {"date": "2026-08-29", "dt": "2026-08-29_0000"}}, {"type": "Feature", "geometry": {"type": "Polygon", "coordinates": [[[85.649415, 27.974944999999998], [85.67138499999999, 27.974944999999998], [85.67138499999999, 27.994455000000002], [85.649415, 27.994455000000002], [85.649415, 27.974944999999998]]]}, "properties": {"date": "2026-08-29", "dt": "2026-08-29_0000"}}, {"type": "Feature", "geometry": {"type": "Polygon", "coordinates": [[[86.044925, 27.586174999999997], [86.06689499999999, 27.586174999999997], [86.06689499999999, 27.605685], [86.044925, 27.605685], [86.044925, 27.586174999999997]]]}, "properties": {"date": "2026-08-29", "dt": "2026-08-29_0000"}}, {"type": "Feature", "geometry": {"type": "Polygon", "coordinates": [[[85.34179499999999, 28.400975000000003], [85.363765, 28.400975000000003], [85.363765, 28.420485], [85.34179499999999, 28.420485], [85.34179499999999, 28.400975000000003]]]}, "properties": {"date": "2026-08-29", "dt": "2026-08-29_0000"}}, {"type": "Feature", "geometry": {"type": "Polygon", "coordinates": [[[85.03418500000001, 27.916714999999996], [85.05615499999999, 27.916714999999996], [85.05615499999999, 27.936225], [85.03418500000001, 27.936225], [85.03418500000001, 27.916714999999996]]]}, "properties": {"date": "2026-08-29", "dt": "2026-08-29_0000"}}, {"type": "Feature", "geometry": {"type": "Polygon", "coordinates": [[[85.913085, 27.352255], [85.935055, 27.352255], [85.935055, 27.371765000000003], [85.913085, 27.371765000000003], [85.913085, 27.352255]]]}, "properties": {"date": "2026-08-29", "dt": "2026-08-29_0000"}}, {"type": "Feature", "geometry": {"type": "Polygon", "coordinates": [[[85.144045, 28.033135], [85.16601499999999, 28.033135], [85.16601499999999, 28.052645], [85.144045, 28.052645], [85.144045, 28.033135]]]}, "properties": {"date": "2026-08-29", "dt": "2026-08-29_0000"}}, {"type": "Feature", "geometry": {"type": "Polygon", "coordinates": [[[83.957525, 28.265605], [83.97949499999999, 28.265605], [83.97949499999999, 28.285114999999998], [83.957525, 28.285114999999998], [83.957525, 28.265605]]]}, "properties": {"date": "2026-08-29", "dt": "2026-08-29_0000"}}, {"type": "Feature", "geometry": {"type": "Polygon", "coordinates": [[[84.59472500000001, 26.470655], [84.61669499999999, 26.470655], [84.61669499999999, 26.490164999999998], [84.59472500000001, 26.490164999999998], [84.59472500000001, 26.470655]]]}, "properties": {"date": "2026-08-29", "dt": "2026-08-29_0000"}}, {"type": "Feature", "geometry": {"type": "Polygon", "coordinates": [[[85.803225, 27.936135], [85.82519500000001, 27.936135], [85.82519500000001, 27.955644999999997], [85.803225, 27.955644999999997], [85.803225, 27.936135]]]}, "properties": {"date": "2026-08-29", "dt": "2026-08-29_0000"}}, {"type": "Feature", "geometry": {"type": "Polygon", "coordinates": [[[84.08935500000001, 27.039585000000002], [84.111325, 27.039585000000002], [84.111325, 27.059095], [84.08935500000001, 27.059095], [84.08935500000001, 27.039585000000002]]]}, "properties": {"date": "2026-08-29", "dt": "2026-08-29_0000"}}, {"type": "Feature", "geometry": {"type": "Polygon", "coordinates": [[[85.297855, 27.196035000000002], [85.31982500000001, 27.196035000000002], [85.31982500000001, 27.215545], [85.297855, 27.215545], [85.297855, 27.196035000000002]]]}, "properties": {"date": "2026-08-29", "dt": "2026-08-29_0000"}}, {"type": "Feature", "geometry": {"type": "Polygon", "coordinates": [[[86.418455, 26.608244999999997], [86.440425, 26.608244999999997], [86.440425, 26.627755], [86.418455, 26.627755], [86.418455, 26.608244999999997]]]}, "properties": {"date": "2026-08-29", "dt": "2026-08-29_0000"}}, {"type": "Feature", "geometry": {"type": "Polygon", "coordinates": [[[85.363775, 28.226895], [85.38574499999999, 28.226895], [85.38574499999999, 28.246405000000003], [85.363775, 28.246405000000003], [85.363775, 28.226895]]]}, "properties": {"date": "2026-08-29", "dt": "2026-08-29_0000"}}, {"type": "Feature", "geometry": {"type": "Polygon", "coordinates": [[[84.77050500000001, 27.955534999999998], [84.792475, 27.955534999999998], [84.792475, 27.975045], [84.77050500000001, 27.975045], [84.77050500000001, 27.955534999999998]]]}, "properties": {"date": "2026-08-29", "dt": "2026-08-29_0000"}}, {"type": "Feature", "geometry": {"type": "Polygon", "coordinates": [[[84.748535, 27.974944999999998], [84.77050499999999, 27.974944999999998], [84.77050499999999, 27.994455000000002], [84.748535, 27.994455000000002], [84.748535, 27.974944999999998]]]}, "properties": {"date": "2026-08-29", "dt": "2026-08-29_0000"}}, {"type": "Feature", "geometry": {"type": "Polygon", "coordinates": [[[85.979005, 27.780735], [86.00097500000001, 27.780735], [86.00097500000001, 27.800244999999997], [85.979005, 27.800244999999997], [85.979005, 27.780735]]]}, "properties": {"date": "2026-08-29", "dt": "2026-08-29_0000"}}, {"type": "Feature", "geometry": {"type": "Polygon", "coordinates": [[[85.078125, 27.994345000000003], [85.10009500000001, 27.994345000000003], [85.10009500000001, 28.013855], [85.078125, 28.013855], [85.078125, 27.994345000000003]]]}, "properties": {"date": "2026-08-29", "dt": "2026-08-29_0000"}}, {"type": "Feature", "geometry": {"type": "Polygon", "coordinates": [[[85.10009500000001, 28.013745], [85.12206499999999, 28.013745], [85.12206499999999, 28.033254999999997], [85.10009500000001, 28.033254999999997], [85.10009500000001, 28.013745]]]}, "properties": {"date": "2026-08-29", "dt": "2026-08-29_0000"}}, {"type": "Feature", "geometry": {"type": "Polygon", "coordinates": [[[85.31982500000001, 28.207535], [85.34179499999999, 28.207535], [85.34179499999999, 28.227044999999997], [85.31982500000001, 28.227044999999997], [85.31982500000001, 28.207535]]]}, "properties": {"date": "2026-08-29", "dt": "2026-08-29_0000"}}, {"type": "Feature", "geometry": {"type": "Polygon", "coordinates": [[[85.979005, 27.274175], [86.00097500000001, 27.274175], [86.00097500000001, 27.293685000000004], [85.979005, 27.293685000000004], [85.979005, 27.274175]]]}, "properties": {"date": "2026-08-29", "dt": "2026-08-29_0000"}}, {"type": "Feature", "geometry": {"type": "Polygon", "coordinates": [[[86.264645, 26.902515], [86.28661500000001, 26.902515], [86.28661500000001, 26.922024999999998], [86.264645, 26.922024999999998], [86.264645, 26.902515]]]}, "properties": {"date": "2026-08-29", "dt": "2026-08-29_0000"}}, {"type": "Feature", "geometry": {"type": "Polygon", "coordinates": [[[85.78125500000002, 27.916714999999996], [85.803225, 27.916714999999996], [85.803225, 27.936225], [85.78125500000002, 27.936225], [85.78125500000002, 27.916714999999996]]]}, "properties": {"date": "2026-08-29", "dt": "2026-08-29_0000"}}, {"type": "Feature", "geometry": {"type": "Polygon", "coordinates": [[[85.122075, 28.013745], [85.144045, 28.013745], [85.144045, 28.033254999999997], [85.122075, 28.033254999999997], [85.122075, 28.013745]]]}, "properties": {"date": "2026-08-29", "dt": "2026-08-29_0000"}}, {"type": "Feature", "geometry": {"type": "Polygon", "coordinates": [[[85.979005, 27.488774999999997], [86.00097500000001, 27.488774999999997], [86.00097500000001, 27.508285], [85.979005, 27.508285], [85.979005, 27.488774999999997]]]}, "properties": {"date": "2026-08-29", "dt": "2026-08-29_0000"}}, {"type": "Feature", "geometry": {"type": "Polygon", "coordinates": [[[85.34179499999999, 28.207535], [85.363765, 28.207535], [85.363765, 28.227044999999997], [85.34179499999999, 28.227044999999997], [85.34179499999999, 28.207535]]]}, "properties": {"date": "2026-08-29", "dt": "2026-08-29_0000"}}, {"type": "Feature", "geometry": {"type": "Polygon", "coordinates": [[[85.78125500000002, 27.955534999999998], [85.803225, 27.955534999999998], [85.803225, 27.975045], [85.78125500000002, 27.975045], [85.78125500000002, 27.955534999999998]]]}, "properties": {"date": "2026-08-29", "dt": "2026-08-29_0000"}}, {"type": "Feature", "geometry": {"type": "Polygon", "coordinates": [[[83.957525, 28.246254999999998], [83.97949499999999, 28.246254999999998], [83.97949499999999, 28.265765000000002], [83.957525, 28.265765000000002], [83.957525, 28.246254999999998]]]}, "properties": {"date": "2026-08-29", "dt": "2026-08-29_0000"}}, {"type": "Feature", "geometry": {"type": "Polygon", "coordinates": [[[84.902345, 27.664045], [84.924315, 27.664045], [84.924315, 27.683555], [84.902345, 27.683555], [84.902345, 27.664045]]]}, "properties": {"date": "2026-08-29", "dt": "2026-08-29_0000"}}, {"type": "Feature", "geometry": {"type": "Polygon", "coordinates": [[[85.979005, 27.800175000000003], [86.00097500000001, 27.800175000000003], [86.00097500000001, 27.819685], [85.979005, 27.819685], [85.979005, 27.800175000000003]]]}, "properties": {"date": "2026-08-29", "dt": "2026-08-29_0000"}}, {"type": "Feature", "geometry": {"type": "Polygon", "coordinates": [[[85.078125, 28.033135], [85.10009500000001, 28.033135], [85.10009500000001, 28.052645], [85.078125, 28.052645], [85.078125, 28.033135]]]}, "properties": {"date": "2026-08-29", "dt": "2026-08-29_0000"}}, {"type": "Feature", "geometry": {"type": "Polygon", "coordinates": [[[84.81445500000001, 27.780735], [84.83642499999999, 27.780735], [84.83642499999999, 27.800244999999997], [84.81445500000001, 27.800244999999997], [84.81445500000001, 27.780735]]]}, "properties": {"date": "2026-08-29", "dt": "2026-08-29_0000"}}, {"type": "Feature", "geometry": {"type": "Polygon", "coordinates": [[[86.17675500000001, 27.644585], [86.198725, 27.644585], [86.198725, 27.664095000000003], [86.17675500000001, 27.664095000000003], [86.17675500000001, 27.644585]]]}, "properties": {"date": "2026-08-29", "dt": "2026-08-29_0000"}}, {"type": "Feature", "geometry": {"type": "Polygon", "coordinates": [[[86.418455, 26.568945], [86.440425, 26.568945], [86.440425, 26.588455000000003], [86.418455, 26.588455000000003], [86.418455, 26.568945]]]}, "properties": {"date": "2026-08-29", "dt": "2026-08-29_0000"}}, {"type": "Feature", "geometry": {"type": "Polygon", "coordinates": [[[84.638675, 27.332735], [84.66064499999999, 27.332735], [84.66064499999999, 27.352245000000003], [84.638675, 27.352245000000003], [84.638675, 27.332735]]]}, "properties": {"date": "2026-08-29", "dt": "2026-08-29_0000"}}, {"type": "Feature", "geometry": {"type": "Polygon", "coordinates": [[[85.144045, 28.013745], [85.16601499999999, 28.013745], [85.16601499999999, 28.033254999999997], [85.144045, 28.033254999999997], [85.144045, 28.013745]]]}, "properties": {"date": "2026-08-29", "dt": "2026-08-29_0000"}}, {"type": "Feature", "geometry": {"type": "Polygon", "coordinates": [[[85.803225, 27.916714999999996], [85.82519500000001, 27.916714999999996], [85.82519500000001, 27.936225], [85.803225, 27.936225], [85.803225, 27.916714999999996]]]}, "properties": {"date": "2026-08-29", "dt": "2026-08-29_0000"}}, {"type": "Feature", "geometry": {"type": "Polygon", "coordinates": [[[85.363775, 28.207535], [85.38574499999999, 28.207535], [85.38574499999999, 28.227044999999997], [85.363775, 28.227044999999997], [85.363775, 28.207535]]]}, "properties": {"date": "2026-08-29", "dt": "2026-08-29_0000"}}, {"type": "Feature", "geometry": {"type": "Polygon", "coordinates": [[[85.95703499999999, 27.274175], [85.979005, 27.274175], [85.979005, 27.293685000000004], [85.95703499999999, 27.293685000000004], [85.95703499999999, 27.274175]]]}, "properties": {"date": "2026-08-29", "dt": "2026-08-29_0000"}}, {"type": "Feature", "geometry": {"type": "Polygon", "coordinates": [[[85.122075, 27.994345000000003], [85.144045, 27.994345000000003], [85.144045, 28.013855], [85.122075, 28.013855], [85.122075, 27.994345000000003]]]}, "properties": {"date": "2026-08-29", "dt": "2026-08-29_0000"}}, {"type": "Feature", "geometry": {"type": "Polygon", "coordinates": [[[85.803225, 27.955534999999998], [85.82519500000001, 27.955534999999998], [85.82519500000001, 27.975045], [85.803225, 27.975045], [85.803225, 27.955534999999998]]]}, "properties": {"date": "2026-08-29", "dt": "2026-08-29_0000"}}, {"type": "Feature", "geometry": {"type": "Polygon", "coordinates": [[[85.34179499999999, 28.246254999999998], [85.363765, 28.246254999999998], [85.363765, 28.265765000000002], [85.34179499999999, 28.265765000000002], [85.34179499999999, 28.246254999999998]]]}, "properties": {"date": "2026-08-29", "dt": "2026-08-29_0000"}}, {"type": "Feature", "geometry": {"type": "Polygon", "coordinates": [[[84.001465, 28.265605], [84.023435, 28.265605], [84.023435, 28.285114999999998], [84.001465, 28.285114999999998], [84.001465, 28.265605]]]}, "properties": {"date": "2026-08-29", "dt": "2026-08-29_0000"}}, {"type": "Feature", "geometry": {"type": "Polygon", "coordinates": [[[84.08935500000001, 27.020015], [84.111325, 27.020015], [84.111325, 27.039524999999998], [84.08935500000001, 27.039524999999998], [84.08935500000001, 27.020015]]]}, "properties": {"date": "2026-08-29", "dt": "2026-08-29_0000"}}, {"type": "Feature", "geometry": {"type": "Polygon", "coordinates": [[[85.10009500000001, 28.033135], [85.12206499999999, 28.033135], [85.12206499999999, 28.052645], [85.10009500000001, 28.052645], [85.10009500000001, 28.033135]]]}, "properties": {"date": "2026-08-29", "dt": "2026-08-29_0000"}}]}