{"type": "FeatureCollection", "features": [{"type": "Feature", "properties": {"record_id": "6b8652b38dd4b846", "table": "access", "location_raw": "Galchhi-Trishuli-Mailung-Syaphrubesi-Rasuwagadhi road", "location_ne": "", "admin_level": "district", "district": "", "province": "Bagmati", "geo_basis": "text_explicit", "as_of": "2026-08-29", "as_of_basis": "stated", "first_reported": "2026-08-29", "last_reported": "2026-08-29", "confidence": "high", "confidence_note": "Road spans Dhading/Nuwakot/Rasuwa; district left blank.", "density": "1", "effective_sources": "1", "independent_origins": "1", "origin": "media_own", "origin_note": "single outlet", "corroboration": "single_source", "evidence_quote": "यातायातका पूर्वाधारतर्फ १५ वटा पक्की पुल र ९ वटा झोलुङ्गे पुलमा क्षति पुगेको छ, जसका कारण गल्छी–त्रिशूली–मैलुङ–स्याफ्रुबेसी–रसुवागढी सडक खण्ड पूर्ण रूपमा अवरुद्ध भएको छ", "evidence_quote_en": "On transport infrastructure, 15 concrete bridges and 9 suspension bridges were damaged, due to which the Galchhi-Trishuli-Mailung-Syaphrubesi-Rasuwagadhi road section is completely blocked.", "temporal_contamination_flag": "", "segment_from": "Galchhi", "segment_to": "Rasuwagadhi", "mode": "road", "passability": "blocked", "source_outlets": "Ratopati", "source_outlet_count": 1, "entity_key": "Galchhi|Rasuwagadhi|road", "geo_resolution": "connector", "geo_statement": "Connection between Galchhi and Rasuwagadhi — a schematic link between two settlement/settlement locations, NOT the road alignment. The source states the link is affected, not which stretch of road.", "endpoint_from": "Galchhi", "endpoint_to": "Rasuwagadhi", "endpoint_from_level": "settlement", "endpoint_to_level": "settlement", "geo_match_name": null, "geo_match_osm_id": null, "geo_anchor_id": null, "geo_anchor_name": null}, "geometry": {"type": "LineString", "coordinates": [[85.0004606, 27.7973963], [85.3777789, 28.2777749]]}}, {"type": "Feature", "properties": {"record_id": "7eea5f8e5c69c241", "table": "access", "location_raw": "गल्छी-त्रिशूली-मैलुङ-स्याफ्रुबेँसी-रसुवागढी सडक खण्ड", "location_ne": "", "admin_level": "district", "district": "", "province": "Bagmati", "geo_basis": "text_explicit", "as_of": "2026-08-29", "as_of_basis": "article_date", "first_reported": "2026-08-29", "last_reported": "2026-08-29", "confidence": "high", "confidence_note": "Road section stated as fully blocked due to bridge damage.", "density": "1", "effective_sources": "1", "independent_origins": "1", "origin": "media_own", "origin_note": "single outlet", "corroboration": "single_source", "evidence_quote": "यातायात क्षेत्रमा १५ वटा पक्की पुल र ९ वटा झोलुङ्गे पुलमा क्षति पुग्दा गल्छी-त्रिशूली-मैलुङ-स्याफ्रुबेँसी-रसुवागढी सडक खण्ड पूर्ण रूपमा अवरुद्ध भएको छ।", "evidence_quote_en": "In the transport sector, 15 concrete bridges and 9 suspension bridges were damaged, fully blocking the Galchhi-Trishuli-Mailung-Syafrubesi-Rasuwagadhi road section.", "temporal_contamination_flag": "False", "segment_from": "गल्छी", "segment_to": "रसुवागढी", "mode": "road", "passability": "blocked", "source_outlets": "Deshsanchar", "source_outlet_count": 1, "entity_key": "गल्छी|रसुवागढी|road", "geo_resolution": "connector", "geo_statement": "Connection between गल्छी and रसुवागढी — a schematic link between two settlement/settlement locations, NOT the road alignment. The source states the link is affected, not which stretch of road.", "endpoint_from": "गल्छी", "endpoint_to": "रसुवागढी", "endpoint_from_level": "settlement", "endpoint_to_level": "settlement", "geo_match_name": null, "geo_match_osm_id": null, "geo_anchor_id": null, "geo_anchor_name": null}, "geometry": {"type": "LineString", "coordinates": [[85.0004606, 27.7973963], [85.3777789, 28.2777749]]}}, {"type": "Feature", "properties": {"record_id": "bf7824d118499dea", "table": "access", "location_raw": "Kathmandu-Mugling road", "location_ne": "", "admin_level": "district", "district": "", "province": "", "geo_basis": "text_explicit", "as_of": "2026-08-29", "as_of_basis": "article_date", "first_reported": "2026-08-29", "last_reported": "2026-08-29", "confidence": "medium", "confidence_note": "Road segment spans multiple districts.", "density": "2", "effective_sources": "2", "independent_origins": "2", "origin": "unattributed", "origin_note": "2 outlets, no reporting body named; independence not established", "corroboration": "independent", "evidence_quote": "Meanwhile, Nepal Police said that the road section between Kathmandu and Mugling is fully operational, with only a one-kilometre stretch at Baireni Bazar in Dhading operating under one-way traffic. (ANI)", "evidence_quote_en": "", "temporal_contamination_flag": "", "segment_from": "Kathmandu", "segment_to": "Mugling", "mode": "road", "passability": "open", "source_outlets": "The Tribune; Asianet Newsable", "source_outlet_count": 2, "entity_key": "Kathmandu|Mugling|road", "geo_resolution": "connector", "geo_statement": "Connection between Kathmandu and Mugling — a schematic link between two settlement/settlement locations, NOT the road alignment. The source states the link is affected, not which stretch of road.", "endpoint_from": "Kathmandu", "endpoint_to": "Mugling", "endpoint_from_level": "settlement", "endpoint_to_level": "settlement", "geo_match_name": null, "geo_match_osm_id": null, "geo_anchor_id": null, "geo_anchor_name": null}, "geometry": {"type": "LineString", "coordinates": [[85.3205817, 27.708317], [84.560951, 27.8561616]]}}, {"type": "Feature", "properties": {"record_id": "d33575b73d75ac8f", "table": "access", "location_raw": "Galchhi-Baireni section, Prithvi Highway", "location_ne": "", "admin_level": "district", "district": "Dhading", "province": "Bagmati", "geo_basis": "text_explicit", "as_of": "2026-08-27", "as_of_basis": "stated", "first_reported": "2026-08-28", "last_reported": "2026-08-28", "confidence": "high", "confidence_note": "Segment named, Dhading district.", "density": "1", "effective_sources": "1", "independent_origins": "1", "origin": "media_own", "origin_note": "single outlet", "corroboration": "single_source", "evidence_quote": "One-way traffic has been operating along the Galchhi–Baireni section of the Prithvi Highway since Thursday evening.", "evidence_quote_en": "", "temporal_contamination_flag": "False", "segment_from": "Galchhi", "segment_to": "Baireni", "mode": "road", "passability": "partial", "source_outlets": "Khabarhub", "source_outlet_count": 1, "entity_key": "Galchhi|Baireni|road", "geo_resolution": "connector", "geo_statement": "Connection between Galchhi and Baireni — a schematic link between two settlement/settlement locations, NOT the road alignment. The source states the link is affected, not which stretch of road.", "endpoint_from": "Galchhi", "endpoint_to": "Baireni", "endpoint_from_level": "settlement", "endpoint_to_level": "settlement", "geo_match_name": null, "geo_match_osm_id": null, "geo_anchor_id": null, "geo_anchor_name": null}, "geometry": {"type": "LineString", "coordinates": [[85.0004606, 27.7973963], [84.9899098, 27.8004709]]}}, {"type": "Feature", "properties": {"record_id": "a14bc4fc8d7398b1", "table": "access", "location_raw": "विशालटार, बेनीघाट रोराङ गाउँपालिका, धादिङ", "location_ne": "", "admin_level": "rural_municipality", "district": "Dhading", "province": "Bagmati", "geo_basis": "text_explicit", "as_of": "2026-08-28", "as_of_basis": "article_date", "first_reported": "2026-08-28", "last_reported": "2026-08-28", "confidence": "medium", "confidence_note": "Expert speaking from Bishaltar, Benighat Rorang rural municipality, Dhading.", "density": "1", "effective_sources": "1", "independent_origins": "1", "origin": "media_own", "origin_note": "single outlet", "corroboration": "single_source", "evidence_quote": "काठमांडू आने-जाने का रास्ता बंद है, लेकिन जनजीवन सामान्य होने की ओर अग्रसर है", "evidence_quote_en": "The road to and from Kathmandu is closed, but life is gradually returning to normal.", "temporal_contamination_flag": "False", "segment_from": "Benighat Rorang (Dhading)", "segment_to": "Kathmandu", "mode": "road", "passability": "blocked", "source_outlets": "Ratopati", "source_outlet_count": 1, "entity_key": "Benighat Rorang (Dhading)|Kathmandu|road", "geo_resolution": "connector", "geo_statement": "Connection between Benighat Rorang and Kathmandu — a schematic link between two settlement/settlement locations, NOT the road alignment. The source states the link is affected, not which stretch of road.", "endpoint_from": "Benighat Rorang", "endpoint_to": "Kathmandu", "endpoint_from_level": "settlement", "endpoint_to_level": "settlement", "geo_match_name": null, "geo_match_osm_id": null, "geo_anchor_id": null, "geo_anchor_name": null}, "geometry": {"type": "LineString", "coordinates": [[84.769707, 27.8074205], [85.3205817, 27.708317]]}}, {"type": "Feature", "properties": {"record_id": "38a9782e8463f941", "table": "access", "location_raw": "Mechi Highway, Jhapa–Taplejung section at Rajduwali, Ilam", "location_ne": "", "admin_level": "district", "district": "Ilam", "province": "Koshi", "geo_basis": "text_explicit", "as_of": "2026-08-28", "as_of_basis": "article_date", "first_reported": "2026-08-28", "last_reported": "2026-08-28", "confidence": "high", "confidence_note": "Blocked at Rajduwali, Ilam, but an alternate route remains open.", "density": "1", "effective_sources": "1", "independent_origins": "1", "origin": "media_own", "origin_note": "single outlet", "corroboration": "single_source", "evidence_quote": "In Koshi Province, continuous rainfall has blocked the Mechi Highway along the Jhapa–Taplejung section at Rajduwali, Ilam, though an alternative route remains accessible.", "evidence_quote_en": "", "temporal_contamination_flag": "False", "segment_from": "Jhapa", "segment_to": "Taplejung", "mode": "road", "passability": "partial", "source_outlets": "Nepal News", "source_outlet_count": 1, "entity_key": "Jhapa|Taplejung|road", "geo_resolution": "connector", "geo_statement": "Connection between Jhapa and Taplejung — a schematic link between two local unit/district locations, NOT the road alignment. The source states the link is affected, not which stretch of road.", "endpoint_from": "Jhapa", "endpoint_to": "Taplejung", "endpoint_from_level": "local unit", "endpoint_to_level": "district", "geo_match_name": null, "geo_match_osm_id": null, "geo_anchor_id": null, "geo_anchor_name": null}, "geometry": {"type": "LineString", "coordinates": [[87.86923788448179, 26.513070612197353], [87.76358690512419, 27.623639448991497]]}}, {"type": "Feature", "properties": {"record_id": "ccc0e43e8f915bf2", "table": "access", "location_raw": "Bidur", "location_ne": "", "admin_level": "settlement", "district": "Nuwakot", "province": "Bagmati", "geo_basis": "text_explicit", "as_of": "2026-08-28", "as_of_basis": "article_date", "first_reported": "2026-08-28", "last_reported": "2026-08-28", "confidence": "medium", "confidence_note": "Bidur described as 'the last point up to which vehicles can reach'; beyond is not passable by road.", "density": "1", "effective_sources": "1", "independent_origins": "1", "origin": "media_own", "origin_note": "single outlet", "corroboration": "single_source", "evidence_quote": "reached Bidur, the district headquarters of Nuwakot, which abuts Rasuwa, by road. With 19 bridges and 40 kilometres of roads damaged, it is the last point up to which vehicles can reach.", "evidence_quote_en": "", "temporal_contamination_flag": "False", "segment_from": "Bidur", "segment_to": "Rasuwa", "mode": "road", "passability": "blocked", "source_outlets": "The Hindu", "source_outlet_count": 1, "entity_key": "Bidur|Rasuwa|road", "geo_resolution": "connector", "geo_statement": "Connection between Bidur and Rasuwa — a schematic link between two settlement/district locations, NOT the road alignment. The source states the link is affected, not which stretch of road.", "endpoint_from": "Bidur", "endpoint_to": "Rasuwa", "endpoint_from_level": "settlement", "endpoint_to_level": "district", "geo_match_name": null, "geo_match_osm_id": null, "geo_anchor_id": null, "geo_anchor_name": null}, "geometry": {"type": "LineString", "coordinates": [[85.146446, 27.89526], [85.43275923020244, 28.17010993431697]]}}, {"type": "Feature", "properties": {"record_id": "bac864262c0f6fe4", "table": "access", "location_raw": "Rasuwa-Nuwakot connecting bridge, Betrawati", "location_ne": "", "admin_level": "settlement", "district": "Nuwakot", "province": "Bagmati", "geo_basis": "text_explicit", "as_of": "2026-08-28", "as_of_basis": "article_date", "first_reported": "2026-08-28", "last_reported": "2026-08-28", "confidence": "high", "confidence_note": "The bridge connecting the two districts at Betrawati is gone, blocking the crossing.", "density": "1", "effective_sources": "1", "independent_origins": "1", "origin": "media_own", "origin_note": "single outlet", "corroboration": "single_source", "evidence_quote": "रसुवालाई नुवाकोट जोड्ने पुलको नामोनिशान छैन ।", "evidence_quote_en": "", "temporal_contamination_flag": "False", "segment_from": "Rasuwa", "segment_to": "Nuwakot", "mode": "road", "passability": "blocked", "source_outlets": "Himal Khabar", "source_outlet_count": 1, "entity_key": "Rasuwa|Nuwakot|road", "geo_resolution": "connector", "geo_statement": "Connection between Rasuwa and Nuwakot — a schematic link between two district/district locations, NOT the road alignment. The source states the link is affected, not which stretch of road.", "endpoint_from": "Rasuwa", "endpoint_to": "Nuwakot", "endpoint_from_level": "district", "endpoint_to_level": "district", "geo_match_name": null, "geo_match_osm_id": null, "geo_anchor_id": null, "geo_anchor_name": null}, "geometry": {"type": "LineString", "coordinates": [[85.43275923020244, 28.17010993431697], [85.20729652963067, 27.936643231647253]]}}, {"type": "Feature", "properties": {"record_id": "6ca36ff7f46dece0", "table": "access", "location_raw": "Tokha–Chhahare road, Nuwakot", "location_ne": "", "admin_level": "district", "district": "Nuwakot", "province": "Bagmati", "geo_basis": "text_explicit", "as_of": "2026-08-29", "as_of_basis": "article_date", "first_reported": "2026-08-29", "last_reported": "2026-08-29", "confidence": "high", "confidence_note": "Night-time suspension in Nuwakot.", "density": "1", "effective_sources": "1", "independent_origins": "1", "origin": "media_own", "origin_note": "single outlet", "corroboration": "single_source", "evidence_quote": "On the Tokha–Chhahare road section in Nuwakot, traffic movement has also been suspended from 10:00 PM to 5:00 AM.", "evidence_quote_en": "", "temporal_contamination_flag": "False", "segment_from": "Tokha", "segment_to": "Chhahare", "mode": "road", "passability": "partial", "source_outlets": "Nepal News", "source_outlet_count": 1, "entity_key": "Tokha|Chhahare|road", "geo_resolution": "connector", "geo_statement": "Connection between Tokha and Chhahare — a schematic link between two settlement/settlement locations, NOT the road alignment. The source states the link is affected, not which stretch of road.", "endpoint_from": "Tokha", "endpoint_to": "Chhahare", "endpoint_from_level": "settlement", "endpoint_to_level": "settlement", "geo_match_name": null, "geo_match_osm_id": null, "geo_anchor_id": null, "geo_anchor_name": null}, "geometry": {"type": "LineString", "coordinates": [[85.326434, 27.7455698], [85.2359676, 27.8324302]]}}, {"type": "Feature", "properties": {"record_id": "9a5fcd6075cd41fb", "table": "access", "location_raw": "Syabrubesi–Rasuwagadhi road", "location_ne": "", "admin_level": "district", "district": "Rasuwa", "province": "Bagmati", "geo_basis": "text_explicit", "as_of": "2026-08-26", "as_of_basis": "inferred_from_text", "first_reported": "2026-08-28", "last_reported": "2026-08-28", "confidence": "high", "confidence_note": "Road segment explicitly named.", "density": "1", "effective_sources": "1", "independent_origins": "1", "origin": "media_own", "origin_note": "single outlet", "corroboration": "single_source", "evidence_quote": "Hydropower plants on the lower banks were swept away, along with the road connecting Syabrubesi to the Rasuwagadhi border crossing, itself only partially rebuilt since 2025.", "evidence_quote_en": "", "temporal_contamination_flag": "", "segment_from": "Syabrubesi", "segment_to": "Rasuwagadhi", "mode": "road", "passability": "blocked", "source_outlets": "The Korea Times", "source_outlet_count": 1, "entity_key": "Syabrubesi|Rasuwagadhi|road", "geo_resolution": "connector", "geo_statement": "Connection between Syabrubesi and Rasuwagadhi — a schematic link between two settlement/settlement locations, NOT the road alignment. The source states the link is affected, not which stretch of road.", "endpoint_from": "Syabrubesi", "endpoint_to": "Rasuwagadhi", "endpoint_from_level": "settlement", "endpoint_to_level": "settlement", "geo_match_name": null, "geo_match_osm_id": null, "geo_anchor_id": null, "geo_anchor_name": null}, "geometry": {"type": "LineString", "coordinates": [[85.3427433, 28.164569], [85.3777789, 28.2777749]]}}, {"type": "Feature", "properties": {"record_id": "9b82ac18259f6f95", "table": "access", "location_raw": "Dhunche-Grang road section", "location_ne": "", "admin_level": "district", "district": "Rasuwa", "province": "Bagmati", "geo_basis": "text_explicit", "as_of": "2026-08-27", "as_of_basis": "stated", "first_reported": "2026-08-28", "last_reported": "2026-08-28", "confidence": "medium", "confidence_note": "Heavy equipment deployed implies section still blocked/being cleared.", "density": "1", "effective_sources": "1", "independent_origins": "1", "origin": "media_own", "origin_note": "single outlet", "corroboration": "single_source", "evidence_quote": "A hill excavator, loader and tipper have been deployed along the Dhunche–Grang road section.", "evidence_quote_en": "", "temporal_contamination_flag": "False", "segment_from": "Dhunche", "segment_to": "Grang", "mode": "road", "passability": "blocked", "source_outlets": "Khabarhub", "source_outlet_count": 1, "entity_key": "Dhunche|Grang|road", "geo_resolution": "connector", "geo_statement": "Connection between Dhunche and Grang — a schematic link between two settlement/settlement locations, NOT the road alignment. The source states the link is affected, not which stretch of road.", "endpoint_from": "Dhunche", "endpoint_to": "Grang", "endpoint_from_level": "settlement", "endpoint_to_level": "settlement", "geo_match_name": null, "geo_match_osm_id": null, "geo_anchor_id": null, "geo_anchor_name": null}, "geometry": {"type": "LineString", "coordinates": [[85.2960583, 28.1127948], [85.2260042, 28.0573468]]}}, {"type": "Feature", "properties": {"record_id": "01268a1d0ddf5d67", "table": "access", "location_raw": "बेत्रावती से रसुवागढ़ी", "location_ne": "", "admin_level": "settlement", "district": "Rasuwa", "province": "Bagmati", "geo_basis": "text_explicit", "as_of": "2026-08-27", "as_of_basis": "article_date", "first_reported": "2026-08-28", "last_reported": "2026-08-28", "confidence": "medium", "confidence_note": "'Damaged in several places' along the corridor implies partial passability, not full closure.", "density": "1", "effective_sources": "1", "independent_origins": "1", "origin": "media_own", "origin_note": "single outlet", "corroboration": "single_source", "evidence_quote": "बेत्रावती से रसुवागढ़ी के बीच 42 किलोमीटर लंबा सड़क मार्ग कई स्थानों पर क्षतिग्रस्त हो गया है", "evidence_quote_en": "The 42km road between Betrawati and Rasuwagadhi has been damaged in several places", "temporal_contamination_flag": "", "segment_from": "Betrawati", "segment_to": "Rasuwagadhi", "mode": "road", "passability": "partial", "source_outlets": "LatestLY", "source_outlet_count": 1, "entity_key": "Betrawati|Rasuwagadhi|road", "geo_resolution": "connector", "geo_statement": "Connection between Betrawati and Rasuwagadhi — a schematic link between two settlement/settlement locations, NOT the road alignment. The source states the link is affected, not which stretch of road.", "endpoint_from": "Betrawati", "endpoint_to": "Rasuwagadhi", "endpoint_from_level": "settlement", "endpoint_to_level": "settlement", "geo_match_name": null, "geo_match_osm_id": null, "geo_anchor_id": null, "geo_anchor_name": null}, "geometry": {"type": "LineString", "coordinates": [[85.1859528, 27.9731085], [85.3777789, 28.2777749]]}}, {"type": "Feature", "properties": {"record_id": "5e517446f227f552", "table": "access", "location_raw": "Betrawati-Syafrubesi-Rasuwagadhi via Mailung", "location_ne": "", "admin_level": "district", "district": "Rasuwa", "province": "Bagmati", "geo_basis": "text_explicit", "as_of": "2026-08-27", "as_of_basis": "inferred_from_text", "first_reported": "2026-08-28", "last_reported": "2026-08-28", "confidence": "high", "confidence_note": "Ministry of Infrastructure Development press release; date resolved from 'on Thursday' (weekday only).", "density": "5", "effective_sources": "5", "independent_origins": "5", "origin": "unattributed", "origin_note": "5 outlets, no reporting body named; independence not established", "corroboration": "independent", "evidence_quote": "The Ministry of Infrastructure Development has reported that approximately 40 kilometers of road in Rasuwa have been completely damaged due to flooding.\n\n“The road connecting Betrawati to Syafrubesi–Rasuwagadhi via Mailung has been completely destroyed. Additionally, about 10 kilometers of the road from Galchi to Trishuli is also closed", "evidence_quote_en": "", "temporal_contamination_flag": "False", "segment_from": "Betrawati", "segment_to": "Rasuwagadhi", "mode": "road", "passability": "blocked", "source_outlets": "The Annapurna Express; The Statesman; خبرگزاری اطلس; Deshsanchar; Nepal News", "source_outlet_count": 5, "entity_key": "Betrawati|Rasuwagadhi|road", "geo_resolution": "connector", "geo_statement": "Connection between Betrawati and Rasuwagadhi — a schematic link between two settlement/settlement locations, NOT the road alignment. The source states the link is affected, not which stretch of road.", "endpoint_from": "Betrawati", "endpoint_to": "Rasuwagadhi", "endpoint_from_level": "settlement", "endpoint_to_level": "settlement", "geo_match_name": null, "geo_match_osm_id": null, "geo_anchor_id": null, "geo_anchor_name": null}, "geometry": {"type": "LineString", "coordinates": [[85.1859528, 27.9731085], [85.3777789, 28.2777749]]}}, {"type": "Feature", "properties": {"record_id": "1d2dbb0ce5ad27ae", "table": "access", "location_raw": "काठमाडौं–टोखा–छहरे–...–धुन्चे (रसुवा)", "location_ne": "", "admin_level": "district", "district": "Rasuwa", "province": "Bagmati", "geo_basis": "text_explicit", "as_of": "2026-08-28", "as_of_basis": "article_date", "first_reported": "2026-08-28", "last_reported": "2026-08-28", "confidence": "high", "confidence_note": "Alternative route to Rasuwa district headquarters, small 4-wheel vehicles only.", "density": "1", "effective_sources": "1", "independent_origins": "1", "origin": "media_own", "origin_note": "single outlet", "corroboration": "single_source", "evidence_quote": "काठमाडौं–टोखा–छहरे–गड्खार पुल–आप्र–नर्जा–लच्याङ–सरमथली–पाटीखर्क हुँदै बोगटीटार–कालिकास्थान–धुन्चेसम्मको वैकल्पिक सडक साना चारपाङ्ग्रे सवारीसाधनका लागि सुचारु भएको छ।", "evidence_quote_en": "", "temporal_contamination_flag": "", "segment_from": "काठमाडौं", "segment_to": "धुन्चे", "mode": "road", "passability": "partial", "source_outlets": "ImageKhabar", "source_outlet_count": 1, "entity_key": "काठमाडौं|धुन्चे|road", "geo_resolution": "connector", "geo_statement": "Connection between काठमाडौं and धुन्चे — a schematic link between two settlement/settlement locations, NOT the road alignment. The source states the link is affected, not which stretch of road.", "endpoint_from": "काठमाडौं", "endpoint_to": "धुन्चे", "endpoint_from_level": "settlement", "endpoint_to_level": "settlement", "geo_match_name": null, "geo_match_osm_id": null, "geo_anchor_id": null, "geo_anchor_name": null}, "geometry": {"type": "LineString", "coordinates": [[85.3205817, 27.708317], [85.2960583, 28.1127948]]}}, {"type": "Feature", "properties": {"record_id": "b28d6b0edf04b27b", "table": "access", "location_raw": "रसुवा (Rasuwa) to संघीय राजधानी (federal capital)", "location_ne": "", "admin_level": "district", "district": "Rasuwa", "province": "Bagmati", "geo_basis": "text_explicit", "as_of": "2026-08-28", "as_of_basis": "article_date", "first_reported": "2026-08-28", "last_reported": "2026-08-28", "confidence": "high", "confidence_note": "District-level statement of road/power/telecom disruption cutting Rasuwa off from Kathmandu.", "density": "1", "effective_sources": "1", "independent_origins": "1", "origin": "media_own", "origin_note": "single outlet", "corroboration": "single_source", "evidence_quote": "रसुवामा बुधबार बिहानको बाढीले सडक, विद्युत् र टेलिफोन सेवा अवरुद्ध हुँदा संघीय राजधानीसँग सम्पर्क टुटेको छ ।", "evidence_quote_en": "After Wednesday morning's flood blocked road, electricity and telephone service in Rasuwa, contact with the federal capital has been cut off.", "temporal_contamination_flag": "", "segment_from": "Rasuwa", "segment_to": "Kathmandu (federal capital)", "mode": "road", "passability": "blocked", "source_outlets": "Onlinekhabar", "source_outlet_count": 1, "entity_key": "Rasuwa|Kathmandu (federal capital)|road", "geo_resolution": "connector", "geo_statement": "Connection between Rasuwa and Kathmandu — a schematic link between two district/settlement locations, NOT the road alignment. The source states the link is affected, not which stretch of road.", "endpoint_from": "Rasuwa", "endpoint_to": "Kathmandu", "endpoint_from_level": "district", "endpoint_to_level": "settlement", "geo_match_name": null, "geo_match_osm_id": null, "geo_anchor_id": null, "geo_anchor_name": null}, "geometry": {"type": "LineString", "coordinates": [[85.43275923020244, 28.17010993431697], [85.3205817, 27.708317]]}}, {"type": "Feature", "properties": {"record_id": "bcda01bfdd7bcb76", "table": "access", "location_raw": "वेत्रावती (Betrawati, Nuwakot) to स्याफ्रुबेँसी–रसुवागढी (Syafrubesi-Rasuwagadhi, Rasuwa)", "location_ne": "", "admin_level": "district", "district": "Rasuwa", "province": "Bagmati", "geo_basis": "text_explicit", "as_of": "2026-08-28", "as_of_basis": "article_date", "first_reported": "2026-08-28", "last_reported": "2026-08-28", "confidence": "high", "confidence_note": "Attributed to Ministry of Infrastructure Development.", "density": "1", "effective_sources": "1", "independent_origins": "1", "origin": "media_own", "origin_note": "single outlet", "corroboration": "single_source", "evidence_quote": "पूर्वाधार विकास मन्त्रालयका अनुसार नुवाकोटको वेत्रावतीबाट मैलुङ हुँदै स्याफ्रुबेँसी–रसुवागढी जोड्ने सडक पूर्ण रूपमा क्षतिग्रस्त भएको हो ।", "evidence_quote_en": "According to the Ministry of Infrastructure Development, the road connecting Betrawati (Nuwakot) via Mailung to Syafrubesi-Rasuwagadhi has been completely damaged.", "temporal_contamination_flag": "", "segment_from": "Betrawati, Nuwakot (via Mailung)", "segment_to": "Syafrubesi-Rasuwagadhi, Rasuwa", "mode": "road", "passability": "blocked", "source_outlets": "Adarsha Samaj", "source_outlet_count": 1, "entity_key": "Betrawati, Nuwakot (via Mailung)|Syafrubesi-Rasuwagadhi, Rasuwa|road", "geo_resolution": "connector", "geo_statement": "Connection between Betrawati and Rasuwa — a schematic link between two settlement/district locations, NOT the road alignment. The source states the link is affected, not which stretch of road.", "endpoint_from": "Betrawati", "endpoint_to": "Rasuwa", "endpoint_from_level": "settlement", "endpoint_to_level": "district", "geo_match_name": null, "geo_match_osm_id": null, "geo_anchor_id": null, "geo_anchor_name": null}, "geometry": {"type": "LineString", "coordinates": [[85.1859528, 27.9731085], [85.43275923020244, 28.17010993431697]]}}, {"type": "Feature", "properties": {"record_id": "551d0b907b4f70bd", "table": "access", "location_raw": "Syafrubesi–Rasuwagadhi road (via Betrawati–Mailung)", "location_ne": "", "admin_level": "district", "district": "Rasuwa", "province": "Bagmati", "geo_basis": "text_explicit", "as_of": "2026-08-28", "as_of_basis": "article_date", "first_reported": "2026-08-28", "last_reported": "2026-08-28", "confidence": "high", "confidence_note": "Road section named and located within Rasuwa district.", "density": "1", "effective_sources": "1", "independent_origins": "1", "origin": "media_own", "origin_note": "single outlet", "corroboration": "single_source", "evidence_quote": "The flood has disrupted the Syafrubesi–Rasuwagadhi road section through Betrawati–Mailung.", "evidence_quote_en": "", "temporal_contamination_flag": "", "segment_from": "Syafrubesi", "segment_to": "Rasuwagadhi", "mode": "road", "passability": "blocked", "source_outlets": "Khabarhub", "source_outlet_count": 1, "entity_key": "Syafrubesi|Rasuwagadhi|road", "geo_resolution": "connector", "geo_statement": "Connection between Syafrubesi and Rasuwagadhi — a schematic link between two settlement/settlement locations, NOT the road alignment. The source states the link is affected, not which stretch of road.", "endpoint_from": "Syafrubesi", "endpoint_to": "Rasuwagadhi", "endpoint_from_level": "settlement", "endpoint_to_level": "settlement", "geo_match_name": null, "geo_match_osm_id": null, "geo_anchor_id": null, "geo_anchor_name": null}, "geometry": {"type": "LineString", "coordinates": [[85.3427433, 28.164569], [85.3777789, 28.2777749]]}}, {"type": "Feature", "properties": {"record_id": "886ffb3b6b63a5cc", "table": "access", "location_raw": "Kathmandu to Rasuwa", "location_ne": "", "admin_level": "district", "district": "Rasuwa", "province": "Bagmati", "geo_basis": "text_explicit", "as_of": "2026-08-28", "as_of_basis": "stated", "first_reported": "2026-08-28", "last_reported": "2026-08-29", "confidence": "medium", "confidence_note": "Roads from Kathmandu to Rasuwa described as cut off as of the 28th.", "density": "2", "effective_sources": "2", "independent_origins": "2", "origin": "unattributed", "origin_note": "2 outlets, no reporting body named; independence not established", "corroboration": "independent", "evidence_quote": "Helicopters have been flying all day over the skies to search for the missing as roads leading from the capital, Kathmandu, to major affected areas like Rasuwa have been cut off.", "evidence_quote_en": "", "temporal_contamination_flag": "False", "segment_from": "Kathmandu", "segment_to": "Rasuwa", "mode": "road", "passability": "blocked", "source_outlets": "news.sbs.co.kr; 조선일보", "source_outlet_count": 2, "entity_key": "Kathmandu|Rasuwa|road", "geo_resolution": "connector", "geo_statement": "Connection between Kathmandu and Rasuwa — a schematic link between two settlement/district locations, NOT the road alignment. The source states the link is affected, not which stretch of road.", "endpoint_from": "Kathmandu", "endpoint_to": "Rasuwa", "endpoint_from_level": "settlement", "endpoint_to_level": "district", "geo_match_name": null, "geo_match_osm_id": null, "geo_anchor_id": null, "geo_anchor_name": null}, "geometry": {"type": "LineString", "coordinates": [[85.3205817, 27.708317], [85.43275923020244, 28.17010993431697]]}}, {"type": "Feature", "properties": {"record_id": "8b69d62f3e384311", "table": "access", "location_raw": "Kathmandu-Dhunche corridor (via Tokha, Chhahare, Gadhkhar Bridge, Aapra, Nanja, Lachhyang, Sarmathali, Patikharka, Bogetitar, Kalikasthan)", "location_ne": "", "admin_level": "district", "district": "Rasuwa", "province": "Bagmati", "geo_basis": "text_explicit", "as_of": "2026-08-29", "as_of_basis": "stated", "first_reported": "2026-08-28", "last_reported": "2026-08-29", "confidence": "high", "confidence_note": "Full route named and attributed to NDRRMA; reopened only to small four-wheeled vehicles, so marked partial rather than open.", "density": "6", "effective_sources": "5", "independent_origins": "5", "origin": "unattributed", "origin_note": "5 outlets, no reporting body named; independence not established", "corroboration": "independent", "evidence_quote": "The National Disaster Risk Reduction and Management Authority reported that the road section linking Kathmandu, Tokha, Chhahare, Gadhkhar Bridge, Aapra, Nanja, Lachhyang, Sarmathali, and Patikharka with Bogetitar, Kalikasthan, and Dhunche has reopened to small four-wheeled vehicles.", "evidence_quote_en": "", "temporal_contamination_flag": "", "segment_from": "Kathmandu", "segment_to": "Dhunche", "mode": "road", "passability": "partial", "source_outlets": "newsdrum.in; Deshsanchar; OnlineKhabar English News; NepalNews; Khabarhub; Nepal News", "source_outlet_count": 6, "entity_key": "Kathmandu|Dhunche|road", "geo_resolution": "connector", "geo_statement": "Connection between Kathmandu and Dhunche — a schematic link between two settlement/settlement locations, NOT the road alignment. The source states the link is affected, not which stretch of road.", "endpoint_from": "Kathmandu", "endpoint_to": "Dhunche", "endpoint_from_level": "settlement", "endpoint_to_level": "settlement", "geo_match_name": null, "geo_match_osm_id": null, "geo_anchor_id": null, "geo_anchor_name": null}, "geometry": {"type": "LineString", "coordinates": [[85.3205817, 27.708317], [85.2960583, 28.1127948]]}}, {"type": "Feature", "properties": {"record_id": "a5cc7a2ad33bd0a7", "table": "access", "location_raw": "काठमाडौँ–...–धुन्चे (Kathmandu-...-Dhunche road)", "location_ne": "", "admin_level": "district", "district": "Rasuwa", "province": "Bagmati", "geo_basis": "text_explicit", "as_of": "2026-08-29", "as_of_basis": "article_date", "first_reported": "2026-08-29", "last_reported": "2026-08-29", "confidence": "high", "confidence_note": "NDRRMA-sourced; passability marked partial because only small 4-wheel vehicles are permitted, not full traffic.", "density": "1", "effective_sources": "1", "independent_origins": "1", "origin": "media_own", "origin_note": "single outlet", "corroboration": "single_source", "evidence_quote": "राष्ट्रिय विपद् जोखिम न्यूनीकरण तथा व्यवस्थापन प्राधिकरणका अनुसार काठमाडौँ–टोखा–छहरे–गड्खारपुल–आप्र–नर्जा–लच्याङ–सरमथली–पाटीखर्क हुँदै बोगटीटार–कालिकास्थान–धुन्चेसम्मको सडकखण्डमा चारपाङ्ग्रे साना सवारीसाधन सञ्चालन हुने गरी सुचारु भएको हो।", "evidence_quote_en": "Per the National Disaster Risk Reduction and Management Authority, small four-wheeled vehicles have resumed operating on the Kathmandu-Tokha-Chhahare-...-Dhunche road segment.", "temporal_contamination_flag": "", "segment_from": "काठमाडौँ (Kathmandu)", "segment_to": "धुन्चे (Dhunche)", "mode": "road", "passability": "partial", "source_outlets": "Onlinekhabar", "source_outlet_count": 1, "entity_key": "काठमाडौँ (Kathmandu)|धुन्चे (Dhunche)|road", "geo_resolution": "connector", "geo_statement": "Connection between Kathmandu and Dhunche — a schematic link between two settlement/settlement locations, NOT the road alignment. The source states the link is affected, not which stretch of road.", "endpoint_from": "Kathmandu", "endpoint_to": "Dhunche", "endpoint_from_level": "settlement", "endpoint_to_level": "settlement", "geo_match_name": null, "geo_match_osm_id": null, "geo_anchor_id": null, "geo_anchor_name": null}, "geometry": {"type": "LineString", "coordinates": [[85.3205817, 27.708317], [85.2960583, 28.1127948]]}}, {"type": "Feature", "properties": {"record_id": "dae3f927b1633a34", "table": "access", "location_raw": "Rasuwa to Kathmandu", "location_ne": "", "admin_level": "district", "district": "Rasuwa", "province": "Bagmati", "geo_basis": "text_explicit", "as_of": "2026-08-29", "as_of_basis": "article_date", "first_reported": "2026-08-29", "last_reported": "2026-08-29", "confidence": "medium", "confidence_note": "Alternate route open only for light vehicles.", "density": "1", "effective_sources": "1", "independent_origins": "1", "origin": "media_own", "origin_note": "single outlet", "corroboration": "single_source", "evidence_quote": "Alternate routes have reconnected Rasuwa to Kathmandu for light vehicles", "evidence_quote_en": "", "temporal_contamination_flag": "", "segment_from": "Rasuwa", "segment_to": "Kathmandu", "mode": "road", "passability": "partial", "source_outlets": "India's News.Net", "source_outlet_count": 1, "entity_key": "Rasuwa|Kathmandu|road", "geo_resolution": "connector", "geo_statement": "Connection between Rasuwa and Kathmandu — a schematic link between two district/settlement locations, NOT the road alignment. The source states the link is affected, not which stretch of road.", "endpoint_from": "Rasuwa", "endpoint_to": "Kathmandu", "endpoint_from_level": "district", "endpoint_to_level": "settlement", "geo_match_name": null, "geo_match_osm_id": null, "geo_anchor_id": null, "geo_anchor_name": null}, "geometry": {"type": "LineString", "coordinates": [[85.43275923020244, 28.17010993431697], [85.3205817, 27.708317]]}}]}