{"type": "FeatureCollection", "features": [{"type": "Feature", "properties": {"record_id": "535082740916f254", "table": "hazard_watch", "location_raw": "रसुवा, नुवाकोट र धादिङ आसपासका क्षेत्र", "location_ne": "", "admin_level": "district", "district": "", "province": "Bagmati", "geo_basis": "text_explicit", "as_of": "2026-08-28", "as_of_basis": "stated", "first_reported": "2026-08-28", "last_reported": "2026-08-28", "confidence": "medium", "confidence_note": "Names three districts jointly; specific single district not distinguished.", "density": "1", "effective_sources": "1", "independent_origins": "1", "origin": "media_own", "origin_note": "single outlet", "corroboration": "single_source", "evidence_quote": "जल तथा मौसम विज्ञान विभाग, मौसम पूर्वानुमान महाशाखाले बाढी प्रभावित रसुवा, नुवाकोट र धादिङ आसपासका क्षेत्रमा आज राति मध्यमदेखि भारी वर्षा हुन सक्ने भन्दै उच्च सतर्कता अपनाउन आग्रह गरेको छ।", "evidence_quote_en": "", "temporal_contamination_flag": "False", "hazard": "further_flooding", "action": "warning_issued", "source_outlets": "Nagarik News", "source_outlet_count": 1, "entity_key": "further_flooding|रसुवा, नुवाकोट र धादिङ आसपासका क्षेत्र", "geo_resolution": "district", "geo_statement": "District recovered as Nuwakot by locating \"नुवाकोट\"; anchored to the district, not the site", "geo_match_name": null, "geo_match_osm_id": null, "geo_anchor_id": "79688334B17077666187877", "geo_anchor_name": "Nuwakot"}, "geometry": {"type": "Point", "coordinates": [85.20729652963067, 27.936643231647253]}}, {"type": "Feature", "properties": {"record_id": "e04c4fa0cb5947ae", "table": "hazard_watch", "location_raw": "रसुवा र नुवाकोट क्षेत्र", "location_ne": "", "admin_level": "district", "district": "", "province": "Bagmati", "geo_basis": "text_explicit", "as_of": "2026-08-28", "as_of_basis": "stated", "first_reported": "2026-08-28", "last_reported": "2026-08-28", "confidence": "medium", "confidence_note": "Weakened ground from the flood raises landslide risk even with normal rainfall, per DHM meteorologist.", "density": "1", "effective_sources": "1", "independent_origins": "1", "origin": "media_own", "origin_note": "single outlet", "corroboration": "single_source", "evidence_quote": "बाढीका कारण जमिन कमजोर र थिचिएको अवस्थामा रहेकाले ठूलो वर्षा नभए पनि कमजोर माटो बग्ने, पहिरो जाने तथा स्थानीय खोलामा आकस्मिक बहाव बढ्न सक्ने जोखिम रहेको उनले बताए।", "evidence_quote_en": "", "temporal_contamination_flag": "False", "hazard": "landslide", "action": "warning_issued", "source_outlets": "Nagarik News", "source_outlet_count": 1, "entity_key": "landslide|रसुवा र नुवाकोट क्षेत्र", "geo_resolution": "province", "geo_statement": "Located to Bagmati province only — the source names no district", "geo_match_name": null, "geo_match_osm_id": null, "geo_anchor_id": "38925275B1624743257395", "geo_anchor_name": "Bagmati"}, "geometry": {"type": "Point", "coordinates": [85.39309228206186, 27.652735693974222]}}, {"type": "Feature", "properties": {"record_id": "2361260f73006967", "table": "hazard_watch", "location_raw": "Koshi, Bagmati and Gandaki provinces", "location_ne": "", "admin_level": "province", "district": "", "province": "", "geo_basis": "text_explicit", "as_of": "2026-08-28", "as_of_basis": "article_date", "first_reported": "2026-08-28", "last_reported": "2026-08-28", "confidence": "medium", "confidence_note": "Forecast spans three provinces; province field left blank since no single one applies.", "density": "1", "effective_sources": "1", "independent_origins": "1", "origin": "media_own", "origin_note": "single outlet", "corroboration": "single_source", "evidence_quote": "the country’s weather agency forecasting heavy rainfall in parts of Koshi, Bagmati and Gandaki provinces over the next 24 hours.", "evidence_quote_en": "", "temporal_contamination_flag": "", "hazard": "further_flooding", "action": "warning_issued", "source_outlets": "News18", "source_outlet_count": 1, "entity_key": "further_flooding|Koshi, Bagmati and Gandaki provinces", "geo_resolution": "district", "geo_statement": "District recovered as Kathmandu by locating \"Bagmati\"; anchored to the district, not the site", "geo_match_name": null, "geo_match_osm_id": null, "geo_anchor_id": "79688334B75108943206003", "geo_anchor_name": "Kathmandu"}, "geometry": {"type": "Point", "coordinates": [85.26981408551208, 27.69905151590865]}}, {"type": "Feature", "properties": {"record_id": "659db6fe21133b0c", "table": "hazard_watch", "location_raw": "Bhotekoshi and Trishuli areas", "location_ne": "", "admin_level": "province", "district": "", "province": "Bagmati", "geo_basis": "text_explicit", "as_of": "2026-08-28", "as_of_basis": "inferred_from_text", "first_reported": "2026-08-28", "last_reported": "2026-08-29", "confidence": "medium", "confidence_note": "Reach spans Rasuwa, Dhading and Nuwakot per this article; no single district specified for the hazard.", "density": "3", "effective_sources": "3", "independent_origins": "3", "origin": "unattributed", "origin_note": "3 outlets, no reporting body named; independence not established", "corroboration": "independent", "evidence_quote": "The National Disaster Risk Reduction and Management Authority (NDRRMA) on Friday said the rise in the water level at the site where a devastating flash flood occurred earlier this week raised the risk of another flood in the area.", "evidence_quote_en": "", "temporal_contamination_flag": "False", "hazard": "further_flooding", "action": "warning_issued", "source_outlets": "Rediff; ETV Bharat; Republic World", "source_outlet_count": 3, "entity_key": "further_flooding|Bhotekoshi and Trishuli areas", "geo_resolution": "district", "geo_statement": "District recovered as Sindhupalchok by locating \"Bhotekoshi\"; anchored to the district, not the site", "geo_match_name": null, "geo_match_osm_id": null, "geo_anchor_id": "79688334B45086844065391", "geo_anchor_name": "Sindhupalchok"}, "geometry": {"type": "Point", "coordinates": [85.72157873296592, 27.889285609515667]}}, {"type": "Feature", "properties": {"record_id": "1a472645ae62c4ba", "table": "hazard_watch", "location_raw": "Bhote Koshi and Trishuli areas", "location_ne": "", "admin_level": "province", "district": "", "province": "Bagmati", "geo_basis": "text_explicit", "as_of": "2026-08-28", "as_of_basis": "inferred_from_text", "first_reported": "2026-08-28", "last_reported": "2026-08-28", "confidence": "low", "confidence_note": "Lake feeds the Bhote Koshi system into Nepal; no specific district given.", "density": "1", "effective_sources": "1", "independent_origins": "1", "origin": "media_own", "origin_note": "single outlet", "corroboration": "single_source", "evidence_quote": "Chinese authorities had informed Nepal that around 2 million cubic metres of water had accumulated in the lake, with another 3 million cubic metres potentially entering it over three days, raising concerns about a possible breach.", "evidence_quote_en": "", "temporal_contamination_flag": "False", "hazard": "barrier_lake", "action": "monitoring", "source_outlets": "Rediff", "source_outlet_count": 1, "entity_key": "barrier_lake|Bhote Koshi and Trishuli areas", "geo_resolution": "district", "geo_statement": "District recovered as Sindhupalchok by locating \"Bhote Koshi\"; anchored to the district, not the site", "geo_match_name": null, "geo_match_osm_id": null, "geo_anchor_id": "79688334B45086844065391", "geo_anchor_name": "Sindhupalchok"}, "geometry": {"type": "Point", "coordinates": [85.72157873296592, 27.889285609515667]}}, {"type": "Feature", "properties": {"record_id": "d5c98566b05dc99f", "table": "hazard_watch", "location_raw": "Trishuli River banks, up to Mugling", "location_ne": "", "admin_level": "district", "district": "", "province": "Bagmati", "geo_basis": "text_explicit", "as_of": "2026-08-28", "as_of_basis": "article_date", "first_reported": "2026-08-28", "last_reported": "2026-08-28", "confidence": "medium", "confidence_note": "Spans a long river corridor from Rasuwa downstream to Mugling; district left blank.", "density": "1", "effective_sources": "1", "independent_origins": "1", "origin": "media_own", "origin_note": "single outlet", "corroboration": "single_source", "evidence_quote": "Residents along the banks of the Trishuli River, up to Mugling, have been urged to exercise heightened caution and stay in safe locations until further notice", "evidence_quote_en": "", "temporal_contamination_flag": "False", "hazard": "further_flooding", "action": "warning_issued", "source_outlets": "OnlineKhabar English News", "source_outlet_count": 1, "entity_key": "further_flooding|Trishuli River banks, up to Mugling", "geo_resolution": "province", "geo_statement": "Located to Bagmati province only — the source names no district", "geo_match_name": null, "geo_match_osm_id": null, "geo_anchor_id": "38925275B1624743257395", "geo_anchor_name": "Bagmati"}, "geometry": {"type": "Point", "coordinates": [85.39309228206186, 27.652735693974222]}}, {"type": "Feature", "properties": {"record_id": "82f6028a8a4cf123", "table": "hazard_watch", "location_raw": "Trishuli River, Syabrubesi to Mugling", "location_ne": "", "admin_level": "settlement", "district": "", "province": "Bagmati", "geo_basis": "text_explicit", "as_of": "2026-08-28", "as_of_basis": "stated", "first_reported": "2026-08-28", "last_reported": "2026-08-28", "confidence": "medium", "confidence_note": "Flood Forecasting Division notice names Syabrubesi (Rasuwa) to Mugling span; district left blank as span crosses districts.", "density": "1", "effective_sources": "1", "independent_origins": "1", "origin": "media_own", "origin_note": "single outlet", "corroboration": "single_source", "evidence_quote": "the Bhotekoshi flood has reached Syabrubesi.\nHigh alert issued for downstream areas in Bhotekoshi, Trishuli...\nAs the flood continues to rise, the Division has urged people living along the Trishuli River to remain on high alert up to Mugling.", "evidence_quote_en": "", "temporal_contamination_flag": "", "hazard": "further_flooding", "action": "warning_issued", "source_outlets": "myRepublica", "source_outlet_count": 1, "entity_key": "further_flooding|Trishuli River, Syabrubesi to Mugling", "geo_resolution": "province", "geo_statement": "Located to Bagmati province only — the source names no district", "geo_match_name": null, "geo_match_osm_id": null, "geo_anchor_id": "38925275B1624743257395", "geo_anchor_name": "Bagmati"}, "geometry": {"type": "Point", "coordinates": [85.39309228206186, 27.652735693974222]}}, {"type": "Feature", "properties": {"record_id": "28597107a6c45f9b", "table": "hazard_watch", "location_raw": "भोटेकोशी, त्रिशूली र नारायणी नदी किनार", "location_ne": "", "admin_level": "district", "district": "", "province": "", "geo_basis": "text_explicit", "as_of": "2026-08-28", "as_of_basis": "article_date", "first_reported": "2026-08-28", "last_reported": "2026-08-28", "confidence": "medium", "confidence_note": "Warning issued by Nepal Police and NDRRMA flood forecasting division spans multiple districts (Rasuwa, Nuwakot named as high-alert; Dhading, Gorkha, Chitwan, Nawalparasi also on rescue-team alert) so a single district field is left blank.", "density": "1", "effective_sources": "1", "independent_origins": "1", "origin": "media_own", "origin_note": "single outlet", "corroboration": "single_source", "evidence_quote": "तिब्बत की तरफ बने एक बांध के टूटने की खबरों के बाद यह अलर्ट जारी किया गया है.", "evidence_quote_en": "This alert was issued after reports that a dam formed on the Tibet side had broken, raising fresh flood risk in the Bhotekoshi river; people living along the Bhotekoshi, Trishuli and Narayani rivers have been told to take special precaution, and Rasuwa and Nuwakot are on high alert.", "temporal_contamination_flag": "", "hazard": "landslide_dam", "action": "warning_issued", "source_outlets": "Aaj Tak News", "source_outlet_count": 1, "entity_key": "landslide_dam|भोटेकोशी, त्रिशूली र नारायणी नदी किनार", "geo_resolution": "district", "geo_statement": "District recovered as Sindhupalchok by locating \"भोटेकोशी\"; anchored to the district, not the site", "geo_match_name": null, "geo_match_osm_id": null, "geo_anchor_id": "79688334B45086844065391", "geo_anchor_name": "Sindhupalchok"}, "geometry": {"type": "Point", "coordinates": [85.72157873296592, 27.889285609515667]}}, {"type": "Feature", "properties": {"record_id": "717b4e8b2da3bff0", "table": "hazard_watch", "location_raw": "Chitwan", "location_ne": "", "admin_level": "district", "district": "Chitwan", "province": "Bagmati", "geo_basis": "text_explicit", "as_of": "2026-08-27", "as_of_basis": "stated", "first_reported": "2026-08-28", "last_reported": "2026-08-28", "confidence": "high", "confidence_note": "District explicitly named in flood-alert list.", "density": "3", "effective_sources": "3", "independent_origins": "3", "origin": "unattributed", "origin_note": "3 outlets, no reporting body named; independence not established", "corroboration": "independent", "evidence_quote": "5 districts under flood alert: Rasuwa, Nuwakot, Dhading, Gorkha and Chitwan", "evidence_quote_en": "", "temporal_contamination_flag": "", "hazard": "further_flooding", "action": "warning_issued", "source_outlets": "myRepublica; Direct Relief; srpske.rs", "source_outlet_count": 3, "entity_key": "further_flooding|Chitwan", "geo_resolution": "district", "geo_statement": "Located to Chitawan district only", "geo_match_name": null, "geo_match_osm_id": null, "geo_anchor_id": "79688334B4548911343314", "geo_anchor_name": "Chitawan"}, "geometry": {"type": "Point", "coordinates": [84.44753493868009, 27.652526088822412]}}, {"type": "Feature", "properties": {"record_id": "a6ebe973bd7ac63e", "table": "hazard_watch", "location_raw": "Galchhi", "location_ne": "", "admin_level": "settlement", "district": "Dhading", "province": "Bagmati", "geo_basis": "text_explicit", "as_of": "2026-08-26", "as_of_basis": "inferred_from_text", "first_reported": "2026-08-28", "last_reported": "2026-08-28", "confidence": "medium", "confidence_note": "ICIMOD-sourced surge measurement at named settlement Galchhi; recorded here as evidence of extreme/rapid flooding severity rather than a forward-looking warning.", "density": "1", "effective_sources": "1", "independent_origins": "1", "origin": "media_own", "origin_note": "single outlet", "corroboration": "single_source", "evidence_quote": "water levels on the river at the Galchhi area downstream reportedly rose by as much as nine metres (30 feet) within 30 minutes", "evidence_quote_en": "", "temporal_contamination_flag": "", "hazard": "further_flooding", "action": "none", "source_outlets": "The Business Standard", "source_outlet_count": 1, "entity_key": "further_flooding|Dhading", "geo_resolution": "point", "geo_statement": "Matched \"Galchhi\" to a named OSM place in Dhading", "geo_match_name": "गल्छी", "geo_match_osm_id": "node/279374592", "geo_anchor_id": null, "geo_anchor_name": null}, "geometry": {"type": "Point", "coordinates": [85.0004606, 27.7973963]}}, {"type": "Feature", "properties": {"record_id": "9ba6d5b36be24e0f", "table": "hazard_watch", "location_raw": "Dhading", "location_ne": "", "admin_level": "district", "district": "Dhading", "province": "Bagmati", "geo_basis": "text_explicit", "as_of": "2026-08-27", "as_of_basis": "stated", "first_reported": "2026-08-28", "last_reported": "2026-08-28", "confidence": "high", "confidence_note": "District explicitly named in flood-alert list.", "density": "3", "effective_sources": "3", "independent_origins": "3", "origin": "unattributed", "origin_note": "3 outlets, no reporting body named; independence not established", "corroboration": "independent", "evidence_quote": "5 districts under flood alert: Rasuwa, Nuwakot, Dhading, Gorkha and Chitwan", "evidence_quote_en": "", "temporal_contamination_flag": "", "hazard": "further_flooding", "action": "warning_issued", "source_outlets": "myRepublica; Direct Relief; srpske.rs", "source_outlet_count": 3, "entity_key": "further_flooding|Dhading", "geo_resolution": "district", "geo_statement": "Located to Dhading district only", "geo_match_name": null, "geo_match_osm_id": null, "geo_anchor_id": "79688334B79703604543181", "geo_anchor_name": "Dhading"}, "geometry": {"type": "Point", "coordinates": [84.87763638110704, 28.025043976557015]}}, {"type": "Feature", "properties": {"record_id": "f851cd80c1d63ec2", "table": "hazard_watch", "location_raw": "धडिंग जिला", "location_ne": "", "admin_level": "district", "district": "Dhading", "province": "Bagmati", "geo_basis": "text_explicit", "as_of": "2026-08-28", "as_of_basis": "inferred_from_text", "first_reported": "2026-08-28", "last_reported": "2026-08-28", "confidence": "high", "confidence_note": "District explicitly named; Nepal Police, special forces and APF vacated homes/shops in Dhading district after fresh lake-break alert; date inferred from \"शुक्रवार\" (Friday) elsewhere in article.", "density": "1", "effective_sources": "1", "independent_origins": "1", "origin": "media_own", "origin_note": "single outlet", "corroboration": "single_source", "evidence_quote": "नेपाल के धडिंग जिले पुलिस, स्पेशल फोर्सेज और एपीएफ के लोगों में सबके मकान दुकान खाली करा दिए हैं.", "evidence_quote_en": "", "temporal_contamination_flag": "False", "hazard": "barrier_lake", "action": "evacuation_ordered", "source_outlets": "ndtv.in", "source_outlet_count": 1, "entity_key": "barrier_lake|Dhading", "geo_resolution": "district", "geo_statement": "Located to Dhading district only", "geo_match_name": null, "geo_match_osm_id": null, "geo_anchor_id": "79688334B79703604543181", "geo_anchor_name": "Dhading"}, "geometry": {"type": "Point", "coordinates": [84.87763638110704, 28.025043976557015]}}, {"type": "Feature", "properties": {"record_id": "8b8c654dbdd7d7ad", "table": "hazard_watch", "location_raw": "Gorkha", "location_ne": "", "admin_level": "district", "district": "Gorkha", "province": "Gandaki", "geo_basis": "text_explicit", "as_of": "2026-08-27", "as_of_basis": "stated", "first_reported": "2026-08-28", "last_reported": "2026-08-28", "confidence": "high", "confidence_note": "District explicitly named in flood-alert list.", "density": "2", "effective_sources": "2", "independent_origins": "2", "origin": "unattributed", "origin_note": "2 outlets, no reporting body named; independence not established", "corroboration": "independent", "evidence_quote": "5 districts under flood alert: Rasuwa, Nuwakot, Dhading, Gorkha and Chitwan", "evidence_quote_en": "", "temporal_contamination_flag": "", "hazard": "further_flooding", "action": "warning_issued", "source_outlets": "Direct Relief; srpske.rs", "source_outlet_count": 2, "entity_key": "further_flooding|Gorkha", "geo_resolution": "district", "geo_statement": "Located to Gorkha district only", "geo_match_name": null, "geo_match_osm_id": null, "geo_anchor_id": "79688334B93802880856426", "geo_anchor_name": "Gorkha"}, "geometry": {"type": "Point", "coordinates": [84.81454945836937, 28.29653345281497]}}, {"type": "Feature", "properties": {"record_id": "865283e3a1751b49", "table": "hazard_watch", "location_raw": "Nuwakot", "location_ne": "", "admin_level": "district", "district": "Nuwakot", "province": "Bagmati", "geo_basis": "text_explicit", "as_of": "2026-08-27", "as_of_basis": "stated", "first_reported": "2026-08-28", "last_reported": "2026-08-28", "confidence": "high", "confidence_note": "District explicitly named in flood-alert list.", "density": "6", "effective_sources": "6", "independent_origins": "6", "origin": "unattributed", "origin_note": "6 outlets, no reporting body named; independence not established", "corroboration": "independent", "evidence_quote": "5 districts under flood alert: Rasuwa, Nuwakot, Dhading, Gorkha and Chitwan", "evidence_quote_en": "", "temporal_contamination_flag": "", "hazard": "further_flooding", "action": "warning_issued", "source_outlets": "myRepublica; Direct Relief; srpske.rs; Arab News; Yahoo News Australia; Arghakhanchi", "source_outlet_count": 6, "entity_key": "further_flooding|Nuwakot", "geo_resolution": "district", "geo_statement": "Located to Nuwakot district only", "geo_match_name": null, "geo_match_osm_id": null, "geo_anchor_id": "79688334B17077666187877", "geo_anchor_name": "Nuwakot"}, "geometry": {"type": "Point", "coordinates": [85.20729652963067, 27.936643231647253]}}, {"type": "Feature", "properties": {"record_id": "0eee0a55ceb611a3", "table": "hazard_watch", "location_raw": "Devighat area (Bhotekoshi River)", "location_ne": "", "admin_level": "settlement", "district": "Nuwakot", "province": "Bagmati", "geo_basis": "text_adjacent", "as_of": "2026-08-27", "as_of_basis": "stated", "first_reported": "2026-08-28", "last_reported": "2026-08-28", "confidence": "medium", "confidence_note": "Location anchored via photo caption naming Devighat area, Nuwakot, dated August 27, 2026.", "density": "1", "effective_sources": "1", "independent_origins": "1", "origin": "media_own", "origin_note": "single outlet", "corroboration": "single_source", "evidence_quote": "Debris from an ice-rock avalanche has created a temporary dam at a river confluence in Nepal, raising the risk of a secondary flash flood.", "evidence_quote_en": "", "temporal_contamination_flag": "False", "hazard": "landslide_dam", "action": "monitoring", "source_outlets": "Rediff", "source_outlet_count": 1, "entity_key": "landslide_dam|Nuwakot", "geo_resolution": "district", "geo_statement": "Located to Nuwakot district only — the source names a place we could not resolve", "geo_match_name": null, "geo_match_osm_id": null, "geo_anchor_id": "79688334B17077666187877", "geo_anchor_name": "Nuwakot"}, "geometry": {"type": "Point", "coordinates": [85.20729652963067, 27.936643231647253]}}, {"type": "Feature", "properties": {"record_id": "30982793942e554e", "table": "hazard_watch", "location_raw": "विदुर, नुवाकोट", "location_ne": "", "admin_level": "municipality", "district": "Nuwakot", "province": "Bagmati", "geo_basis": "text_explicit", "as_of": "2026-08-28", "as_of_basis": "stated", "first_reported": "2026-08-28", "last_reported": "2026-08-28", "confidence": "high", "confidence_note": "Police loudspeaker warning explicitly located in Bidur, Nuwakot.", "density": "1", "effective_sources": "1", "independent_origins": "1", "origin": "media_own", "origin_note": "single outlet", "corroboration": "single_source", "evidence_quote": "“फेरि बाढी आएको सूचना आएको छ । नदीनजिक नजानुहोला, अग्लो सुरक्षित स्थानतर्फ बस्नुहोला,” प्रहरीले नुवाकोटको विदुरमा माइकिङ गर्दै भनेको छ ।", "evidence_quote_en": "", "temporal_contamination_flag": "False", "hazard": "further_flooding", "action": "warning_issued", "source_outlets": "Baahrakhari", "source_outlet_count": 1, "entity_key": "further_flooding|Nuwakot", "geo_resolution": "point", "geo_statement": "Matched \"नुवाकोट\" to a named OSM place in Nuwakot", "geo_match_name": "नुवाकोट", "geo_match_osm_id": "node/3488022930", "geo_anchor_id": null, "geo_anchor_name": null}, "geometry": {"type": "Point", "coordinates": [85.1647073, 27.9151007]}}, {"type": "Feature", "properties": {"record_id": "80666c0664977471", "table": "hazard_watch", "location_raw": "Trishuli area", "location_ne": "", "admin_level": "settlement", "district": "Nuwakot", "province": "Bagmati", "geo_basis": "text_explicit", "as_of": "2026-08-28", "as_of_basis": "stated", "first_reported": "2026-08-28", "last_reported": "2026-08-28", "confidence": "high", "confidence_note": "Explicit evacuation of the Trishuli area, attributed to Nepal Police.", "density": "2", "effective_sources": "2", "independent_origins": "2", "origin": "unattributed", "origin_note": "2 outlets, no reporting body named; independence not established", "corroboration": "independent", "evidence_quote": "People in the Trishuli area of Nepal were evacuated again as a heavy flow of water from above has threatened to raise the river's water level, Nepal Police stated after an earthquake of magnitude 5.1 jolted Longchang City in southwest China's Sichuan Province.", "evidence_quote_en": "", "temporal_contamination_flag": "False", "hazard": "barrier_lake", "action": "evacuation_ordered", "source_outlets": "The Tribune; The Sunday Guardian", "source_outlet_count": 2, "entity_key": "barrier_lake|Nuwakot", "geo_resolution": "district", "geo_statement": "Located to Nuwakot district only — the source names a place we could not resolve", "geo_match_name": null, "geo_match_osm_id": null, "geo_anchor_id": "79688334B17077666187877", "geo_anchor_name": "Nuwakot"}, "geometry": {"type": "Point", "coordinates": [85.20729652963067, 27.936643231647253]}}, {"type": "Feature", "properties": {"record_id": "3b16d9517098e158", "table": "hazard_watch", "location_raw": "Bidur", "location_ne": "", "admin_level": "municipality", "district": "Nuwakot", "province": "Bagmati", "geo_basis": "text_explicit", "as_of": "2026-08-28", "as_of_basis": "stated", "first_reported": "2026-08-28", "last_reported": "2026-08-28", "confidence": "high", "confidence_note": "Article explicitly names Bidur, Nuwakot district, Bagmati province.", "density": "1", "effective_sources": "1", "independent_origins": "1", "origin": "media_own", "origin_note": "single outlet", "corroboration": "single_source", "evidence_quote": "Rescue efforts in Bidur, the capital of Nuwakot district in Bagmati province, Nepal, were disrupted on Friday morning as the Trishuli River began to rise again after the lake near the China border burst its banks", "evidence_quote_en": "", "temporal_contamination_flag": "", "hazard": "further_flooding", "action": "none", "source_outlets": "Irish Examiner", "source_outlet_count": 1, "entity_key": "further_flooding|Nuwakot", "geo_resolution": "point", "geo_statement": "Matched \"Bidur\" to a named OSM place in Nuwakot", "geo_match_name": "बिदुर", "geo_match_osm_id": "node/3499801960", "geo_anchor_id": null, "geo_anchor_name": null}, "geometry": {"type": "Point", "coordinates": [85.146446, 27.89526]}}, {"type": "Feature", "properties": {"record_id": "0c9c302960ac6fbf", "table": "hazard_watch", "location_raw": "Trishuli", "location_ne": "", "admin_level": "municipality", "district": "Nuwakot", "province": "Bagmati", "geo_basis": "text_explicit", "as_of": "2026-08-28", "as_of_basis": "article_date", "first_reported": "2026-08-28", "last_reported": "2026-08-28", "confidence": "high", "confidence_note": "Trishuli is in Nuwakot district; evacuation explicitly stated.", "density": "1", "effective_sources": "1", "independent_origins": "1", "origin": "media_own", "origin_note": "single outlet", "corroboration": "single_source", "evidence_quote": "Nepal Police issued a new flood alert and evacuated people from Trishuli after a dam in Tibet burst, triggered by an earthquake in China.", "evidence_quote_en": "", "temporal_contamination_flag": "", "hazard": "barrier_lake", "action": "evacuation_ordered", "source_outlets": "Asianet Newsable", "source_outlet_count": 1, "entity_key": "barrier_lake|Nuwakot", "geo_resolution": "district", "geo_statement": "Located to Nuwakot district only — the source names a place we could not resolve", "geo_match_name": null, "geo_match_osm_id": null, "geo_anchor_id": "79688334B17077666187877", "geo_anchor_name": "Nuwakot"}, "geometry": {"type": "Point", "coordinates": [85.20729652963067, 27.936643231647253]}}, {"type": "Feature", "properties": {"record_id": "5078d9460a765746", "table": "hazard_watch", "location_raw": "धुंडे बाजार (Dhunge Bazaar)", "location_ne": "", "admin_level": "settlement", "district": "Nuwakot", "province": "Bagmati", "geo_basis": "text_explicit", "as_of": "2026-08-28", "as_of_basis": "article_date", "first_reported": "2026-08-28", "last_reported": "2026-08-28", "confidence": "high", "confidence_note": "Police-ordered evacuation warning for Dhunge Bazaar and surrounding areas in Nuwakot.", "density": "1", "effective_sources": "1", "independent_origins": "1", "origin": "media_own", "origin_note": "single outlet", "corroboration": "single_source", "evidence_quote": "धुंडे बाजार और आसपास के इलाकों में पुलिस ने लोगों को तुरंत सुरक्षित जगहों पर जाने की चेतावनी दी है.", "evidence_quote_en": "", "temporal_contamination_flag": "False", "hazard": "further_flooding", "action": "evacuation_ordered", "source_outlets": "Aaj Tak News", "source_outlet_count": 1, "entity_key": "further_flooding|Nuwakot", "geo_resolution": "district", "geo_statement": "Located to Nuwakot district only — the source names a place we could not resolve", "geo_match_name": null, "geo_match_osm_id": null, "geo_anchor_id": "79688334B17077666187877", "geo_anchor_name": "Nuwakot"}, "geometry": {"type": "Point", "coordinates": [85.20729652963067, 27.936643231647253]}}, {"type": "Feature", "properties": {"record_id": "aa6be0e9196266a3", "table": "hazard_watch", "location_raw": "Trishuli area", "location_ne": "", "admin_level": "district", "district": "Nuwakot", "province": "Bagmati", "geo_basis": "text_adjacent", "as_of": "2026-08-28", "as_of_basis": "stated", "first_reported": "2026-08-29", "last_reported": "2026-08-29", "confidence": "medium", "confidence_note": "Trishuli area loosely mapped to Nuwakot district.", "density": "3", "effective_sources": "3", "independent_origins": "3", "origin": "unattributed", "origin_note": "3 outlets, no reporting body named; independence not established", "corroboration": "independent", "evidence_quote": "Nepal Police issued a fresh flood alert for the Trishuli area on Friday, prompting authorities to evacuate residents and halt rescue and roadwork operations in vulnerable locations.", "evidence_quote_en": "", "temporal_contamination_flag": "", "hazard": "further_flooding", "action": "evacuation_ordered", "source_outlets": "The Tribune; Asianet Newsable; Pragativadi", "source_outlet_count": 3, "entity_key": "further_flooding|Nuwakot", "geo_resolution": "district", "geo_statement": "Located to Nuwakot district only", "geo_match_name": null, "geo_match_osm_id": null, "geo_anchor_id": "79688334B17077666187877", "geo_anchor_name": "Nuwakot"}, "geometry": {"type": "Point", "coordinates": [85.20729652963067, 27.936643231647253]}}, {"type": "Feature", "properties": {"record_id": "30f491b62dd83e1d", "table": "hazard_watch", "location_raw": "Trishuli River at Betrawati, Nuwakot", "location_ne": "", "admin_level": "settlement", "district": "Nuwakot", "province": "Bagmati", "geo_basis": "text_explicit", "as_of": "2026-08-29", "as_of_basis": "stated", "first_reported": "2026-08-29", "last_reported": "2026-08-29", "confidence": "high", "confidence_note": "Named settlement (Betrawati) and 3-day forecast window.", "density": "1", "effective_sources": "1", "independent_origins": "1", "origin": "media_own", "origin_note": "single outlet", "corroboration": "single_source", "evidence_quote": "पूर्वानुमान तालिकाअनुसार बेत्रावतीस्थित त्रिशूली नदीमा आगामी तीन दिनसम्म बहाव उल्लेख्य बढ्ने भन्दै पविशेष सतर्कता सङ्केत गरिएको छ", "evidence_quote_en": "Per the forecast table, special alert has been signalled for the Trishuli River at Betrawati, where flow is expected to rise significantly over the next three days.", "temporal_contamination_flag": "", "hazard": "further_flooding", "action": "warning_issued", "source_outlets": "Ratopati", "source_outlet_count": 1, "entity_key": "further_flooding|Nuwakot", "geo_resolution": "district", "geo_statement": "Located to Nuwakot district only — the source names a place we could not resolve", "geo_match_name": null, "geo_match_osm_id": null, "geo_anchor_id": "79688334B17077666187877", "geo_anchor_name": "Nuwakot"}, "geometry": {"type": "Point", "coordinates": [85.20729652963067, 27.936643231647253]}}, {"type": "Feature", "properties": {"record_id": "af4304216738bb77", "table": "hazard_watch", "location_raw": "रसुवा (Rasuwa, China-side rain forecast)", "location_ne": "", "admin_level": "district", "district": "Rasuwa", "province": "Bagmati", "geo_basis": "text_explicit", "as_of": "2026-08-27", "as_of_basis": "inferred_from_text", "first_reported": "2026-08-28", "last_reported": "2026-08-29", "confidence": "medium", "confidence_note": "Rasuwa CDO statement (name omitted).", "density": "5", "effective_sources": "5", "independent_origins": "5", "origin": "unattributed", "origin_note": "5 outlets, no reporting body named; independence not established", "corroboration": "independent", "evidence_quote": "चीनतर्फबाट तीन दिन ठूलो पानी पर्ने सूचना बिहीबार नै गराएको उनले बताए ।", "evidence_quote_en": "He said information was received as early as Thursday that heavy rain would fall for three days from the China side.", "temporal_contamination_flag": "", "hazard": "further_flooding", "action": "monitoring", "source_outlets": "DT Next; International Business Times Australia; Baahrakhari; Helsinki Times; The Rising Nepal", "source_outlet_count": 5, "entity_key": "further_flooding|Rasuwa", "geo_resolution": "district", "geo_statement": "Located to Rasuwa district only", "geo_match_name": null, "geo_match_osm_id": null, "geo_anchor_id": "79688334B50883418539268", "geo_anchor_name": "Rasuwa"}, "geometry": {"type": "Point", "coordinates": [85.43275923020244, 28.17010993431697]}}, {"type": "Feature", "properties": {"record_id": "4f384859e3b2dfc9", "table": "hazard_watch", "location_raw": "Rasuwa district", "location_ne": "", "admin_level": "district", "district": "Rasuwa", "province": "Bagmati", "geo_basis": "text_explicit", "as_of": "2026-08-28", "as_of_basis": "stated", "first_reported": "2026-08-28", "last_reported": "2026-08-29", "confidence": "high", "confidence_note": "Nepal Police alert quoted directly for Rasuwa.", "density": "64", "effective_sources": "56", "independent_origins": "56", "origin": "unattributed", "origin_note": "56 outlets, no reporting body named; independence not established", "corroboration": "independent", "evidence_quote": "Water reservoir on the Tibet side has burst again... As information has been received that the water level on the Tibet side has risen again, all security personnel, rescue workers and members of the public involved in rescue and relief operations are requested to remain alert immediately and move toward/notify people about a safe location,\" the police force said in the alert.", "evidence_quote_en": "", "temporal_contamination_flag": "", "hazard": "barrier_lake", "action": "warning_issued", "source_outlets": "The Statesman; The Hindu; Arab News; Kashmir Life; The Straits Times; The Daily Star; The Economic Times; The Indian Express; BusinessLine; Tuoi Tre News | The News Gateway to Vietnam; Moneycontrol Hindi; Amar Ujala; nayaindia.com; Yahoo News UK; The Business Standard; srpske.rs; DT Next; The Tribune; The Guardian; newsdrum.in; tabla.com.sg; daily-sun.com; Hindusthan Samachar English; OnlineKhabar English News; inkl; TRT World; Yahoo; 아시아경제; news24online.com; RTE.ie; Onlinekhabar; ImageKhabar; Baahrakhari; News.com.au; The Federal; NDTV; Hindustan; Sarkaritel.com; TechnoSports Media Group; India Today; BBC; Mathrubhumi English; Business Standard; UA.NEWS; Khabarhub; Nepal News; The Daily Jagran; NepalNews; Nine.com.au; India's News.Net; The Times of India; Ratopati; Arghakhanchi", "source_outlet_count": 64, "entity_key": "barrier_lake|Rasuwa", "geo_resolution": "district", "geo_statement": "Located to Rasuwa district only", "geo_match_name": null, "geo_match_osm_id": null, "geo_anchor_id": "79688334B50883418539268", "geo_anchor_name": "Rasuwa"}, "geometry": {"type": "Point", "coordinates": [85.43275923020244, 28.17010993431697]}}, {"type": "Feature", "properties": {"record_id": "617e6929edab0ecd", "table": "hazard_watch", "location_raw": "Rasuwa district", "location_ne": "", "admin_level": "district", "district": "Rasuwa", "province": "Bagmati", "geo_basis": "text_explicit", "as_of": "2026-08-28", "as_of_basis": "stated", "first_reported": "2026-08-28", "last_reported": "2026-08-29", "confidence": "high", "confidence_note": "Quoting Rasuwa CDO Narendra Pariyar via Al Jazeera.", "density": "35", "effective_sources": "33", "independent_origins": "33", "origin": "unattributed", "origin_note": "33 outlets, no reporting body named; independence not established", "corroboration": "independent", "evidence_quote": "Al Jazeera said officials in Nepal’s Rasuwa district were notified that the barrier lake had begun to overflow, and it quoted Narendra Pariyar saying, \"We can see that the level of water in the river is rising.\"", "evidence_quote_en": "", "temporal_contamination_flag": "", "hazard": "barrier_lake", "action": "monitoring", "source_outlets": "bhaskardigital.com; The Business Standard; malaysiasun.com; TRT World; Irish Examiner; Yahoo; Latest news from Azerbaijan; USA Today; Telangana Today; Aaj Tak News; WCCB Charlotte; Onlinekhabar; ImageKhabar; Nepali Times; Zee News; ArcGIS StoryMaps; The Kathmandu Post; The Assam Tribune; BBC; Mathrubhumi English; Vatican News; NewsCord; Helsinki Times; The Independent; Business Standard; Firstpost; India Today; Khabarhub; Nepal News; NepalNews; Open Magazine; The Rising Nepal", "source_outlet_count": 35, "entity_key": "barrier_lake|Rasuwa", "geo_resolution": "district", "geo_statement": "Located to Rasuwa district only", "geo_match_name": null, "geo_match_osm_id": null, "geo_anchor_id": "79688334B50883418539268", "geo_anchor_name": "Rasuwa"}, "geometry": {"type": "Point", "coordinates": [85.43275923020244, 28.17010993431697]}}, {"type": "Feature", "properties": {"record_id": "5a2c98f480c4cbcf", "table": "hazard_watch", "location_raw": "गोसाइँकुण्ड, रसुवा", "location_ne": "", "admin_level": "rural_municipality", "district": "Rasuwa", "province": "Bagmati", "geo_basis": "text_explicit", "as_of": "2026-08-28", "as_of_basis": "stated", "first_reported": "2026-08-28", "last_reported": "2026-08-28", "confidence": "high", "confidence_note": "Rasuwa is currently flood-affected; further rain on weakened terrain raises renewed risk.", "density": "1", "effective_sources": "1", "independent_origins": "1", "origin": "media_own", "origin_note": "single outlet", "corroboration": "single_source", "evidence_quote": "शुक्रबार रसुवाको गोसाइँकुण्ड क्षेत्रमा दिउँसो धेरै ठाउँमा अपराह्नदेखि मध्यम वर्षा हुने तथा राति केही ठाउँमा मध्यम र एक–दुई ठाउँमा भारी वर्षा हुनसक्ने सम्भावना छ।", "evidence_quote_en": "", "temporal_contamination_flag": "False", "hazard": "further_flooding", "action": "warning_issued", "source_outlets": "Arghakhanchi", "source_outlet_count": 1, "entity_key": "further_flooding|Rasuwa", "geo_resolution": "point", "geo_statement": "Matched \"गोसाइँकुण्ड\" to a named OSM place in Rasuwa", "geo_match_name": "गोसाइँकुण्ड", "geo_match_osm_id": "node/13242877445", "geo_anchor_id": null, "geo_anchor_name": null}, "geometry": {"type": "Point", "coordinates": [85.298525, 28.110361]}}, {"type": "Feature", "properties": {"record_id": "514722a9fa8936a3", "table": "hazard_watch", "location_raw": "Rasuwagadhi checkpoint", "location_ne": "", "admin_level": "settlement", "district": "Rasuwa", "province": "Bagmati", "geo_basis": "text_explicit", "as_of": "2026-08-28", "as_of_basis": "article_date", "first_reported": "2026-08-28", "last_reported": "2026-08-28", "confidence": "medium", "confidence_note": "NDRRMA post on X, exact post date not given in passage.", "density": "1", "effective_sources": "1", "independent_origins": "1", "origin": "media_own", "origin_note": "single outlet", "corroboration": "single_source", "evidence_quote": "A lake had formed roughly 18 kilometers above the Rasuwagadhi checkpoint at the Nepal-China border as the flow of the Lhende Khola River has been obstructed, according to the Nepal National Disaster Risk Reduction and Management Authority. “The risk still remains that the natural dam of that lake could burst and cause another major flood,” the agency wrote in a post on X.", "evidence_quote_en": "", "temporal_contamination_flag": "False", "hazard": "barrier_lake", "action": "warning_issued", "source_outlets": "The Korea Herald", "source_outlet_count": 1, "entity_key": "barrier_lake|Rasuwa", "geo_resolution": "district", "geo_statement": "Located to Rasuwa district only — the source names a place we could not resolve", "geo_match_name": null, "geo_match_osm_id": null, "geo_anchor_id": "79688334B50883418539268", "geo_anchor_name": "Rasuwa"}, "geometry": {"type": "Point", "coordinates": [85.43275923020244, 28.17010993431697]}}, {"type": "Feature", "properties": {"record_id": "823f3539d1059d56", "table": "hazard_watch", "location_raw": "रसुवागढ़ी सीमा से करीब 18 किलोमीटर ऊपर ल्हेंदे नदी", "location_ne": "", "admin_level": "district", "district": "Rasuwa", "province": "Bagmati", "geo_basis": "text_explicit", "as_of": "2026-08-28", "as_of_basis": "article_date", "first_reported": "2026-08-28", "last_reported": "2026-08-28", "confidence": "medium", "confidence_note": "Passage describes risk of a new barrier lake but does not state any specific action taken in this article's text.", "density": "1", "effective_sources": "1", "independent_origins": "1", "origin": "media_own", "origin_note": "single outlet", "corroboration": "single_source", "evidence_quote": "चीन के मुताबिक रसुवागढ़ी सीमा से करीब 18 किलोमीटर ऊपर ल्हेंदे नदी में एक नई बैरियर झील बनी है", "evidence_quote_en": "", "temporal_contamination_flag": "", "hazard": "barrier_lake", "action": "none", "source_outlets": "peoplesupdate.com", "source_outlet_count": 1, "entity_key": "barrier_lake|Rasuwa", "geo_resolution": "district", "geo_statement": "Located to Rasuwa district only", "geo_match_name": null, "geo_match_osm_id": null, "geo_anchor_id": "79688334B50883418539268", "geo_anchor_name": "Rasuwa"}, "geometry": {"type": "Point", "coordinates": [85.43275923020244, 28.17010993431697]}}, {"type": "Feature", "properties": {"record_id": "cfb92f9ad6dc0f25", "table": "hazard_watch", "location_raw": "Rasuwa district", "location_ne": "", "admin_level": "district", "district": "Rasuwa", "province": "Bagmati", "geo_basis": "text_explicit", "as_of": "2026-08-28", "as_of_basis": "stated", "first_reported": "2026-08-28", "last_reported": "2026-08-28", "confidence": "medium", "confidence_note": "Residents self-evacuated uphill rather than a formal evacuation order, but no closer enum value exists.", "density": "4", "effective_sources": "4", "independent_origins": "4", "origin": "unattributed", "origin_note": "4 outlets, no reporting body named; independence not established", "corroboration": "independent", "evidence_quote": "Residents in Nepal’s Rasuwa district, on the border with Tibet, were seen rushing up hillsides on Friday to escape a possible surge in the river, according to witnesses", "evidence_quote_en": "", "temporal_contamination_flag": "", "hazard": "further_flooding", "action": "evacuation_ordered", "source_outlets": "The Guardian; Irish Examiner; The Kathmandu Post; The Assam Tribune", "source_outlet_count": 4, "entity_key": "further_flooding|Rasuwa", "geo_resolution": "district", "geo_statement": "Located to Rasuwa district only", "geo_match_name": null, "geo_match_osm_id": null, "geo_anchor_id": "79688334B50883418539268", "geo_anchor_name": "Rasuwa"}, "geometry": {"type": "Point", "coordinates": [85.43275923020244, 28.17010993431697]}}, {"type": "Feature", "properties": {"record_id": "474571169c5b27fb", "table": "hazard_watch", "location_raw": "Nepal-Tibet border area (Rasuwa)", "location_ne": "", "admin_level": "district", "district": "Rasuwa", "province": "Bagmati", "geo_basis": "text_adjacent", "as_of": "2026-08-28", "as_of_basis": "stated", "first_reported": "2026-08-28", "last_reported": "2026-08-28", "confidence": "medium", "confidence_note": "Nepal Police alert warns rescue/security personnel near the Nepal-Tibet border (Rasuwa) to move to safer ground; formation itself is on Tibetan side but the warning and threatened personnel are in Nepal.", "density": "3", "effective_sources": "3", "independent_origins": "3", "origin": "unattributed", "origin_note": "3 outlets, no reporting body named; independence not established", "corroboration": "independent", "evidence_quote": "Nepal Police issued a fresh alert Friday after receiving reports that a separate dam-like formation on the Tibetan side of the border was beginning to overflow. Rescue and security personnel were told to remain on high alert and to move to safer ground if conditions worsened", "evidence_quote_en": "", "temporal_contamination_flag": "", "hazard": "landslide_dam", "action": "warning_issued", "source_outlets": "International Business Times Australia; Latest news from Azerbaijan; Business Today", "source_outlet_count": 3, "entity_key": "landslide_dam|Rasuwa", "geo_resolution": "district", "geo_statement": "Located to Rasuwa district only", "geo_match_name": null, "geo_match_osm_id": null, "geo_anchor_id": "79688334B50883418539268", "geo_anchor_name": "Rasuwa"}, "geometry": {"type": "Point", "coordinates": [85.43275923020244, 28.17010993431697]}}, {"type": "Feature", "properties": {"record_id": "19013eb19935f554", "table": "hazard_watch", "location_raw": "Nepal-Tibet border area (Rasuwa)", "location_ne": "", "admin_level": "district", "district": "Rasuwa", "province": "Bagmati", "geo_basis": "text_adjacent", "as_of": "2026-08-28", "as_of_basis": "stated", "first_reported": "2026-08-28", "last_reported": "2026-08-28", "confidence": "medium", "confidence_note": "Dam is on the Tibet side; Nepal Police's safety instruction is directed at personnel and public on the Nepal side, inferred as the Rasuwa border area from surrounding context.", "density": "2", "effective_sources": "2", "independent_origins": "1", "origin": "Nepal_Police", "origin_note": "2 outlets carrying Nepal_Police's figure", "corroboration": "independent", "evidence_quote": "Information has been received that the water dam on the Tibet side has burst again. Therefore, all security personnel, rescue workers involved in rescue and relief operations, and the general public are requested to remain immediately alert and move to safe locations or notify others", "evidence_quote_en": "", "temporal_contamination_flag": "", "hazard": "landslide_dam", "action": "evacuation_ordered", "source_outlets": "The New Indian Express; malaysiasun.com", "source_outlet_count": 2, "entity_key": "landslide_dam|Rasuwa", "geo_resolution": "district", "geo_statement": "Located to Rasuwa district only", "geo_match_name": null, "geo_match_osm_id": null, "geo_anchor_id": "79688334B50883418539268", "geo_anchor_name": "Rasuwa"}, "geometry": {"type": "Point", "coordinates": [85.43275923020244, 28.17010993431697]}}, {"type": "Feature", "properties": {"record_id": "1f4c8f3e2499d5c2", "table": "hazard_watch", "location_raw": "Rasuwa district", "location_ne": "", "admin_level": "district", "district": "Rasuwa", "province": "Bagmati", "geo_basis": "text_explicit", "as_of": "2026-08-28", "as_of_basis": "stated", "first_reported": "2026-08-28", "last_reported": "2026-08-29", "confidence": "high", "confidence_note": "Article names Rasuwa district and gives the exact date (Friday, August 28).", "density": "3", "effective_sources": "3", "independent_origins": "3", "origin": "unattributed", "origin_note": "3 outlets, no reporting body named; independence not established", "corroboration": "independent", "evidence_quote": "A fresh flood alert was issued in Nepal’s flood-hit Rasuwa district on Friday, August 28, after a landslide-dammed lake on the Tibet side of the Nepal-China border began overflowing, raising fears of another sudden surge in the Bhote Koshi and Trishuli rivers. Nepalese authorities temporarily halted rescue operations for about 90 minutes and asked rescuers and residents near riverbanks to move to safer, higher ground", "evidence_quote_en": "", "temporal_contamination_flag": "False", "hazard": "barrier_lake", "action": "evacuation_ordered", "source_outlets": "The Tribune; The Logical Indian; RTE.ie", "source_outlet_count": 3, "entity_key": "barrier_lake|Rasuwa", "geo_resolution": "district", "geo_statement": "Located to Rasuwa district only", "geo_match_name": null, "geo_match_osm_id": null, "geo_anchor_id": "79688334B50883418539268", "geo_anchor_name": "Rasuwa"}, "geometry": {"type": "Point", "coordinates": [85.43275923020244, 28.17010993431697]}}, {"type": "Feature", "properties": {"record_id": "3168b35f8c2f7032", "table": "hazard_watch", "location_raw": "उत्तरगया गाउँपालिका, नदी किनार (riverbank, Uttargaya), रसुवा", "location_ne": "", "admin_level": "rural_municipality", "district": "Rasuwa", "province": "Bagmati", "geo_basis": "text_explicit", "as_of": "2026-08-28", "as_of_basis": "article_date", "first_reported": "2026-08-28", "last_reported": "2026-08-28", "confidence": "medium", "confidence_note": "Single-source account from the rural municipality chair (name omitted); recorded per instructions to be inclusive of hazard reports.", "density": "1", "effective_sources": "1", "independent_origins": "1", "origin": "media_own", "origin_note": "single outlet", "corroboration": "single_source", "evidence_quote": "नदी किनारमा ५० औँको संख्यामा शवहरू सड्न थालेर गाउँ नै दुर्गन्धित बन्दा पनि ‘माथिको आदेश’ नभएको भन्दै शव व्यवस्थापन हुन नसकेको र यसले बस्तीमा ठूलो महामारी फैलिने खतरा बढाएको उनको भनाइ छ।", "evidence_quote_en": "Even as dozens (in the fifties) of bodies have begun decomposing along the riverbank, making the whole village foul-smelling, body management has not been possible for lack of 'orders from above', and this has increased the risk of a major epidemic spreading in the settlement, he says.", "temporal_contamination_flag": "", "hazard": "disease_outbreak", "action": "none", "source_outlets": "Deshsanchar", "source_outlet_count": 1, "entity_key": "disease_outbreak|Rasuwa", "geo_resolution": "point", "geo_statement": "Matched \"Uttargaya\" to a named OSM place in Rasuwa", "geo_match_name": "उत्तरगया", "geo_match_osm_id": "node/13242877440", "geo_anchor_id": null, "geo_anchor_name": null}, "geometry": {"type": "Point", "coordinates": [85.1951685, 28.0116144]}}, {"type": "Feature", "properties": {"record_id": "453b04572721c9c7", "table": "hazard_watch", "location_raw": "तिरु क्षेत्र (Tiru area), उत्तरगया, रसुवा", "location_ne": "", "admin_level": "settlement", "district": "Rasuwa", "province": "Bagmati", "geo_basis": "text_explicit", "as_of": "2026-08-28", "as_of_basis": "article_date", "first_reported": "2026-08-28", "last_reported": "2026-08-28", "confidence": "medium", "confidence_note": "Local chair's appeal identifying landslide risk in Tiru area (name omitted from quote).", "density": "1", "effective_sources": "1", "independent_origins": "1", "origin": "media_own", "origin_note": "single outlet", "corroboration": "single_source", "evidence_quote": "पहिरोको उच्च जोखिममा रहेको तिरु क्षेत्रमा फसेका नागरिक तथा त्रिशुली नदी वारिपारि विच्छेद भएकाहरूको तत्काल उद्धार गर्न र राहत उपलब्ध गराउन", "evidence_quote_en": "...for the immediate rescue and provision of relief to citizens trapped in the Tiru area, which is at high risk of landslide, and those cut off on both sides of the Trishuli river...", "temporal_contamination_flag": "", "hazard": "landslide", "action": "none", "source_outlets": "Deshsanchar", "source_outlet_count": 1, "entity_key": "landslide|Rasuwa", "geo_resolution": "point", "geo_statement": "Matched \"उत्तरगया\" to a named OSM place in Rasuwa", "geo_match_name": "उत्तरगया", "geo_match_osm_id": "node/13242877440", "geo_anchor_id": null, "geo_anchor_name": null}, "geometry": {"type": "Point", "coordinates": [85.1951685, 28.0116144]}}, {"type": "Feature", "properties": {"record_id": "093eff19091de9c9", "table": "hazard_watch", "location_raw": "Lende River, 18km north of Rasuwagadhi", "location_ne": "", "admin_level": "settlement", "district": "Rasuwa", "province": "Bagmati", "geo_basis": "text_explicit", "as_of": "2026-08-28", "as_of_basis": "article_date", "first_reported": "2026-08-28", "last_reported": "2026-08-28", "confidence": "high", "confidence_note": "NDRRMA-verified satellite finding with explicit district/province.", "density": "1", "effective_sources": "1", "independent_origins": "1", "origin": "media_own", "origin_note": "single outlet", "corroboration": "single_source", "evidence_quote": "satellite imagery verified by Nepal's National Disaster Risk Reduction and Management Authority captured the flow of the Lende River blocked 18 kilometers north of the Rasuwagadhi border checkpoint in Bagmati Province", "evidence_quote_en": "", "temporal_contamination_flag": "", "hazard": "barrier_lake", "action": "monitoring", "source_outlets": "news.sbs.co.kr", "source_outlet_count": 1, "entity_key": "barrier_lake|Rasuwa", "geo_resolution": "district", "geo_statement": "Located to Rasuwa district only — the source names a place we could not resolve", "geo_match_name": null, "geo_match_osm_id": null, "geo_anchor_id": "79688334B50883418539268", "geo_anchor_name": "Rasuwa"}, "geometry": {"type": "Point", "coordinates": [85.43275923020244, 28.17010993431697]}}, {"type": "Feature", "properties": {"record_id": "bae5684059897dfa", "table": "hazard_watch", "location_raw": "Syafrubesi, Rasuwa", "location_ne": "", "admin_level": "settlement", "district": "Rasuwa", "province": "Bagmati", "geo_basis": "text_explicit", "as_of": "2026-08-28", "as_of_basis": "article_date", "first_reported": "2026-08-28", "last_reported": "2026-08-28", "confidence": "high", "confidence_note": "Attributed to the Flood Forecasting Division with a precise arrival time.", "density": "1", "effective_sources": "1", "independent_origins": "1", "origin": "media_own", "origin_note": "single outlet", "corroboration": "single_source", "evidence_quote": "the Bhotekoshi River flood arrived in Syafrubesi at 12:31 pm", "evidence_quote_en": "", "temporal_contamination_flag": "False", "hazard": "barrier_lake", "action": "none", "source_outlets": "OnlineKhabar English News", "source_outlet_count": 1, "entity_key": "barrier_lake|Rasuwa", "geo_resolution": "district", "geo_statement": "Located to Rasuwa district only — the source names a place we could not resolve", "geo_match_name": null, "geo_match_osm_id": null, "geo_anchor_id": "79688334B50883418539268", "geo_anchor_name": "Rasuwa"}, "geometry": {"type": "Point", "coordinates": [85.43275923020244, 28.17010993431697]}}, {"type": "Feature", "properties": {"record_id": "1f93bfc1b16025b0", "table": "hazard_watch", "location_raw": "Lhende Khola region, Rasuwa", "location_ne": "", "admin_level": "settlement", "district": "Rasuwa", "province": "Bagmati", "geo_basis": "text_explicit", "as_of": "2026-08-28", "as_of_basis": "article_date", "first_reported": "2026-08-28", "last_reported": "2026-08-28", "confidence": "high", "confidence_note": "Explicitly located in Nepal's Lhende Khola region by satellite analytics firm.", "density": "1", "effective_sources": "1", "independent_origins": "1", "origin": "media_own", "origin_note": "single outlet", "corroboration": "single_source", "evidence_quote": "Space analytics firm Suhora Technologies has said the lake is around 20.25 hectares in size in Nepal's high-altitude Lhende Khola region.", "evidence_quote_en": "", "temporal_contamination_flag": "", "hazard": "barrier_lake", "action": "monitoring", "source_outlets": "Firstpost", "source_outlet_count": 1, "entity_key": "barrier_lake|Rasuwa", "geo_resolution": "district", "geo_statement": "Located to Rasuwa district only — the source names a place we could not resolve", "geo_match_name": null, "geo_match_osm_id": null, "geo_anchor_id": "79688334B50883418539268", "geo_anchor_name": "Rasuwa"}, "geometry": {"type": "Point", "coordinates": [85.43275923020244, 28.17010993431697]}}, {"type": "Feature", "properties": {"record_id": "0ab115bf4699949d", "table": "hazard_watch", "location_raw": "रसुवाको भोटेकोशी बाढी प्रभावित क्षेत्र (Bhotekoshi flood-affected area, Rasuwa)", "location_ne": "", "admin_level": "district", "district": "Rasuwa", "province": "Bagmati", "geo_basis": "text_explicit", "as_of": "2026-08-29", "as_of_basis": "stated", "first_reported": "2026-08-28", "last_reported": "2026-08-29", "confidence": "high", "confidence_note": "DHM meteorologist statement, district explicitly named, dated \"today\".", "density": "21", "effective_sources": "21", "independent_origins": "21", "origin": "unattributed", "origin_note": "21 outlets, no reporting body named; independence not established", "corroboration": "independent", "evidence_quote": "महाशाखाका मौसमविद् हरिप्रसाद दाहालले रसुवाको भोटेकोशी बाढी प्रभावित क्षेत्रमा आज अधिकांश स्थानमा मध्यमसम्म वर्षा हुने सम्भावना रहेको जानकारी दिए । “एकदुई स्थानमा भारी वर्षा हुनसक्ने भएकाले खोज तथा उद्धार प्रभावित हुनसक्छ । त्यसैले सतर्कता आवश्यक छ,” उनले भने ।", "evidence_quote_en": "Meteorologist Hari Prasad Dahal of the division said moderate rain is expected today in most of the Bhotekoshi flood-affected area of Rasuwa. \"Heavy rain may occur in one or two places, which could affect search and rescue. So caution is needed,\" he said.", "temporal_contamination_flag": "", "hazard": "further_flooding", "action": "warning_issued", "source_outlets": "ABC NEWS NEPAL; myRepublica; Direct Relief; srpske.rs; DT Next; The Hindu; Fana News -; The Times of India; Rediff; Telangana Today; NepalNews; The Japan Times; Business Standard; India Today; Ratopati; The Daily Jagran; nepyork; The New Indian Express; Bernama", "source_outlet_count": 21, "entity_key": "further_flooding|Rasuwa", "geo_resolution": "district", "geo_statement": "Located to Rasuwa district only", "geo_match_name": null, "geo_match_osm_id": null, "geo_anchor_id": "79688334B50883418539268", "geo_anchor_name": "Rasuwa"}, "geometry": {"type": "Point", "coordinates": [85.43275923020244, 28.17010993431697]}}, {"type": "Feature", "properties": {"record_id": "78aa20e058458706", "table": "hazard_watch", "location_raw": "Lhende River, about 18 km upstream from Rasuwagadhi border crossing", "location_ne": "", "admin_level": "settlement", "district": "Rasuwa", "province": "Bagmati", "geo_basis": "text_explicit", "as_of": "2026-08-29", "as_of_basis": "article_date", "first_reported": "2026-08-29", "last_reported": "2026-08-29", "confidence": "high", "confidence_note": "Specific river, distance and lake size given relative to a named border crossing.", "density": "1", "effective_sources": "1", "independent_origins": "1", "origin": "media_own", "origin_note": "single outlet", "corroboration": "single_source", "evidence_quote": "Preliminary satellite analysis indicates that the flow of the Lhende River has been blocked about 18 kilometers upstream from the Rasuwagadhi border crossing, creating a lake estimated at about 0.11 square kilometer.", "evidence_quote_en": "", "temporal_contamination_flag": "False", "hazard": "barrier_lake", "action": "warning_issued", "source_outlets": "nepyork", "source_outlet_count": 1, "entity_key": "barrier_lake|Rasuwa", "geo_resolution": "district", "geo_statement": "Located to Rasuwa district only — the source names a place we could not resolve", "geo_match_name": null, "geo_match_osm_id": null, "geo_anchor_id": "79688334B50883418539268", "geo_anchor_name": "Rasuwa"}, "geometry": {"type": "Point", "coordinates": [85.43275923020244, 28.17010993431697]}}, {"type": "Feature", "properties": {"record_id": "8305e9ad1e902027", "table": "hazard_watch", "location_raw": "Rasuwagadhi border crossing (Lhende River)", "location_ne": "", "admin_level": "settlement", "district": "Rasuwa", "province": "Bagmati", "geo_basis": "text_explicit", "as_of": "2026-08-29", "as_of_basis": "article_date", "first_reported": "2026-08-29", "last_reported": "2026-08-29", "confidence": "high", "confidence_note": "Specific named river and border crossing, warning attributed to NDRRMA.", "density": "1", "effective_sources": "1", "independent_origins": "1", "origin": "media_own", "origin_note": "single outlet", "corroboration": "single_source", "evidence_quote": "Satellite analysis showed a large new lake formed above the Rasuwagadhi border crossing due to the obstruction of the Lhende River, prompting an earlier warning from Kathmandu’s Disaster Risk Reduction and Management Authority.", "evidence_quote_en": "", "temporal_contamination_flag": "False", "hazard": "barrier_lake", "action": "warning_issued", "source_outlets": "Irish Independent", "source_outlet_count": 1, "entity_key": "barrier_lake|Rasuwa", "geo_resolution": "district", "geo_statement": "Located to Rasuwa district only — the source names a place we could not resolve", "geo_match_name": null, "geo_match_osm_id": null, "geo_anchor_id": "79688334B50883418539268", "geo_anchor_name": "Rasuwa"}, "geometry": {"type": "Point", "coordinates": [85.43275923020244, 28.17010993431697]}}]}