{"type": "FeatureCollection", "features": [{"type": "Feature", "geometry": {"type": "Point", "coordinates": [85.378097, 28.278944]}, "properties": {"bridge_name": "Miteri Bridge, Rasuwagadhi", "bridge_type": "Permanent", "district": "Rasuwa", "location": "Rasuwagadhi", "length_m": null, "damage_status": "Washed out", "data_source": "ICIMOD"}}, {"type": "Feature", "geometry": {"type": "Point", "coordinates": [85.343281, 28.182803]}, "properties": {"bridge_name": "Bhotekoshi Bridge at Chilime", "bridge_type": "Permanent", "district": "Rasuwa", "location": "Chilime", "length_m": null, "damage_status": "Washed out", "data_source": "ICIMOD"}}, {"type": "Feature", "geometry": {"type": "Point", "coordinates": [85.342219, 28.181653]}, "properties": {"bridge_name": "Chilime Bridge, Chilime Khola", "bridge_type": "Permanent", "district": "Rasuwa", "location": "Chilime", "length_m": null, "damage_status": "Washed out", "data_source": "ICIMOD"}}, {"type": "Feature", "geometry": {"type": "Point", "coordinates": [85.332492, 28.157478]}, "properties": {"bridge_name": "Syafrubesi Bridge", "bridge_type": "Permanent", "district": "Rasuwa", "location": "Syafrubesi", "length_m": null, "damage_status": "Washed out", "data_source": "ICIMOD"}}, {"type": "Feature", "geometry": {"type": "Point", "coordinates": [85.206325, 28.062578]}, "properties": {"bridge_name": "Trishuli River Bridge Mailung near Trushuli 3A Dam1", "bridge_type": "Permanent", "district": "Rasuwa", "location": "", "length_m": null, "damage_status": "Washed out", "data_source": "ICIMOD"}}, {"type": "Feature", "geometry": {"type": "Point", "coordinates": [85.206686, 28.062053]}, "properties": {"bridge_name": "Trishuli River Bridge Mailung near Trushuli 3A Dam2", "bridge_type": "Permanent", "district": "Rasuwa", "location": "", "length_m": null, "damage_status": "Washed out", "data_source": "ICIMOD"}}, {"type": "Feature", "geometry": {"type": "Point", "coordinates": [85.184889, 27.995342]}, "properties": {"bridge_name": "Boktekoshi River Bridge, Khalte", "bridge_type": "Permanent", "district": "Nuwakot-Rasuwa", "location": "Khalte", "length_m": null, "damage_status": "Washed out", "data_source": "ICIMOD"}}, {"type": "Feature", "geometry": {"type": "Point", "coordinates": [85.185811, 27.974339]}, "properties": {"bridge_name": "Betrawati Old Bridge", "bridge_type": "Permanent", "district": "Nuwakot-Rasuwa", "location": "Betrawati", "length_m": 70.0, "damage_status": "Washed out", "data_source": "ICIMOD"}}, {"type": "Feature", "geometry": {"type": "Point", "coordinates": [85.185811, 27.974339]}, "properties": {"bridge_name": "Betrawati New Bridge", "bridge_type": "Permanent", "district": "Nuwakot-Rasuwa", "location": "Betrawati", "length_m": 70.0, "damage_status": "Washed out", "data_source": "ICIMOD"}}, {"type": "Feature", "geometry": {"type": "Point", "coordinates": [85.172811, 27.963778]}, "properties": {"bridge_name": "Trisuli River Bridge Tupche", "bridge_type": "Permanent", "district": "Nuwakot", "location": "Tupche", "length_m": 100.0, "damage_status": "Washed out", "data_source": "ICIMOD"}}, {"type": "Feature", "geometry": {"type": "Point", "coordinates": [85.14945, 27.921828]}, "properties": {"bridge_name": "Trisuli River Bridge ,Trisuli Bazzar(Old)", "bridge_type": "Permanent", "district": "Nuwakot", "location": "Trisuli Bazzar", "length_m": 60.0, "damage_status": "Washed out", "data_source": "ICIMOD"}}, {"type": "Feature", "geometry": {"type": "Point", "coordinates": [85.147964, 27.921236]}, "properties": {"bridge_name": "Trisuli River Bridge ,Trisuli Bazzar(New)", "bridge_type": "Permanent", "district": "Nuwakot", "location": "Trisuli Bazzar", "length_m": 60.0, "damage_status": "Washed out", "data_source": "ICIMOD"}}, {"type": "Feature", "geometry": {"type": "Point", "coordinates": [85.138503, 27.909486]}, "properties": {"bridge_name": "Trisuli River Bridge ,Simchaur", "bridge_type": "Permanent", "district": "Nuwakot", "location": "Simchaur", "length_m": 100.0, "damage_status": "Washed out", "data_source": "ICIMOD"}}, {"type": "Feature", "geometry": {"type": "Point", "coordinates": [85.1365, 27.892342]}, "properties": {"bridge_name": "Suspension Bridge at Devighat near Jalshrot tatha Sinchai Division", "bridge_type": "Permanent", "district": "Nuwakot", "location": "Devighat", "length_m": null, "damage_status": "Washed out", "data_source": "ICIMOD"}}, {"type": "Feature", "geometry": {"type": "Point", "coordinates": [85.116225, 27.870339]}, "properties": {"bridge_name": "Trisuli River Bridge, Near Devighat, Midhill Highway", "bridge_type": "Permanent", "district": "Nuwakot", "location": "Near DeviGhat", "length_m": null, "damage_status": "Washed out", "data_source": "ICIMOD"}}, {"type": "Feature", "geometry": {"type": "Point", "coordinates": [85.109075, 27.858575]}, "properties": {"bridge_name": "Tandi Khola Bridge, Devighat (Old)", "bridge_type": "Permanent", "district": "Nuwakot", "location": "Devighat", "length_m": 55.0, "damage_status": "Washed out", "data_source": "ICIMOD"}}, {"type": "Feature", "geometry": {"type": "Point", "coordinates": [85.109075, 27.858575]}, "properties": {"bridge_name": "Tandi Khola Bridge, Devighat (New)", "bridge_type": "Permanent", "district": "Nuwakot", "location": "Devighat", "length_m": 55.0, "damage_status": "Washed out", "data_source": "ICIMOD"}}, {"type": "Feature", "geometry": {"type": "Point", "coordinates": [85.098708, 27.859317]}, "properties": {"bridge_name": "Trisuli River Bridge,Khadgabhanjyang Srikhali Sadak", "bridge_type": "Permanent", "district": "Nuwakot", "location": "Srikhali", "length_m": 180.0, "damage_status": "Washed out", "data_source": "ICIMOD"}}, {"type": "Feature", "geometry": {"type": "Point", "coordinates": [85.061936, 27.859481]}, "properties": {"bridge_name": "Trishuli River Bridge, Buddhasinghghat", "bridge_type": "Permanent", "district": "Nuwakot", "location": "Buddhasinghghat", "length_m": 180.0, "damage_status": "Washed out", "data_source": "ICIMOD"}}, {"type": "Feature", "geometry": {"type": "Point", "coordinates": [85.041189, 27.856097]}, "properties": {"bridge_name": "Trishuli River Bridge, Ratmate", "bridge_type": "Permanent", "district": "Nuwakot", "location": "Ratmate", "length_m": 150.0, "damage_status": "Washed out", "data_source": "ICIMOD"}}, {"type": "Feature", "geometry": {"type": "Point", "coordinates": [85.022333, 27.832525]}, "properties": {"bridge_name": "Trishuli River Bridge, Keurini, Fosretar", "bridge_type": "Permanent", "district": "Nuwakot", "location": "Keurini, Fosretar", "length_m": null, "damage_status": "Washed out", "data_source": "ICIMOD"}}, {"type": "Feature", "geometry": {"type": "Point", "coordinates": [85.002772, 27.802689]}, "properties": {"bridge_name": "Trishuli River Bridge, BhimDhunga Lami Danda Sadak", "bridge_type": "Permanent", "district": "Dhading", "location": "Near Galchhi", "length_m": 150.0, "damage_status": "Spared", "data_source": "ICIMOD"}}, {"type": "Feature", "geometry": {"type": "Point", "coordinates": [84.990489, 27.804283]}, "properties": {"bridge_name": "Trishuli River Bridge, Baireni Syaltar Sadak", "bridge_type": "Permanent", "district": "Dhading", "location": "Below Galchhi", "length_m": 150.0, "damage_status": "Washed out", "data_source": "ICIMOD"}}, {"type": "Feature", "geometry": {"type": "Point", "coordinates": [84.965264, 27.811858]}, "properties": {"bridge_name": "Trisuli River Bridge, Mastar Dhading", "bridge_type": "Permanent", "district": "Dhading", "location": "Near Hamlet Resort", "length_m": 140.0, "damage_status": "Damaged", "data_source": "ICIMOD"}}, {"type": "Feature", "geometry": {"type": "Point", "coordinates": [84.924281, 27.797928]}, "properties": {"bridge_name": "Trisuli River Bridge, JareBagaicha", "bridge_type": "Permanent", "district": "Dhading", "location": "JareBagaicha", "length_m": 120.0, "damage_status": "Washed out", "data_source": "ICIMOD"}}, {"type": "Feature", "geometry": {"type": "Point", "coordinates": [84.901881, 27.806886]}, "properties": {"bridge_name": "Trisuli River Bridge, Ghatbesi", "bridge_type": "Permanent", "district": "Dhading", "location": "Ghatbesi", "length_m": 200.0, "damage_status": "Washed out", "data_source": "ICIMOD"}}, {"type": "Feature", "geometry": {"type": "Point", "coordinates": [85.016211, 27.810111]}, "properties": {"bridge_name": "Kolpu Khola Bridge (Old)", "bridge_type": "Permanent", "district": "Dhading", "location": "", "length_m": 40.0, "damage_status": "Damaged", "data_source": "ICIMOD"}}, {"type": "Feature", "geometry": {"type": "Point", "coordinates": [85.016211, 27.810111]}, "properties": {"bridge_name": "Kolpu Khola Bridge (New)", "bridge_type": "Permanent", "district": "Dhading", "location": "", "length_m": 40.0, "damage_status": "Damaged", "data_source": "ICIMOD"}}, {"type": "Feature", "geometry": {"type": "Point", "coordinates": [84.844075, 27.802544]}, "properties": {"bridge_name": "Trishuli River Bridge, Furke Khola", "bridge_type": "Permanent", "district": "Dhading", "location": "Malelkhu", "length_m": 120.0, "damage_status": "Washed out", "data_source": "ICIMOD"}}, {"type": "Feature", "geometry": {"type": "Point", "coordinates": [84.777081, 27.810589]}, "properties": {"bridge_name": "Trishuli River Bridge, Benighat", "bridge_type": "Permanent", "district": "Dhading", "location": "Benighat", "length_m": null, "damage_status": "Spared", "data_source": "ICIMOD"}}, {"type": "Feature", "geometry": {"type": "Point", "coordinates": [84.662064, 27.844628]}, "properties": {"bridge_name": "Trisuli River Bridge, Fisling Gorkha", "bridge_type": "Permanent", "district": "Dhading", "location": "Fishling", "length_m": 145.0, "damage_status": "Spared", "data_source": "ICIMOD"}}]}